{
  "type": "FeatureCollection",
  "features": [
    {
      "type": "Feature",
      "properties": {
        "role": "outline",
        "layout": "gp",
        "basis": "midline"
      },
      "geometry": {
        "type": "LineString",
        "coordinates": [
          [
            -83.8135151,
            34.1500035
          ],
          [
            -83.813371,
            34.1499284
          ],
          [
            -83.8132269,
            34.1498534
          ],
          [
            -83.8130828,
            34.1497783
          ],
          [
            -83.8129387,
            34.1497032
          ],
          [
            -83.812842,
            34.1496533
          ],
          [
            -83.8127452,
            34.1496034
          ],
          [
            -83.8126257,
            34.1495412
          ],
          [
            -83.8125063,
            34.149479
          ],
          [
            -83.8124139,
            34.1494318
          ],
          [
            -83.8123039,
            34.1493739
          ],
          [
            -83.812194,
            34.1493161
          ],
          [
            -83.8120493,
            34.1492407
          ],
          [
            -83.8119046,
            34.1491652
          ],
          [
            -83.8117599,
            34.1490898
          ],
          [
            -83.8116153,
            34.1490144
          ],
          [
            -83.8114963,
            34.1489515
          ],
          [
            -83.8113689,
            34.1488829
          ],
          [
            -83.8112616,
            34.1488217
          ],
          [
            -83.8111196,
            34.1487389
          ],
          [
            -83.8110757,
            34.1487124
          ],
          [
            -83.8110329,
            34.1486848
          ],
          [
            -83.8109571,
            34.1486337
          ],
          [
            -83.8108253,
            34.1485398
          ],
          [
            -83.8107763,
            34.1485043
          ],
          [
            -83.8106793,
            34.1484321
          ],
          [
            -83.8106321,
            34.1483949
          ],
          [
            -83.810555,
            34.1483316
          ],
          [
            -83.8105144,
            34.1483016
          ],
          [
            -83.8104831,
            34.1482767
          ],
          [
            -83.8104307,
            34.148231
          ],
          [
            -83.8104101,
            34.1482102
          ],
          [
            -83.8103987,
            34.1481948
          ],
          [
            -83.8103849,
            34.1481703
          ],
          [
            -83.8103211,
            34.1480265
          ],
          [
            -83.8103117,
            34.1480006
          ],
          [
            -83.8103063,
            34.1479832
          ],
          [
            -83.8102976,
            34.1479478
          ],
          [
            -83.8102901,
            34.1479123
          ],
          [
            -83.8102859,
            34.1478855
          ],
          [
            -83.8102831,
            34.1478586
          ],
          [
            -83.8102806,
            34.1478226
          ],
          [
            -83.8102798,
            34.1477955
          ],
          [
            -83.8102802,
            34.1477775
          ],
          [
            -83.8102826,
            34.1477505
          ],
          [
            -83.8102875,
            34.1477147
          ],
          [
            -83.8102922,
            34.1476879
          ],
          [
            -83.8103086,
            34.1476171
          ],
          [
            -83.8103244,
            34.1475646
          ],
          [
            -83.8103436,
            34.147513
          ],
          [
            -83.8103822,
            34.1474003
          ],
          [
            -83.8104023,
            34.1473488
          ],
          [
            -83.8104139,
            34.1473235
          ],
          [
            -83.8104236,
            34.1473074
          ],
          [
            -83.8104947,
            34.1472062
          ],
          [
            -83.8105049,
            34.1471903
          ],
          [
            -83.8105134,
            34.1471737
          ],
          [
            -83.8105322,
            34.1471315
          ],
          [
            -83.8105493,
            34.1470983
          ],
          [
            -83.8105732,
            34.1470578
          ],
          [
            -83.8105987,
            34.1470181
          ],
          [
            -83.8106845,
            34.1468927
          ],
          [
            -83.8107524,
            34.1468004
          ],
          [
            -83.8107951,
            34.1467482
          ],
          [
            -83.8108209,
            34.1467193
          ],
          [
            -83.8108417,
            34.1466985
          ],
          [
            -83.8108711,
            34.1466719
          ],
          [
            -83.8109015,
            34.1466462
          ],
          [
            -83.8109724,
            34.1465905
          ],
          [
            -83.8110687,
            34.1465177
          ],
          [
            -83.811165,
            34.146445
          ],
          [
            -83.8112747,
            34.1463578
          ],
          [
            -83.8113844,
            34.1462705
          ],
          [
            -83.8114539,
            34.1462136
          ],
          [
            -83.811484,
            34.1461876
          ],
          [
            -83.811599,
            34.1460796
          ],
          [
            -83.8116337,
            34.146045
          ],
          [
            -83.8117101,
            34.1459574
          ],
          [
            -83.8117814,
            34.1458669
          ],
          [
            -83.8117971,
            34.1458432
          ],
          [
            -83.8118518,
            34.1457551
          ],
          [
            -83.8118894,
            34.1456901
          ],
          [
            -83.811911,
            34.1456488
          ],
          [
            -83.8119475,
            34.1455735
          ],
          [
            -83.8119588,
            34.1455482
          ],
          [
            -83.8119785,
            34.1454966
          ],
          [
            -83.8119863,
            34.1454704
          ],
          [
            -83.8120077,
            34.145382
          ],
          [
            -83.812029,
            34.1452936
          ],
          [
            -83.8120466,
            34.1452046
          ],
          [
            -83.812053,
            34.1451781
          ],
          [
            -83.8120595,
            34.1451609
          ],
          [
            -83.812068,
            34.1451443
          ],
          [
            -83.8120791,
            34.1451288
          ],
          [
            -83.8120918,
            34.1451142
          ],
          [
            -83.8121545,
            34.145052
          ],
          [
            -83.8121692,
            34.1450388
          ],
          [
            -83.8121934,
            34.1450207
          ],
          [
            -83.8122111,
            34.1450104
          ],
          [
            -83.8122298,
            34.1450012
          ],
          [
            -83.8122595,
            34.1449902
          ],
          [
            -83.812352,
            34.1449644
          ],
          [
            -83.812403,
            34.1449491
          ],
          [
            -83.8124757,
            34.144931
          ],
          [
            -83.8125371,
            34.1449131
          ],
          [
            -83.812589,
            34.1449
          ],
          [
            -83.8126196,
            34.1448908
          ],
          [
            -83.8127591,
            34.144841
          ],
          [
            -83.8127985,
            34.1448259
          ],
          [
            -83.8128273,
            34.1448134
          ],
          [
            -83.8128557,
            34.1448002
          ],
          [
            -83.81292,
            34.1447666
          ],
          [
            -83.8129469,
            34.1447514
          ],
          [
            -83.8129732,
            34.1447355
          ],
          [
            -83.8130329,
            34.1446966
          ],
          [
            -83.8130904,
            34.1446554
          ],
          [
            -83.8131542,
            34.1446066
          ],
          [
            -83.8131845,
            34.1445808
          ],
          [
            -83.8132268,
            34.1445396
          ],
          [
            -83.8132743,
            34.1444904
          ],
          [
            -83.8133056,
            34.1444536
          ],
          [
            -83.8133283,
            34.1444229
          ],
          [
            -83.8133775,
            34.1443528
          ],
          [
            -83.8133927,
            34.1443289
          ],
          [
            -83.8134066,
            34.1443044
          ],
          [
            -83.813419,
            34.1442794
          ],
          [
            -83.8134339,
            34.1442456
          ],
          [
            -83.8134704,
            34.1441512
          ],
          [
            -83.8134913,
            34.1441
          ],
          [
            -83.8135031,
            34.1440653
          ],
          [
            -83.8135297,
            34.1439779
          ],
          [
            -83.8135642,
            34.143855
          ],
          [
            -83.8135889,
            34.1437764
          ],
          [
            -83.8135987,
            34.1437507
          ],
          [
            -83.813625,
            34.1436915
          ],
          [
            -83.8136386,
            34.1436572
          ],
          [
            -83.8136909,
            34.1435009
          ],
          [
            -83.8137328,
            34.143389
          ],
          [
            -83.8137408,
            34.1433628
          ],
          [
            -83.8137606,
            34.1432833
          ],
          [
            -83.813768,
            34.143257
          ],
          [
            -83.8137943,
            34.1431789
          ],
          [
            -83.8138077,
            34.1431446
          ],
          [
            -83.8138198,
            34.1431195
          ],
          [
            -83.8138381,
            34.1430867
          ],
          [
            -83.8138579,
            34.1430547
          ],
          [
            -83.8138741,
            34.1430312
          ],
          [
            -83.8138985,
            34.1430014
          ],
          [
            -83.8139249,
            34.1429728
          ],
          [
            -83.8139635,
            34.1429293
          ],
          [
            -83.8139904,
            34.142901
          ],
          [
            -83.8140186,
            34.1428736
          ],
          [
            -83.8140481,
            34.1428472
          ],
          [
            -83.8140789,
            34.1428218
          ],
          [
            -83.8141192,
            34.1427916
          ],
          [
            -83.8141607,
            34.1427627
          ],
          [
            -83.8141867,
            34.1427464
          ],
          [
            -83.8142136,
            34.1427312
          ],
          [
            -83.8142593,
            34.1427069
          ],
          [
            -83.8142877,
            34.1426937
          ],
          [
            -83.8143073,
            34.142686
          ],
          [
            -83.8144219,
            34.1426452
          ],
          [
            -83.8145365,
            34.1426044
          ],
          [
            -83.8146076,
            34.1425821
          ],
          [
            -83.8146692,
            34.1425649
          ],
          [
            -83.8147189,
            34.1425467
          ],
          [
            -83.8147571,
            34.1425297
          ],
          [
            -83.8147941,
            34.1425109
          ],
          [
            -83.8148208,
            34.1424954
          ],
          [
            -83.8148728,
            34.142463
          ],
          [
            -83.8149263,
            34.1424322
          ],
          [
            -83.8149777,
            34.1423991
          ],
          [
            -83.8150182,
            34.142369
          ],
          [
            -83.8151318,
            34.1422723
          ],
          [
            -83.815169,
            34.1422395
          ],
          [
            -83.8152118,
            34.1421987
          ],
          [
            -83.8152658,
            34.1421423
          ],
          [
            -83.8152919,
            34.1421135
          ],
          [
            -83.8153871,
            34.1420038
          ],
          [
            -83.8154138,
            34.1419754
          ],
          [
            -83.8154281,
            34.1419619
          ],
          [
            -83.8154511,
            34.1419428
          ],
          [
            -83.8154754,
            34.1419248
          ],
          [
            -83.8155005,
            34.1419076
          ],
          [
            -83.8155689,
            34.1418632
          ],
          [
            -83.8155954,
            34.1418476
          ],
          [
            -83.8156316,
            34.1418277
          ],
          [
            -83.8156685,
            34.1418087
          ],
          [
            -83.8157712,
            34.1417584
          ],
          [
            -83.8157996,
            34.1417451
          ],
          [
            -83.8158284,
            34.1417326
          ],
          [
            -83.8158579,
            34.1417212
          ],
          [
            -83.8158978,
            34.1417071
          ],
          [
            -83.8159282,
            34.1416975
          ],
          [
            -83.815959,
            34.1416888
          ],
          [
            -83.8160009,
            34.1416793
          ],
          [
            -83.8160221,
            34.1416757
          ],
          [
            -83.8160649,
            34.1416698
          ],
          [
            -83.8160755,
            34.1416679
          ],
          [
            -83.8160963,
            34.1416627
          ],
          [
            -83.8161265,
            34.1416527
          ],
          [
            -83.8161462,
            34.1416451
          ],
          [
            -83.8161842,
            34.1416277
          ],
          [
            -83.8162115,
            34.141613
          ],
          [
            -83.8162377,
            34.1415971
          ],
          [
            -83.8162712,
            34.1415741
          ],
          [
            -83.8162947,
            34.1415554
          ],
          [
            -83.8163092,
            34.1415421
          ],
          [
            -83.8163293,
            34.1415207
          ],
          [
            -83.8163609,
            34.1414841
          ],
          [
            -83.8163782,
            34.1414612
          ],
          [
            -83.8163882,
            34.1414452
          ],
          [
            -83.8163972,
            34.1414288
          ],
          [
            -83.8164169,
            34.1413868
          ],
          [
            -83.8164237,
            34.1413697
          ],
          [
            -83.8164294,
            34.1413523
          ],
          [
            -83.816435,
            34.1413257
          ],
          [
            -83.8164368,
            34.1412987
          ],
          [
            -83.8164349,
            34.1412536
          ],
          [
            -83.8164354,
            34.1412356
          ],
          [
            -83.8164372,
            34.1412176
          ],
          [
            -83.8164442,
            34.1411729
          ],
          [
            -83.8164462,
            34.1410738
          ],
          [
            -83.8164489,
            34.1410468
          ],
          [
            -83.816455,
            34.1410111
          ],
          [
            -83.816457,
            34.1409932
          ],
          [
            -83.8164574,
            34.1409751
          ],
          [
            -83.8164559,
            34.1409301
          ],
          [
            -83.8164572,
            34.1409121
          ],
          [
            -83.816463,
            34.1408673
          ],
          [
            -83.8164653,
            34.1408403
          ],
          [
            -83.8164659,
            34.1408133
          ],
          [
            -83.8164632,
            34.1407412
          ],
          [
            -83.8164644,
            34.1407141
          ],
          [
            -83.8164692,
            34.1406602
          ],
          [
            -83.8164722,
            34.1406333
          ],
          [
            -83.8164772,
            34.1406065
          ],
          [
            -83.8164819,
            34.1405889
          ],
          [
            -83.8164962,
            34.1405455
          ],
          [
            -83.8165049,
            34.1405101
          ],
          [
            -83.8165092,
            34.1404833
          ],
          [
            -83.8165173,
            34.1404115
          ],
          [
            -83.816519,
            34.1403755
          ],
          [
            -83.816519,
            34.1403034
          ],
          [
            -83.8165161,
            34.1402764
          ],
          [
            -83.8165088,
            34.1402409
          ],
          [
            -83.8165059,
            34.140223
          ],
          [
            -83.816502,
            34.1401871
          ],
          [
            -83.816501,
            34.140151
          ],
          [
            -83.8165028,
            34.1400609
          ],
          [
            -83.8165066,
            34.1400159
          ],
          [
            -83.8165215,
            34.1398994
          ],
          [
            -83.8165274,
            34.1398455
          ],
          [
            -83.8165343,
            34.1397556
          ],
          [
            -83.8165396,
            34.1396655
          ],
          [
            -83.8165494,
            34.1395486
          ],
          [
            -83.8165592,
            34.1394317
          ],
          [
            -83.8165624,
            34.1393777
          ],
          [
            -83.8165668,
            34.1392605
          ],
          [
            -83.8165752,
            34.1391616
          ],
          [
            -83.8165798,
            34.1390896
          ],
          [
            -83.8165864,
            34.1390086
          ],
          [
            -83.8165888,
            34.1389636
          ],
          [
            -83.8165912,
            34.1388915
          ],
          [
            -83.816594,
            34.1387653
          ],
          [
            -83.8165916,
            34.1386481
          ],
          [
            -83.8165892,
            34.138531
          ],
          [
            -83.8165858,
            34.1384409
          ],
          [
            -83.8165793,
            34.1383057
          ],
          [
            -83.8165727,
            34.1381706
          ],
          [
            -83.8165662,
            34.1380355
          ],
          [
            -83.816556,
            34.1378734
          ],
          [
            -83.8165459,
            34.1377114
          ],
          [
            -83.8165423,
            34.1376393
          ],
          [
            -83.8165344,
            34.1375223
          ],
          [
            -83.8165247,
            34.1374235
          ],
          [
            -83.8165221,
            34.1373875
          ],
          [
            -83.8165212,
            34.1373514
          ],
          [
            -83.816524,
            34.1373064
          ],
          [
            -83.8165243,
            34.1372884
          ],
          [
            -83.8165211,
            34.1372253
          ],
          [
            -83.8165186,
            34.1371984
          ],
          [
            -83.8165066,
            34.1371088
          ],
          [
            -83.8165025,
            34.1370638
          ],
          [
            -83.8164943,
            34.1370011
          ],
          [
            -83.8164847,
            34.1368661
          ],
          [
            -83.8164794,
            34.1367761
          ],
          [
            -83.8164793,
            34.13674
          ],
          [
            -83.816483,
            34.1367041
          ],
          [
            -83.8164936,
            34.1366507
          ],
          [
            -83.8165005,
            34.1366243
          ],
          [
            -83.816506,
            34.1366068
          ],
          [
            -83.8165161,
            34.1365811
          ],
          [
            -83.8165284,
            34.1365561
          ],
          [
            -83.8165475,
            34.1365237
          ],
          [
            -83.8165738,
            34.1364843
          ],
          [
            -83.8165971,
            34.1364539
          ],
          [
            -83.8166223,
            34.1364245
          ],
          [
            -83.8166492,
            34.1363962
          ],
          [
            -83.8166783,
            34.1363695
          ],
          [
            -83.8167018,
            34.1363508
          ],
          [
            -83.816735,
            34.1363276
          ],
          [
            -83.81677,
            34.1363063
          ],
          [
            -83.8167974,
            34.1362917
          ],
          [
            -83.816826,
            34.1362788
          ],
          [
            -83.8168653,
            34.1362635
          ],
          [
            -83.8169055,
            34.1362501
          ],
          [
            -83.8169363,
            34.1362414
          ],
          [
            -83.816978,
            34.1362316
          ],
          [
            -83.8170205,
            34.1362243
          ],
          [
            -83.8170958,
            34.1362162
          ],
          [
            -83.8171494,
            34.1362097
          ],
          [
            -83.8171925,
            34.1362056
          ],
          [
            -83.8173979,
            34.1361921
          ],
          [
            -83.8174953,
            34.1361873
          ],
          [
            -83.8175816,
            34.1361803
          ],
          [
            -83.817679,
            34.1361749
          ],
          [
            -83.8178087,
            34.1361658
          ],
          [
            -83.8178844,
            34.1361617
          ],
          [
            -83.8179384,
            34.1361576
          ],
          [
            -83.8180033,
            34.1361541
          ],
          [
            -83.8180681,
            34.1361494
          ],
          [
            -83.8181006,
            34.136148
          ],
          [
            -83.8181331,
            34.136149
          ],
          [
            -83.8181546,
            34.1361512
          ],
          [
            -83.8181868,
            34.1361554
          ],
          [
            -83.8182291,
            34.136163
          ],
          [
            -83.8182497,
            34.1361687
          ],
          [
            -83.8182696,
            34.1361759
          ],
          [
            -83.8182887,
            34.1361845
          ],
          [
            -83.8182977,
            34.1361894
          ],
          [
            -83.8183148,
            34.1362005
          ],
          [
            -83.8183228,
            34.1362067
          ],
          [
            -83.8183371,
            34.1362202
          ],
          [
            -83.8183497,
            34.1362348
          ],
          [
            -83.8183611,
            34.1362502
          ],
          [
            -83.8183765,
            34.136274
          ],
          [
            -83.8183854,
            34.1362905
          ],
          [
            -83.8183925,
            34.1363075
          ],
          [
            -83.8183976,
            34.136325
          ],
          [
            -83.8184008,
            34.1363429
          ],
          [
            -83.8184021,
            34.1363609
          ],
          [
            -83.8184019,
            34.1363789
          ],
          [
            -83.8183977,
            34.1364238
          ],
          [
            -83.8183809,
            34.1365493
          ],
          [
            -83.818364,
            34.1366747
          ],
          [
            -83.8183451,
            34.1367726
          ],
          [
            -83.8183418,
            34.1368357
          ],
          [
            -83.8183325,
            34.1369074
          ],
          [
            -83.8183259,
            34.1369793
          ],
          [
            -83.8183104,
            34.137073
          ],
          [
            -83.8182948,
            34.1371668
          ],
          [
            -83.818272,
            34.1372825
          ],
          [
            -83.8182491,
            34.1373981
          ],
          [
            -83.8182196,
            34.1375311
          ],
          [
            -83.8181914,
            34.1376505
          ],
          [
            -83.8181631,
            34.1377699
          ],
          [
            -83.818144,
            34.1378587
          ],
          [
            -83.8181291,
            34.1379389
          ],
          [
            -83.8181063,
            34.1380727
          ],
          [
            -83.8180969,
            34.1381354
          ],
          [
            -83.8180876,
            34.1382071
          ],
          [
            -83.8180783,
            34.138324
          ],
          [
            -83.8180714,
            34.1384411
          ],
          [
            -83.8180674,
            34.1385492
          ],
          [
            -83.8180658,
            34.1386664
          ],
          [
            -83.8180669,
            34.1387836
          ],
          [
            -83.8180703,
            34.1389007
          ],
          [
            -83.8180729,
            34.1389548
          ],
          [
            -83.8180791,
            34.1390538
          ],
          [
            -83.8180854,
            34.1391529
          ],
          [
            -83.8180944,
            34.1392517
          ],
          [
            -83.8181075,
            34.1393639
          ],
          [
            -83.8181206,
            34.1394761
          ],
          [
            -83.8181318,
            34.1395657
          ],
          [
            -83.8181546,
            34.1397269
          ],
          [
            -83.8181774,
            34.1398881
          ],
          [
            -83.8181956,
            34.1400088
          ],
          [
            -83.8182139,
            34.1401296
          ],
          [
            -83.8182288,
            34.1402189
          ],
          [
            -83.8182448,
            34.1403262
          ],
          [
            -83.8182608,
            34.1404336
          ],
          [
            -83.8182811,
            34.1405587
          ],
          [
            -83.8183009,
            34.1406929
          ],
          [
            -83.8183175,
            34.1407956
          ],
          [
            -83.8183342,
            34.1408984
          ],
          [
            -83.8183456,
            34.140979
          ],
          [
            -83.8183738,
            34.1411486
          ],
          [
            -83.8183961,
            34.1413098
          ],
          [
            -83.8184071,
            34.1413723
          ],
          [
            -83.8184237,
            34.141475
          ],
          [
            -83.8184404,
            34.1415778
          ],
          [
            -83.8184643,
            34.1417297
          ],
          [
            -83.818476,
            34.1418103
          ],
          [
            -83.8185012,
            34.1419667
          ],
          [
            -83.8185263,
            34.142123
          ],
          [
            -83.818552,
            34.142293
          ],
          [
            -83.8185762,
            34.1424449
          ],
          [
            -83.8186005,
            34.1425968
          ],
          [
            -83.8186247,
            34.1427488
          ],
          [
            -83.8186508,
            34.1429187
          ],
          [
            -83.8186719,
            34.1430437
          ],
          [
            -83.8186897,
            34.1431234
          ],
          [
            -83.8186944,
            34.1431502
          ],
          [
            -83.8186957,
            34.1431682
          ],
          [
            -83.8186948,
            34.1431862
          ],
          [
            -83.8186791,
            34.1432936
          ],
          [
            -83.8186767,
            34.1433206
          ],
          [
            -83.8186773,
            34.1433386
          ],
          [
            -83.8186804,
            34.1433564
          ],
          [
            -83.8186888,
            34.1433918
          ],
          [
            -83.8187061,
            34.1434899
          ],
          [
            -83.8187225,
            34.1435607
          ],
          [
            -83.8187407,
            34.1436496
          ],
          [
            -83.8187589,
            34.1437385
          ],
          [
            -83.8187823,
            34.1438449
          ],
          [
            -83.8187973,
            34.1439159
          ],
          [
            -83.8188003,
            34.1439338
          ],
          [
            -83.8188033,
            34.1439607
          ],
          [
            -83.8188105,
            34.1440507
          ],
          [
            -83.8188177,
            34.1441768
          ],
          [
            -83.8188215,
            34.1442759
          ],
          [
            -83.8188225,
            34.144348
          ],
          [
            -83.8188219,
            34.1444291
          ],
          [
            -83.818819,
            34.1445463
          ],
          [
            -83.8188149,
            34.1446274
          ],
          [
            -83.8188071,
            34.1447173
          ],
          [
            -83.8187993,
            34.1448072
          ],
          [
            -83.8187889,
            34.1448969
          ],
          [
            -83.8187719,
            34.1450224
          ],
          [
            -83.8187609,
            34.1450939
          ],
          [
            -83.8187435,
            34.145192
          ],
          [
            -83.8187218,
            34.1452895
          ],
          [
            -83.8187001,
            34.145387
          ],
          [
            -83.818669,
            34.1455197
          ],
          [
            -83.818651,
            34.1455903
          ],
          [
            -83.8186262,
            34.1456781
          ],
          [
            -83.8185961,
            34.145774
          ],
          [
            -83.8185664,
            34.1458607
          ],
          [
            -83.8185136,
            34.1460076
          ],
          [
            -83.8184842,
            34.1460943
          ],
          [
            -83.8184309,
            34.1462598
          ],
          [
            -83.8183821,
            34.1464076
          ],
          [
            -83.8183334,
            34.1465554
          ],
          [
            -83.8182847,
            34.1467032
          ],
          [
            -83.818236,
            34.146851
          ],
          [
            -83.8181873,
            34.1469988
          ],
          [
            -83.8181579,
            34.1470856
          ],
          [
            -83.8181165,
            34.1472164
          ],
          [
            -83.818081,
            34.1473205
          ],
          [
            -83.8180456,
            34.1474246
          ],
          [
            -83.8179913,
            34.1475804
          ],
          [
            -83.817946,
            34.1477009
          ],
          [
            -83.8178883,
            34.1478653
          ],
          [
            -83.8178671,
            34.1479352
          ],
          [
            -83.8178497,
            34.1479874
          ],
          [
            -83.81784,
            34.1480225
          ],
          [
            -83.8178253,
            34.1480844
          ],
          [
            -83.8178095,
            34.1481369
          ],
          [
            -83.8177888,
            34.1481976
          ],
          [
            -83.8177831,
            34.1482242
          ],
          [
            -83.8177822,
            34.1482423
          ],
          [
            -83.8177843,
            34.1482602
          ],
          [
            -83.8177865,
            34.148269
          ],
          [
            -83.8177931,
            34.1482862
          ],
          [
            -83.8178061,
            34.148311
          ],
          [
            -83.8178158,
            34.1483271
          ],
          [
            -83.8178273,
            34.1483424
          ],
          [
            -83.8178411,
            34.1483563
          ],
          [
            -83.8178723,
            34.1483814
          ],
          [
            -83.8179213,
            34.1484169
          ],
          [
            -83.8180241,
            34.1484832
          ],
          [
            -83.8180936,
            34.1485264
          ],
          [
            -83.8181188,
            34.1485435
          ],
          [
            -83.8181423,
            34.1485622
          ],
          [
            -83.8181874,
            34.1486012
          ],
          [
            -83.8182086,
            34.1486217
          ],
          [
            -83.8182275,
            34.1486437
          ],
          [
            -83.8182437,
            34.1486672
          ],
          [
            -83.8182531,
            34.1486834
          ],
          [
            -83.8182613,
            34.1487001
          ],
          [
            -83.8182717,
            34.1487257
          ],
          [
            -83.818282,
            34.1487608
          ],
          [
            -83.818289,
            34.1487963
          ],
          [
            -83.8182912,
            34.1488143
          ],
          [
            -83.818292,
            34.1488323
          ],
          [
            -83.8182897,
            34.1488593
          ],
          [
            -83.8182832,
            34.1488858
          ],
          [
            -83.8182769,
            34.148903
          ],
          [
            -83.8182652,
            34.1489283
          ],
          [
            -83.8182331,
            34.1489854
          ],
          [
            -83.8182028,
            34.1490433
          ],
          [
            -83.8181934,
            34.1490596
          ],
          [
            -83.8181563,
            34.1491146
          ],
          [
            -83.8180777,
            34.1492381
          ],
          [
            -83.8179991,
            34.1493616
          ],
          [
            -83.8179556,
            34.149424
          ],
          [
            -83.8179055,
            34.149504
          ],
          [
            -83.8178187,
            34.1496493
          ],
          [
            -83.8177542,
            34.1497636
          ],
          [
            -83.8177396,
            34.1497877
          ],
          [
            -83.8177237,
            34.1498113
          ],
          [
            -83.8176847,
            34.1498655
          ],
          [
            -83.8176264,
            34.1499415
          ],
          [
            -83.817601,
            34.1499707
          ],
          [
            -83.8175742,
            34.149999
          ],
          [
            -83.8175599,
            34.1500126
          ],
          [
            -83.8175443,
            34.1500251
          ],
          [
            -83.8175186,
            34.1500417
          ],
          [
            -83.8174822,
            34.1500614
          ],
          [
            -83.8174442,
            34.1500787
          ],
          [
            -83.8173853,
            34.1501017
          ],
          [
            -83.8173664,
            34.1501105
          ],
          [
            -83.8173029,
            34.1501451
          ],
          [
            -83.817247,
            34.1501727
          ],
          [
            -83.817174,
            34.1502117
          ],
          [
            -83.8171368,
            34.1502303
          ],
          [
            -83.81707,
            34.1502602
          ],
          [
            -83.8170227,
            34.1502823
          ],
          [
            -83.8169651,
            34.1503074
          ],
          [
            -83.8168778,
            34.1503436
          ],
          [
            -83.8167698,
            34.1503857
          ],
          [
            -83.8167511,
            34.1503948
          ],
          [
            -83.8166603,
            34.1504441
          ],
          [
            -83.816577,
            34.1504864
          ],
          [
            -83.8165581,
            34.1504952
          ],
          [
            -83.8165,
            34.1505196
          ],
          [
            -83.8163947,
            34.1505661
          ],
          [
            -83.816346,
            34.150586
          ],
          [
            -83.8162469,
            34.1506225
          ],
          [
            -83.8161372,
            34.1506614
          ],
          [
            -83.8160275,
            34.1507003
          ],
          [
            -83.815906,
            34.1507391
          ],
          [
            -83.8158346,
            34.1507606
          ],
          [
            -83.8157933,
            34.1507716
          ],
          [
            -83.8157619,
            34.1507785
          ],
          [
            -83.8157301,
            34.1507843
          ],
          [
            -83.8156981,
            34.150789
          ],
          [
            -83.8156551,
            34.1507938
          ],
          [
            -83.8156119,
            34.1507973
          ],
          [
            -83.8155687,
            34.1507996
          ],
          [
            -83.8155037,
            34.1508023
          ],
          [
            -83.8154603,
            34.1508029
          ],
          [
            -83.8153519,
            34.1508004
          ],
          [
            -83.8152652,
            34.1508002
          ],
          [
            -83.8152219,
            34.1507977
          ],
          [
            -83.8151897,
            34.1507938
          ],
          [
            -83.8151579,
            34.1507883
          ],
          [
            -83.815084,
            34.1507738
          ],
          [
            -83.8150531,
            34.1507653
          ],
          [
            -83.8149441,
            34.1507251
          ],
          [
            -83.8148666,
            34.1506927
          ],
          [
            -83.8147611,
            34.1506465
          ],
          [
            -83.8146388,
            34.1505882
          ],
          [
            -83.8144728,
            34.1505029
          ],
          [
            -83.8143813,
            34.1504545
          ],
          [
            -83.8142701,
            34.1503984
          ],
          [
            -83.8141876,
            34.1503551
          ],
          [
            -83.8140857,
            34.1503035
          ],
          [
            -83.8140034,
            34.1502599
          ],
          [
            -83.8138834,
            34.1501984
          ],
          [
            -83.8137833,
            34.1501445
          ],
          [
            -83.8136492,
            34.150074
          ],
          [
            -83.8135151,
            34.1500035
          ]
        ]
      }
    },
    {
      "type": "Feature",
      "properties": {
        "role": "start_finish",
        "name": "Start / Finish",
        "marker": 0.0
      },
      "geometry": {
        "type": "Point",
        "coordinates": [
          -83.8135175,
          34.1500048
        ]
      }
    },
    {
      "type": "Feature",
      "properties": {
        "role": "pit_entry",
        "name": "Pit Entry",
        "marker": 0.93995
      },
      "geometry": {
        "type": "Point",
        "coordinates": [
          -83.815906,
          34.1507391
        ]
      }
    },
    {
      "type": "Feature",
      "properties": {
        "role": "pit_exit",
        "name": "Pit Exit",
        "marker": 0.13106
      },
      "geometry": {
        "type": "Point",
        "coordinates": [
          -83.8108711,
          34.1466719
        ]
      }
    },
    {
      "type": "Feature",
      "properties": {
        "role": "corner",
        "id": "t1",
        "number": 1,
        "code": "1",
        "display": "Turn 1",
        "labels": {
          "numbered": "Turn 1"
        },
        "direction": "right",
        "scale": 3,
        "marker": 0.09483
      },
      "geometry": {
        "type": "Point",
        "coordinates": [
          -83.8102859,
          34.1478855
        ]
      }
    },
    {
      "type": "Feature",
      "properties": {
        "role": "corner",
        "id": "t2",
        "number": 2,
        "code": "2",
        "display": "Turn 2",
        "labels": {
          "numbered": "Turn 2"
        },
        "direction": "left",
        "scale": 4,
        "marker": 0.16801
      },
      "geometry": {
        "type": "Point",
        "coordinates": [
          -83.811911,
          34.1456488
        ]
      }
    },
    {
      "type": "Feature",
      "properties": {
        "role": "corner",
        "id": "t3",
        "number": 3,
        "code": "3",
        "display": "Turn 3",
        "labels": {
          "numbered": "Turn 3"
        },
        "direction": "right",
        "scale": 3,
        "marker": 0.18256
      },
      "geometry": {
        "type": "Point",
        "coordinates": [
          -83.8120791,
          34.1451288
        ]
      }
    },
    {
      "type": "Feature",
      "properties": {
        "role": "corner",
        "id": "t4",
        "number": 4,
        "code": "4",
        "display": "Turn 4",
        "labels": {
          "numbered": "Turn 4"
        },
        "direction": "left",
        "scale": 4,
        "marker": 0.21277
      },
      "geometry": {
        "type": "Point",
        "coordinates": [
          -83.8131986,
          34.144567
        ]
      }
    },
    {
      "type": "Feature",
      "properties": {
        "role": "corner",
        "id": "t5",
        "number": 5,
        "code": "Esses",
        "display": "The Esses",
        "labels": {
          "numbered": "Turn Esses",
          "driver": "The Esses",
          "official": "The Esses"
        },
        "direction": "right",
        "scale": 4,
        "marker": 0.26374
      },
      "geometry": {
        "type": "Point",
        "coordinates": [
          -83.8140408,
          34.1428538
        ]
      }
    },
    {
      "type": "Feature",
      "properties": {
        "role": "corner",
        "id": "t6",
        "number": 6,
        "code": "5",
        "display": "Turn 5",
        "labels": {
          "numbered": "Turn 5"
        },
        "direction": "left",
        "scale": 3,
        "marker": 0.32972
      },
      "geometry": {
        "type": "Point",
        "coordinates": [
          -83.8163724,
          34.1414689
        ]
      }
    },
    {
      "type": "Feature",
      "properties": {
        "role": "corner",
        "id": "t7",
        "number": 7,
        "code": "6",
        "display": "Turn 6",
        "labels": {
          "numbered": "Turn 6"
        },
        "direction": "right",
        "scale": 3,
        "marker": 0.46935
      },
      "geometry": {
        "type": "Point",
        "coordinates": [
          -83.8166565,
          34.1363895
        ]
      }
    },
    {
      "type": "Feature",
      "properties": {
        "role": "corner",
        "id": "t8",
        "number": 8,
        "code": "7",
        "display": "Turn 7",
        "labels": {
          "numbered": "Turn 7"
        },
        "direction": "right",
        "scale": 1,
        "marker": 0.50913
      },
      "geometry": {
        "type": "Point",
        "coordinates": [
          -83.8183371,
          34.1362202
        ]
      }
    },
    {
      "type": "Feature",
      "properties": {
        "role": "corner",
        "id": "t9",
        "number": 9,
        "code": "8",
        "display": "Turn 8",
        "labels": {
          "numbered": "Turn 8"
        },
        "direction": "left",
        "scale": 6,
        "marker": 0.56266
      },
      "geometry": {
        "type": "Point",
        "coordinates": [
          -83.8180946,
          34.1381533
        ]
      }
    },
    {
      "type": "Feature",
      "properties": {
        "role": "corner",
        "id": "t10",
        "number": 10,
        "code": "9",
        "display": "Turn 9",
        "labels": {
          "numbered": "Turn 9"
        },
        "direction": "right",
        "scale": 6,
        "marker": 0.69888
      },
      "geometry": {
        "type": "Point",
        "coordinates": [
          -83.8186913,
          34.1431324
        ]
      }
    },
    {
      "type": "Feature",
      "properties": {
        "role": "corner",
        "id": "t11",
        "number": 11,
        "code": "10A",
        "display": "Turn 10A",
        "labels": {
          "numbered": "Turn 10A"
        },
        "direction": "left",
        "scale": 2,
        "marker": 0.84274
      },
      "geometry": {
        "type": "Point",
        "coordinates": [
          -83.8178061,
          34.148311
        ]
      }
    },
    {
      "type": "Feature",
      "properties": {
        "role": "corner",
        "id": "t12",
        "number": 12,
        "code": "10B",
        "display": "Turn 10B",
        "labels": {
          "numbered": "Turn 10B"
        },
        "direction": "right",
        "scale": 3,
        "marker": 0.85842
      },
      "geometry": {
        "type": "Point",
        "coordinates": [
          -83.8182717,
          34.1487257
        ]
      }
    },
    {
      "type": "Feature",
      "properties": {
        "role": "corner",
        "id": "t13",
        "number": 13,
        "code": "11",
        "display": "Turn 11",
        "labels": {
          "numbered": "Turn 11"
        },
        "direction": "right",
        "scale": 3,
        "marker": 0.89659
      },
      "geometry": {
        "type": "Point",
        "coordinates": [
          -83.8175876,
          34.1499849
        ]
      }
    },
    {
      "type": "Feature",
      "properties": {
        "role": "corner",
        "id": "t14",
        "number": 14,
        "code": "12",
        "display": "Turn 12",
        "labels": {
          "numbered": "Turn 12"
        },
        "direction": "right",
        "scale": 3,
        "marker": 0.95665
      },
      "geometry": {
        "type": "Point",
        "coordinates": [
          -83.8151791,
          34.150792
        ]
      }
    }
  ]
}