{
  "type": "FeatureCollection",
  "features": [
    {
      "type": "Feature",
      "properties": {
        "role": "outline",
        "layout": "gp",
        "basis": "midline"
      },
      "geometry": {
        "type": "LineString",
        "coordinates": [
          [
            -118.1873455,
            33.762192
          ],
          [
            -118.1874225,
            33.7621534
          ],
          [
            -118.1874985,
            33.7621191
          ],
          [
            -118.1876427,
            33.7620575
          ],
          [
            -118.1877472,
            33.7620105
          ],
          [
            -118.1877954,
            33.7619902
          ],
          [
            -118.1878249,
            33.7619791
          ],
          [
            -118.1879269,
            33.7619495
          ],
          [
            -118.1879898,
            33.7619367
          ],
          [
            -118.1880838,
            33.761916
          ],
          [
            -118.1881974,
            33.7618872
          ],
          [
            -118.1883018,
            33.7618643
          ],
          [
            -118.1883859,
            33.7618477
          ],
          [
            -118.1884386,
            33.7618382
          ],
          [
            -118.1885553,
            33.7618196
          ],
          [
            -118.1886084,
            33.7618118
          ],
          [
            -118.1886726,
            33.7618044
          ],
          [
            -118.1887691,
            33.7617949
          ],
          [
            -118.1888766,
            33.7617869
          ],
          [
            -118.1890489,
            33.7617769
          ],
          [
            -118.1891666,
            33.7617635
          ],
          [
            -118.1892203,
            33.7617589
          ],
          [
            -118.1892742,
            33.7617569
          ],
          [
            -118.1893282,
            33.7617579
          ],
          [
            -118.1894035,
            33.7617632
          ],
          [
            -118.1895536,
            33.7617781
          ],
          [
            -118.1896817,
            33.7617942
          ],
          [
            -118.189756,
            33.7618054
          ],
          [
            -118.1899159,
            33.7618271
          ],
          [
            -118.1899475,
            33.761833
          ],
          [
            -118.1900098,
            33.7618477
          ],
          [
            -118.1900834,
            33.7618621
          ],
          [
            -118.1901356,
            33.7618734
          ],
          [
            -118.1902605,
            33.7619022
          ],
          [
            -118.1902914,
            33.7619102
          ],
          [
            -118.1903322,
            33.761922
          ],
          [
            -118.1903827,
            33.7619379
          ],
          [
            -118.1904227,
            33.7619515
          ],
          [
            -118.1905715,
            33.762005
          ],
          [
            -118.1906602,
            33.762038
          ],
          [
            -118.1907583,
            33.7620758
          ],
          [
            -118.1908563,
            33.7621135
          ],
          [
            -118.1909141,
            33.7621378
          ],
          [
            -118.1910843,
            33.7622163
          ],
          [
            -118.191171,
            33.7622528
          ],
          [
            -118.1912593,
            33.7622866
          ],
          [
            -118.1913688,
            33.762325
          ],
          [
            -118.191458,
            33.7623572
          ],
          [
            -118.1915544,
            33.7623978
          ],
          [
            -118.1917111,
            33.7624585
          ],
          [
            -118.1918374,
            33.7625095
          ],
          [
            -118.1919638,
            33.7625605
          ],
          [
            -118.1920843,
            33.7626113
          ],
          [
            -118.1922047,
            33.7626621
          ],
          [
            -118.1923562,
            33.7627314
          ],
          [
            -118.1924234,
            33.7627603
          ],
          [
            -118.1924526,
            33.762772
          ],
          [
            -118.1924927,
            33.7627853
          ],
          [
            -118.1925341,
            33.7627957
          ],
          [
            -118.1925763,
            33.7628034
          ],
          [
            -118.1926612,
            33.7628164
          ],
          [
            -118.1926927,
            33.7628226
          ],
          [
            -118.1927238,
            33.7628302
          ],
          [
            -118.1927443,
            33.762836
          ],
          [
            -118.1927643,
            33.7628426
          ],
          [
            -118.1928423,
            33.7628738
          ],
          [
            -118.1928708,
            33.7628865
          ],
          [
            -118.1928893,
            33.7628958
          ],
          [
            -118.1929343,
            33.7629207
          ],
          [
            -118.1929607,
            33.7629363
          ],
          [
            -118.1930112,
            33.7629702
          ],
          [
            -118.1931005,
            33.7630356
          ],
          [
            -118.1931265,
            33.7630518
          ],
          [
            -118.1931541,
            33.7630659
          ],
          [
            -118.1931827,
            33.7630785
          ],
          [
            -118.1932215,
            33.7630943
          ],
          [
            -118.193327,
            33.7631399
          ],
          [
            -118.1934325,
            33.7631855
          ],
          [
            -118.1934619,
            33.7631967
          ],
          [
            -118.1935122,
            33.7632133
          ],
          [
            -118.1936004,
            33.7632471
          ],
          [
            -118.1936279,
            33.7632614
          ],
          [
            -118.1936995,
            33.7633018
          ],
          [
            -118.1937834,
            33.7633427
          ],
          [
            -118.1939536,
            33.7634211
          ],
          [
            -118.1941063,
            33.7634885
          ],
          [
            -118.1941816,
            33.7635238
          ],
          [
            -118.1942484,
            33.7635533
          ],
          [
            -118.1944256,
            33.7636395
          ],
          [
            -118.1944546,
            33.7636516
          ],
          [
            -118.1944746,
            33.7636583
          ],
          [
            -118.1944954,
            33.7636631
          ],
          [
            -118.1945061,
            33.7636647
          ],
          [
            -118.1945276,
            33.7636653
          ],
          [
            -118.194549,
            33.7636627
          ],
          [
            -118.1945694,
            33.763657
          ],
          [
            -118.1945882,
            33.7636481
          ],
          [
            -118.1946056,
            33.7636375
          ],
          [
            -118.1946474,
            33.7636089
          ],
          [
            -118.1946957,
            33.7635729
          ],
          [
            -118.1947445,
            33.7635374
          ],
          [
            -118.1947595,
            33.7635243
          ],
          [
            -118.1947731,
            33.7635103
          ],
          [
            -118.1948354,
            33.7634367
          ],
          [
            -118.1948819,
            33.763387
          ],
          [
            -118.1949267,
            33.7633361
          ],
          [
            -118.1949608,
            33.7633012
          ],
          [
            -118.1949903,
            33.7632749
          ],
          [
            -118.1950141,
            33.7632565
          ],
          [
            -118.1950479,
            33.7632341
          ],
          [
            -118.1950748,
            33.7632191
          ],
          [
            -118.1951505,
            33.7631842
          ],
          [
            -118.1951991,
            33.7631646
          ],
          [
            -118.1952681,
            33.7631389
          ],
          [
            -118.1953079,
            33.7631249
          ],
          [
            -118.1953681,
            33.763105
          ],
          [
            -118.1954088,
            33.7630931
          ],
          [
            -118.1954606,
            33.7630802
          ],
          [
            -118.1955027,
            33.7630723
          ],
          [
            -118.1955666,
            33.7630632
          ],
          [
            -118.1956844,
            33.7630508
          ],
          [
            -118.1957159,
            33.7630449
          ],
          [
            -118.1957362,
            33.7630386
          ],
          [
            -118.1957556,
            33.7630307
          ],
          [
            -118.1957739,
            33.7630211
          ],
          [
            -118.1957909,
            33.76301
          ],
          [
            -118.1958064,
            33.7629975
          ],
          [
            -118.1958205,
            33.7629838
          ],
          [
            -118.1958332,
            33.7629693
          ],
          [
            -118.1958679,
            33.7629236
          ],
          [
            -118.195874,
            33.7629162
          ],
          [
            -118.1958871,
            33.7629019
          ],
          [
            -118.195894,
            33.7628949
          ],
          [
            -118.1959088,
            33.7628818
          ],
          [
            -118.1959167,
            33.7628757
          ],
          [
            -118.1959249,
            33.7628698
          ],
          [
            -118.1959423,
            33.7628592
          ],
          [
            -118.1959513,
            33.7628542
          ],
          [
            -118.1959607,
            33.7628497
          ],
          [
            -118.1959703,
            33.7628456
          ],
          [
            -118.1959802,
            33.7628421
          ],
          [
            -118.1959903,
            33.7628388
          ],
          [
            -118.1960005,
            33.762836
          ],
          [
            -118.1960109,
            33.7628336
          ],
          [
            -118.1960214,
            33.7628316
          ],
          [
            -118.196032,
            33.76283
          ],
          [
            -118.1960535,
            33.7628283
          ],
          [
            -118.1960751,
            33.7628285
          ],
          [
            -118.1960965,
            33.7628309
          ],
          [
            -118.1961175,
            33.7628351
          ],
          [
            -118.1961378,
            33.762841
          ],
          [
            -118.1961477,
            33.7628447
          ],
          [
            -118.1961572,
            33.7628489
          ],
          [
            -118.1961665,
            33.7628536
          ],
          [
            -118.1961755,
            33.7628585
          ],
          [
            -118.1961926,
            33.7628695
          ],
          [
            -118.1962081,
            33.762882
          ],
          [
            -118.1962221,
            33.7628958
          ],
          [
            -118.1962282,
            33.7629032
          ],
          [
            -118.1962393,
            33.7629187
          ],
          [
            -118.1962444,
            33.7629266
          ],
          [
            -118.1962571,
            33.7629514
          ],
          [
            -118.1962638,
            33.7629686
          ],
          [
            -118.196288,
            33.7630378
          ],
          [
            -118.1962955,
            33.7630547
          ],
          [
            -118.1963043,
            33.7630712
          ],
          [
            -118.1963095,
            33.7630791
          ],
          [
            -118.1963151,
            33.7630868
          ],
          [
            -118.1963278,
            33.7631013
          ],
          [
            -118.1963345,
            33.7631084
          ],
          [
            -118.1963491,
            33.7631217
          ],
          [
            -118.1963566,
            33.7631282
          ],
          [
            -118.1963727,
            33.7631401
          ],
          [
            -118.1963898,
            33.7631512
          ],
          [
            -118.1963985,
            33.7631566
          ],
          [
            -118.1964348,
            33.763176
          ],
          [
            -118.1964911,
            33.7632028
          ],
          [
            -118.1966045,
            33.7632551
          ],
          [
            -118.1966603,
            33.7632826
          ],
          [
            -118.1966695,
            33.7632873
          ],
          [
            -118.1967147,
            33.7633119
          ],
          [
            -118.196786,
            33.7633526
          ],
          [
            -118.1967951,
            33.7633575
          ],
          [
            -118.1968793,
            33.763398
          ],
          [
            -118.1969252,
            33.7634216
          ],
          [
            -118.1969343,
            33.7634265
          ],
          [
            -118.1969606,
            33.7634423
          ],
          [
            -118.1969693,
            33.7634477
          ],
          [
            -118.1970113,
            33.763476
          ],
          [
            -118.1970198,
            33.7634815
          ],
          [
            -118.1970465,
            33.7634968
          ],
          [
            -118.1970555,
            33.7635018
          ],
          [
            -118.1970834,
            33.7635155
          ],
          [
            -118.1971594,
            33.7635497
          ],
          [
            -118.1971688,
            33.7635541
          ],
          [
            -118.1971873,
            33.7635635
          ],
          [
            -118.1971964,
            33.7635684
          ],
          [
            -118.1972139,
            33.7635789
          ],
          [
            -118.1972307,
            33.7635902
          ],
          [
            -118.1972388,
            33.7635962
          ],
          [
            -118.1972464,
            33.7636025
          ],
          [
            -118.1972538,
            33.7636091
          ],
          [
            -118.1972608,
            33.763616
          ],
          [
            -118.1972674,
            33.7636231
          ],
          [
            -118.1972735,
            33.7636305
          ],
          [
            -118.1972793,
            33.7636382
          ],
          [
            -118.1972846,
            33.763646
          ],
          [
            -118.1972894,
            33.7636541
          ],
          [
            -118.1972938,
            33.7636623
          ],
          [
            -118.1972976,
            33.7636707
          ],
          [
            -118.197301,
            33.7636793
          ],
          [
            -118.1973064,
            33.7636967
          ],
          [
            -118.19731,
            33.7637145
          ],
          [
            -118.197313,
            33.7637414
          ],
          [
            -118.1973135,
            33.7637685
          ],
          [
            -118.1973125,
            33.7637865
          ],
          [
            -118.1973088,
            33.7638133
          ],
          [
            -118.1973034,
            33.76384
          ],
          [
            -118.1972965,
            33.7638664
          ],
          [
            -118.197285,
            33.7639012
          ],
          [
            -118.1972684,
            33.7639441
          ],
          [
            -118.1972502,
            33.7639865
          ],
          [
            -118.1971897,
            33.764112
          ],
          [
            -118.1971392,
            33.7642116
          ],
          [
            -118.1971209,
            33.7642443
          ],
          [
            -118.1970919,
            33.7642927
          ],
          [
            -118.197067,
            33.7643327
          ],
          [
            -118.1970309,
            33.7643881
          ],
          [
            -118.197015,
            33.7644117
          ],
          [
            -118.1970097,
            33.7644195
          ],
          [
            -118.1969875,
            33.7644505
          ],
          [
            -118.1969637,
            33.7644806
          ],
          [
            -118.1969013,
            33.7645541
          ],
          [
            -118.1968389,
            33.7646277
          ],
          [
            -118.1968216,
            33.7646506
          ],
          [
            -118.1967944,
            33.7646895
          ],
          [
            -118.1967742,
            33.7647214
          ],
          [
            -118.1967608,
            33.764746
          ],
          [
            -118.1967259,
            33.7648218
          ],
          [
            -118.1967093,
            33.7648551
          ],
          [
            -118.1966948,
            33.7648792
          ],
          [
            -118.1966836,
            33.7648946
          ],
          [
            -118.1966709,
            33.7649092
          ],
          [
            -118.1966564,
            33.7649226
          ],
          [
            -118.1966401,
            33.7649344
          ],
          [
            -118.1966219,
            33.7649441
          ],
          [
            -118.1966021,
            33.7649513
          ],
          [
            -118.1965811,
            33.7649555
          ],
          [
            -118.1965704,
            33.7649564
          ],
          [
            -118.1965596,
            33.7649562
          ],
          [
            -118.1965488,
            33.7649558
          ],
          [
            -118.1965382,
            33.7649543
          ],
          [
            -118.1965276,
            33.7649525
          ],
          [
            -118.1965172,
            33.7649501
          ],
          [
            -118.1964972,
            33.7649435
          ],
          [
            -118.1964779,
            33.7649354
          ],
          [
            -118.1964686,
            33.7649308
          ],
          [
            -118.1964505,
            33.764921
          ],
          [
            -118.1964417,
            33.7649158
          ],
          [
            -118.1964161,
            33.7648992
          ],
          [
            -118.1964078,
            33.7648935
          ],
          [
            -118.1963508,
            33.7648521
          ],
          [
            -118.1962673,
            33.7647949
          ],
          [
            -118.1961643,
            33.7647293
          ],
          [
            -118.1961119,
            33.7646975
          ],
          [
            -118.1960852,
            33.7646821
          ],
          [
            -118.1959309,
            33.7645992
          ],
          [
            -118.195848,
            33.7645569
          ],
          [
            -118.1957082,
            33.7644886
          ],
          [
            -118.1956252,
            33.7644464
          ],
          [
            -118.1955878,
            33.7644284
          ],
          [
            -118.1955396,
            33.7644081
          ],
          [
            -118.19548,
            33.764387
          ],
          [
            -118.1954408,
            33.7643718
          ],
          [
            -118.1954312,
            33.7643677
          ],
          [
            -118.1953934,
            33.7643503
          ],
          [
            -118.1953264,
            33.7643211
          ],
          [
            -118.1952225,
            33.7642731
          ],
          [
            -118.1950981,
            33.7642188
          ],
          [
            -118.195042,
            33.7641918
          ],
          [
            -118.1949499,
            33.7641448
          ],
          [
            -118.194841,
            33.7640861
          ],
          [
            -118.1948036,
            33.7640681
          ],
          [
            -118.194718,
            33.7640298
          ],
          [
            -118.194662,
            33.7640026
          ],
          [
            -118.1945444,
            33.7639387
          ],
          [
            -118.1944984,
            33.763915
          ],
          [
            -118.1944719,
            33.7638995
          ],
          [
            -118.1943883,
            33.7638424
          ],
          [
            -118.1943457,
            33.7638148
          ],
          [
            -118.1943105,
            33.7637939
          ],
          [
            -118.1942645,
            33.7637704
          ],
          [
            -118.1941602,
            33.763723
          ],
          [
            -118.1939953,
            33.763646
          ],
          [
            -118.1938304,
            33.763569
          ],
          [
            -118.1937823,
            33.7635485
          ],
          [
            -118.1936944,
            33.7635138
          ],
          [
            -118.1936461,
            33.7634938
          ],
          [
            -118.1934762,
            33.7634151
          ],
          [
            -118.1933137,
            33.7633437
          ],
          [
            -118.1931513,
            33.7632724
          ],
          [
            -118.1930651,
            33.7632349
          ],
          [
            -118.19294,
            33.7631818
          ],
          [
            -118.1929106,
            33.7631705
          ],
          [
            -118.1928805,
            33.7631604
          ],
          [
            -118.1928497,
            33.7631522
          ],
          [
            -118.1928288,
            33.7631478
          ],
          [
            -118.1927969,
            33.7631432
          ],
          [
            -118.1927647,
            33.7631402
          ],
          [
            -118.1927431,
            33.7631402
          ],
          [
            -118.1927217,
            33.7631425
          ],
          [
            -118.1927009,
            33.7631473
          ],
          [
            -118.1926909,
            33.7631507
          ],
          [
            -118.1926721,
            33.7631595
          ],
          [
            -118.1926633,
            33.7631648
          ],
          [
            -118.192647,
            33.7631765
          ],
          [
            -118.1926253,
            33.7631967
          ],
          [
            -118.1926131,
            33.7632115
          ],
          [
            -118.1925973,
            33.7632351
          ],
          [
            -118.1925557,
            33.7633085
          ],
          [
            -118.1925245,
            33.7633659
          ],
          [
            -118.1925168,
            33.7633828
          ],
          [
            -118.1925104,
            33.7634
          ],
          [
            -118.1924997,
            33.7634349
          ],
          [
            -118.1924851,
            33.7634783
          ],
          [
            -118.1924749,
            33.7635134
          ],
          [
            -118.1924534,
            33.7635739
          ],
          [
            -118.1924444,
            33.7636091
          ],
          [
            -118.1924378,
            33.7636448
          ],
          [
            -118.1924339,
            33.7636716
          ],
          [
            -118.1924304,
            33.7637076
          ],
          [
            -118.1924269,
            33.7637887
          ],
          [
            -118.1924233,
            33.7638427
          ],
          [
            -118.1924199,
            33.7639418
          ],
          [
            -118.1924179,
            33.76405
          ],
          [
            -118.1924191,
            33.764077
          ],
          [
            -118.1924223,
            33.764104
          ],
          [
            -118.1924273,
            33.7641307
          ],
          [
            -118.1924355,
            33.7641661
          ],
          [
            -118.1924391,
            33.764193
          ],
          [
            -118.1924408,
            33.76422
          ],
          [
            -118.1924419,
            33.7642741
          ],
          [
            -118.1924444,
            33.7643191
          ],
          [
            -118.1924444,
            33.7643371
          ],
          [
            -118.192442,
            33.7643731
          ],
          [
            -118.1924412,
            33.7644002
          ],
          [
            -118.192438,
            33.7644271
          ],
          [
            -118.1924324,
            33.7644537
          ],
          [
            -118.1924277,
            33.7644713
          ],
          [
            -118.192413,
            33.7645147
          ],
          [
            -118.1924082,
            33.7645323
          ],
          [
            -118.192405,
            33.7645501
          ],
          [
            -118.192403,
            33.7645771
          ],
          [
            -118.1924036,
            33.7646222
          ],
          [
            -118.1924012,
            33.7646943
          ],
          [
            -118.1924006,
            33.7648025
          ],
          [
            -118.1923988,
            33.7648656
          ],
          [
            -118.1923978,
            33.7649648
          ],
          [
            -118.1923968,
            33.7650639
          ],
          [
            -118.1923984,
            33.7652262
          ],
          [
            -118.1923985,
            33.7653434
          ],
          [
            -118.1924002,
            33.7654336
          ],
          [
            -118.1923997,
            33.7654696
          ],
          [
            -118.1923982,
            33.7654967
          ],
          [
            -118.1923839,
            33.7656676
          ],
          [
            -118.192381,
            33.7656854
          ],
          [
            -118.1923767,
            33.7657031
          ],
          [
            -118.1923681,
            33.7657292
          ],
          [
            -118.1923648,
            33.7657378
          ],
          [
            -118.1923611,
            33.7657462
          ],
          [
            -118.1923569,
            33.7657545
          ],
          [
            -118.1923522,
            33.7657626
          ],
          [
            -118.1923467,
            33.7657704
          ],
          [
            -118.1923406,
            33.7657778
          ],
          [
            -118.1923337,
            33.7657847
          ],
          [
            -118.1923258,
            33.7657909
          ],
          [
            -118.1923085,
            33.7658017
          ],
          [
            -118.19229,
            33.7658109
          ],
          [
            -118.1922707,
            33.7658189
          ],
          [
            -118.1922606,
            33.7658221
          ],
          [
            -118.1922399,
            33.7658272
          ],
          [
            -118.1921974,
            33.7658336
          ],
          [
            -118.1920795,
            33.7658457
          ],
          [
            -118.1920256,
            33.7658484
          ],
          [
            -118.1918854,
            33.7658515
          ],
          [
            -118.1918206,
            33.7658514
          ],
          [
            -118.1917774,
            33.7658505
          ],
          [
            -118.1917451,
            33.7658485
          ],
          [
            -118.1917237,
            33.7658463
          ],
          [
            -118.1916278,
            33.7658335
          ],
          [
            -118.1916063,
            33.7658318
          ],
          [
            -118.1915847,
            33.7658311
          ],
          [
            -118.1915415,
            33.7658317
          ],
          [
            -118.1914553,
            33.7658355
          ],
          [
            -118.1914013,
            33.7658366
          ],
          [
            -118.1913905,
            33.7658368
          ],
          [
            -118.191315,
            33.7658355
          ],
          [
            -118.1912718,
            33.7658358
          ],
          [
            -118.1912395,
            33.7658376
          ],
          [
            -118.1912073,
            33.7658408
          ],
          [
            -118.1911754,
            33.7658453
          ],
          [
            -118.1910802,
            33.7658614
          ],
          [
            -118.1910481,
            33.7658649
          ],
          [
            -118.1910158,
            33.7658669
          ],
          [
            -118.1909834,
            33.7658668
          ],
          [
            -118.190908,
            33.7658623
          ],
          [
            -118.1907894,
            33.7658581
          ],
          [
            -118.1907786,
            33.7658578
          ],
          [
            -118.190757,
            33.7658578
          ],
          [
            -118.1907355,
            33.7658591
          ],
          [
            -118.1907141,
            33.7658615
          ],
          [
            -118.1906182,
            33.7658749
          ],
          [
            -118.1905753,
            33.7658788
          ],
          [
            -118.1904891,
            33.7658834
          ],
          [
            -118.1904028,
            33.7658846
          ],
          [
            -118.1903596,
            33.7658836
          ],
          [
            -118.1903274,
            33.7658812
          ],
          [
            -118.1902313,
            33.765869
          ],
          [
            -118.1901884,
            33.7658649
          ],
          [
            -118.1901345,
            33.7658626
          ],
          [
            -118.1900697,
            33.7658626
          ],
          [
            -118.1900374,
            33.7658641
          ],
          [
            -118.1899407,
            33.7658723
          ],
          [
            -118.1898225,
            33.765881
          ],
          [
            -118.1897042,
            33.7658897
          ],
          [
            -118.1895966,
            33.7658969
          ],
          [
            -118.1895319,
            33.7659003
          ],
          [
            -118.1894672,
            33.7659027
          ],
          [
            -118.1894132,
            33.7659037
          ],
          [
            -118.1893701,
            33.7659032
          ],
          [
            -118.1893377,
            33.7659019
          ],
          [
            -118.1892947,
            33.7658991
          ],
          [
            -118.1891981,
            33.7658902
          ],
          [
            -118.1891233,
            33.7658814
          ],
          [
            -118.1890063,
            33.7658645
          ],
          [
            -118.1889526,
            33.7658593
          ],
          [
            -118.1889311,
            33.7658585
          ],
          [
            -118.1888987,
            33.7658582
          ],
          [
            -118.1887476,
            33.7658614
          ],
          [
            -118.1887044,
            33.7658605
          ],
          [
            -118.1886721,
            33.7658588
          ],
          [
            -118.18864,
            33.7658551
          ],
          [
            -118.1886082,
            33.7658501
          ],
          [
            -118.188503,
            33.7658301
          ],
          [
            -118.1884708,
            33.7658269
          ],
          [
            -118.1884492,
            33.7658268
          ],
          [
            -118.1884384,
            33.7658274
          ],
          [
            -118.1883744,
            33.7658358
          ],
          [
            -118.1883422,
            33.7658385
          ],
          [
            -118.1883099,
            33.7658393
          ],
          [
            -118.1882883,
            33.7658386
          ],
          [
            -118.1882561,
            33.7658357
          ],
          [
            -118.1882135,
            33.7658296
          ],
          [
            -118.1881184,
            33.7658131
          ],
          [
            -118.1880759,
            33.7658067
          ],
          [
            -118.1880225,
            33.7658004
          ],
          [
            -118.1879795,
            33.7657968
          ],
          [
            -118.1879472,
            33.7657949
          ],
          [
            -118.187904,
            33.7657938
          ],
          [
            -118.1877529,
            33.7657938
          ],
          [
            -118.1876127,
            33.7657887
          ],
          [
            -118.1875373,
            33.7657842
          ],
          [
            -118.1874192,
            33.7657741
          ],
          [
            -118.1873439,
            33.7657684
          ],
          [
            -118.1871932,
            33.7657595
          ],
          [
            -118.1871071,
            33.7657535
          ],
          [
            -118.187032,
            33.7657464
          ],
          [
            -118.1869895,
            33.7657399
          ],
          [
            -118.1869479,
            33.7657305
          ],
          [
            -118.1868659,
            33.7657077
          ],
          [
            -118.1868343,
            33.7657018
          ],
          [
            -118.1868129,
            33.7656995
          ],
          [
            -118.1867805,
            33.7656986
          ],
          [
            -118.1866942,
            33.7657011
          ],
          [
            -118.186597,
            33.7657013
          ],
          [
            -118.1865756,
            33.765703
          ],
          [
            -118.1865221,
            33.765709
          ],
          [
            -118.1864683,
            33.7657129
          ],
          [
            -118.1864036,
            33.7657154
          ],
          [
            -118.1863496,
            33.7657153
          ],
          [
            -118.1863173,
            33.7657136
          ],
          [
            -118.1862851,
            33.7657108
          ],
          [
            -118.1861243,
            33.7656944
          ],
          [
            -118.1860389,
            33.7656837
          ],
          [
            -118.1859424,
            33.7656748
          ],
          [
            -118.1858886,
            33.7656707
          ],
          [
            -118.1858134,
            33.7656642
          ],
          [
            -118.1857816,
            33.7656594
          ],
          [
            -118.1857606,
            33.7656549
          ],
          [
            -118.1857401,
            33.7656493
          ],
          [
            -118.1857201,
            33.7656425
          ],
          [
            -118.1857008,
            33.7656345
          ],
          [
            -118.1856731,
            33.7656205
          ],
          [
            -118.1856557,
            33.7656098
          ],
          [
            -118.1856397,
            33.7655977
          ],
          [
            -118.1856032,
            33.7655645
          ],
          [
            -118.1855824,
            33.7655438
          ],
          [
            -118.1855702,
            33.7655289
          ],
          [
            -118.1855598,
            33.7655131
          ],
          [
            -118.1855514,
            33.7654965
          ],
          [
            -118.1855446,
            33.7654793
          ],
          [
            -118.1855393,
            33.7654619
          ],
          [
            -118.1855351,
            33.7654442
          ],
          [
            -118.1855299,
            33.7654084
          ],
          [
            -118.1855214,
            33.7652733
          ],
          [
            -118.1855198,
            33.7652192
          ],
          [
            -118.1855218,
            33.7651561
          ],
          [
            -118.1855309,
            33.7650031
          ],
          [
            -118.1855329,
            33.7649129
          ],
          [
            -118.1855349,
            33.7648228
          ],
          [
            -118.1855375,
            33.7647777
          ],
          [
            -118.1855445,
            33.7646878
          ],
          [
            -118.1855468,
            33.7646427
          ],
          [
            -118.1855473,
            33.7645976
          ],
          [
            -118.1855446,
            33.7645526
          ],
          [
            -118.1855395,
            33.7645168
          ],
          [
            -118.1855296,
            33.7644725
          ],
          [
            -118.1855217,
            33.7644462
          ],
          [
            -118.1855157,
            33.7644289
          ],
          [
            -118.1855013,
            33.7643949
          ],
          [
            -118.1854835,
            33.7643621
          ],
          [
            -118.1854626,
            33.7643305
          ],
          [
            -118.1854509,
            33.7643153
          ],
          [
            -118.1854382,
            33.7643008
          ],
          [
            -118.185417,
            33.7642804
          ],
          [
            -118.1853855,
            33.7642556
          ],
          [
            -118.1853605,
            33.7642385
          ],
          [
            -118.1853348,
            33.7642221
          ],
          [
            -118.1853169,
            33.7642119
          ],
          [
            -118.1852985,
            33.7642025
          ],
          [
            -118.1852602,
            33.7641859
          ],
          [
            -118.1852304,
            33.7641752
          ],
          [
            -118.1851898,
            33.7641631
          ],
          [
            -118.1851588,
            33.7641552
          ],
          [
            -118.1850964,
            33.7641407
          ],
          [
            -118.1850654,
            33.7641327
          ],
          [
            -118.1850352,
            33.7641231
          ],
          [
            -118.1849756,
            33.7641019
          ],
          [
            -118.1849552,
            33.7640958
          ],
          [
            -118.1849345,
            33.7640908
          ],
          [
            -118.1849026,
            33.764086
          ],
          [
            -118.1848703,
            33.7640842
          ],
          [
            -118.1848379,
            33.7640846
          ],
          [
            -118.1847949,
            33.7640879
          ],
          [
            -118.1847523,
            33.7640936
          ],
          [
            -118.1847101,
            33.7641012
          ],
          [
            -118.1846582,
            33.7641135
          ],
          [
            -118.1846173,
            33.7641252
          ],
          [
            -118.1845874,
            33.7641355
          ],
          [
            -118.1845484,
            33.7641511
          ],
          [
            -118.18452,
            33.7641641
          ],
          [
            -118.1844924,
            33.7641781
          ],
          [
            -118.1844658,
            33.7641935
          ],
          [
            -118.1844488,
            33.7642047
          ],
          [
            -118.1844244,
            33.7642225
          ],
          [
            -118.184401,
            33.7642412
          ],
          [
            -118.1843712,
            33.7642673
          ],
          [
            -118.1843554,
            33.7642796
          ],
          [
            -118.1843388,
            33.7642911
          ],
          [
            -118.1843213,
            33.7643017
          ],
          [
            -118.1843028,
            33.7643109
          ],
          [
            -118.184293,
            33.7643147
          ],
          [
            -118.1842725,
            33.7643204
          ],
          [
            -118.1842619,
            33.764322
          ],
          [
            -118.1842403,
            33.7643225
          ],
          [
            -118.1842297,
            33.7643213
          ],
          [
            -118.1842192,
            33.764319
          ],
          [
            -118.1842091,
            33.7643158
          ],
          [
            -118.1841995,
            33.7643117
          ],
          [
            -118.1841906,
            33.7643067
          ],
          [
            -118.1841824,
            33.7643009
          ],
          [
            -118.184175,
            33.7642943
          ],
          [
            -118.1841685,
            33.7642871
          ],
          [
            -118.184163,
            33.7642794
          ],
          [
            -118.1841587,
            33.7642711
          ],
          [
            -118.1841554,
            33.7642626
          ],
          [
            -118.1841532,
            33.7642537
          ],
          [
            -118.1841524,
            33.7642448
          ],
          [
            -118.1841523,
            33.7642358
          ],
          [
            -118.1841532,
            33.7642268
          ],
          [
            -118.1841548,
            33.7642179
          ],
          [
            -118.1841604,
            33.7642005
          ],
          [
            -118.1841642,
            33.764192
          ],
          [
            -118.1841682,
            33.7641837
          ],
          [
            -118.1841731,
            33.7641757
          ],
          [
            -118.184179,
            33.7641681
          ],
          [
            -118.1841851,
            33.7641607
          ],
          [
            -118.1842056,
            33.7641397
          ],
          [
            -118.1842837,
            33.764065
          ],
          [
            -118.1843705,
            33.7639847
          ],
          [
            -118.1843938,
            33.7639659
          ],
          [
            -118.1844431,
            33.7639309
          ],
          [
            -118.1845482,
            33.7638532
          ],
          [
            -118.1845905,
            33.7638252
          ],
          [
            -118.1847218,
            33.763746
          ],
          [
            -118.1848168,
            33.7636865
          ],
          [
            -118.1849839,
            33.7635871
          ],
          [
            -118.1850826,
            33.7635321
          ],
          [
            -118.1851264,
            33.7635056
          ],
          [
            -118.1851517,
            33.7634888
          ],
          [
            -118.1851763,
            33.7634712
          ],
          [
            -118.1853017,
            33.763372
          ],
          [
            -118.1853424,
            33.7633424
          ],
          [
            -118.1853676,
            33.7633254
          ],
          [
            -118.1854029,
            33.7633046
          ],
          [
            -118.1854402,
            33.7632865
          ],
          [
            -118.1854693,
            33.7632746
          ],
          [
            -118.1855583,
            33.763242
          ],
          [
            -118.1855966,
            33.7632254
          ],
          [
            -118.1856526,
            33.7631982
          ],
          [
            -118.185716,
            33.7631638
          ],
          [
            -118.1858568,
            33.7630803
          ],
          [
            -118.1859663,
            33.7630144
          ],
          [
            -118.1860758,
            33.7629486
          ],
          [
            -118.1861641,
            33.7628967
          ],
          [
            -118.1863045,
            33.7628127
          ],
          [
            -118.1863466,
            33.7627844
          ],
          [
            -118.1864252,
            33.7627226
          ],
          [
            -118.1864581,
            33.7626992
          ],
          [
            -118.1865442,
            33.7626449
          ],
          [
            -118.1866312,
            33.7625915
          ],
          [
            -118.1867181,
            33.762538
          ],
          [
            -118.1867887,
            33.7624965
          ],
          [
            -118.1869627,
            33.7624058
          ],
          [
            -118.1869981,
            33.7623851
          ],
          [
            -118.1870584,
            33.762347
          ],
          [
            -118.1871834,
            33.7622762
          ],
          [
            -118.1872651,
            33.7622323
          ],
          [
            -118.1873455,
            33.762192
          ]
        ]
      }
    },
    {
      "type": "Feature",
      "properties": {
        "role": "start_finish",
        "name": "Start / Finish",
        "marker": 0.0
      },
      "geometry": {
        "type": "Point",
        "coordinates": [
          -118.1873484,
          33.7621905
        ]
      }
    },
    {
      "type": "Feature",
      "properties": {
        "role": "corner",
        "id": "t1",
        "number": 1,
        "code": "1",
        "display": "Turn 1",
        "labels": {
          "numbered": "Turn 1"
        },
        "direction": "left",
        "scale": 2,
        "marker": 0.2251
      },
      "geometry": {
        "type": "Point",
        "coordinates": [
          -118.194549,
          33.7636627
        ]
      }
    },
    {
      "type": "Feature",
      "properties": {
        "role": "corner",
        "id": "t2",
        "number": 2,
        "code": "2",
        "display": "Turn 2",
        "labels": {
          "numbered": "Turn 2"
        },
        "direction": "right",
        "scale": 2,
        "marker": 0.28003
      },
      "geometry": {
        "type": "Point",
        "coordinates": [
          -118.1960858,
          33.7628296
        ]
      }
    },
    {
      "type": "Feature",
      "properties": {
        "role": "corner",
        "id": "t3",
        "number": 3,
        "code": "3",
        "display": "Turn 3",
        "labels": {
          "numbered": "Turn 3"
        },
        "direction": "left",
        "scale": 3,
        "marker": 0.29182
      },
      "geometry": {
        "type": "Point",
        "coordinates": [
          -118.1963151,
          33.7630868
        ]
      }
    },
    {
      "type": "Feature",
      "properties": {
        "role": "corner",
        "id": "t4",
        "number": 4,
        "code": "4",
        "display": "Turn 4",
        "labels": {
          "numbered": "Turn 4"
        },
        "direction": "right",
        "scale": 3,
        "marker": 0.32565
      },
      "geometry": {
        "type": "Point",
        "coordinates": [
          -118.1972793,
          33.7636382
        ]
      }
    },
    {
      "type": "Feature",
      "properties": {
        "role": "corner",
        "id": "t5",
        "number": 5,
        "code": "5",
        "display": "Turn 5",
        "labels": {
          "numbered": "Turn 5"
        },
        "direction": "right",
        "scale": 2,
        "marker": 0.37654
      },
      "geometry": {
        "type": "Point",
        "coordinates": [
          -118.1966021,
          33.7649513
        ]
      }
    },
    {
      "type": "Feature",
      "properties": {
        "role": "corner",
        "id": "t6",
        "number": 6,
        "code": "6",
        "display": "Turn 6",
        "labels": {
          "numbered": "Turn 6"
        },
        "direction": "left",
        "scale": 2,
        "marker": 0.50595
      },
      "geometry": {
        "type": "Point",
        "coordinates": [
          -118.1927009,
          33.7631473
        ]
      }
    },
    {
      "type": "Feature",
      "properties": {
        "role": "corner",
        "id": "t7",
        "number": 7,
        "code": "7",
        "display": "Turn 7",
        "labels": {
          "numbered": "Turn 7"
        },
        "direction": "left",
        "scale": 5,
        "marker": 0.52395
      },
      "geometry": {
        "type": "Point",
        "coordinates": [
          -118.1924444,
          33.7636091
        ]
      }
    },
    {
      "type": "Feature",
      "properties": {
        "role": "corner",
        "id": "t8",
        "number": 8,
        "code": "8",
        "display": "Turn 8",
        "labels": {
          "numbered": "Turn 8"
        },
        "direction": "right",
        "scale": 2,
        "marker": 0.59875
      },
      "geometry": {
        "type": "Point",
        "coordinates": [
          -118.1923467,
          33.7657704
        ]
      }
    },
    {
      "type": "Feature",
      "properties": {
        "role": "corner",
        "id": "t9",
        "number": 9,
        "code": "9",
        "display": "Turn 9",
        "labels": {
          "numbered": "Turn 9"
        },
        "direction": "right",
        "scale": 3,
        "marker": 0.79279
      },
      "geometry": {
        "type": "Point",
        "coordinates": [
          -118.1856731,
          33.7656205
        ]
      }
    },
    {
      "type": "Feature",
      "properties": {
        "role": "corner",
        "id": "t10",
        "number": 10,
        "code": "10",
        "display": "Turn 10",
        "labels": {
          "numbered": "Turn 10"
        },
        "direction": "left",
        "scale": 3,
        "marker": 0.84058
      },
      "geometry": {
        "type": "Point",
        "coordinates": [
          -118.1854312,
          33.7642939
        ]
      }
    },
    {
      "type": "Feature",
      "properties": {
        "role": "corner",
        "id": "t11",
        "number": 11,
        "code": "11",
        "display": "The Hairpin",
        "labels": {
          "numbered": "Turn 11",
          "driver": "The Hairpin"
        },
        "direction": "right",
        "scale": 1,
        "marker": 0.88062
      },
      "geometry": {
        "type": "Point",
        "coordinates": [
          -118.1841906,
          33.7643067
        ]
      }
    }
  ]
}