{
  "type": "FeatureCollection",
  "features": [
    {
      "type": "Feature",
      "properties": {
        "role": "outline",
        "layout": "wec",
        "basis": "midline"
      },
      "geometry": {
        "type": "LineString",
        "coordinates": [
          [
            -81.353528,
            27.4502325
          ],
          [
            -81.3533297,
            27.450233
          ],
          [
            -81.3531313,
            27.4502336
          ],
          [
            -81.352933,
            27.4502341
          ],
          [
            -81.3528268,
            27.4502351
          ],
          [
            -81.3527206,
            27.4502361
          ],
          [
            -81.3525453,
            27.450236
          ],
          [
            -81.3523699,
            27.450236
          ],
          [
            -81.3521946,
            27.4502359
          ],
          [
            -81.3520429,
            27.4502369
          ],
          [
            -81.3518912,
            27.450238
          ],
          [
            -81.3517217,
            27.4502383
          ],
          [
            -81.3515523,
            27.4502387
          ],
          [
            -81.3513829,
            27.450239
          ],
          [
            -81.3512135,
            27.4502394
          ],
          [
            -81.3510718,
            27.4502388
          ],
          [
            -81.3510314,
            27.45024
          ],
          [
            -81.3509507,
            27.4502459
          ],
          [
            -81.3509103,
            27.4502476
          ],
          [
            -81.3508298,
            27.4502551
          ],
          [
            -81.350749,
            27.4502573
          ],
          [
            -81.3505871,
            27.4502568
          ],
          [
            -81.3504658,
            27.4502589
          ],
          [
            -81.3503747,
            27.4502581
          ],
          [
            -81.3502028,
            27.4502583
          ],
          [
            -81.3500511,
            27.45026
          ],
          [
            -81.3499094,
            27.4502597
          ],
          [
            -81.3498184,
            27.4502609
          ],
          [
            -81.349687,
            27.4502574
          ],
          [
            -81.3496364,
            27.450257
          ],
          [
            -81.3495757,
            27.450258
          ],
          [
            -81.3494646,
            27.4502622
          ],
          [
            -81.3494142,
            27.4502659
          ],
          [
            -81.3493536,
            27.4502691
          ],
          [
            -81.3493034,
            27.4502744
          ],
          [
            -81.3492534,
            27.4502814
          ],
          [
            -81.3492038,
            27.4502901
          ],
          [
            -81.3491645,
            27.4502988
          ],
          [
            -81.3491259,
            27.4503095
          ],
          [
            -81.3490974,
            27.4503188
          ],
          [
            -81.349088,
            27.4503222
          ],
          [
            -81.3490601,
            27.4503329
          ],
          [
            -81.3490149,
            27.4503531
          ],
          [
            -81.3489711,
            27.4503756
          ],
          [
            -81.3489285,
            27.4504
          ],
          [
            -81.3488874,
            27.4504262
          ],
          [
            -81.3488477,
            27.4504542
          ],
          [
            -81.3488173,
            27.450478
          ],
          [
            -81.3488099,
            27.4504841
          ],
          [
            -81.3487809,
            27.4505093
          ],
          [
            -81.3487739,
            27.4505158
          ],
          [
            -81.3487602,
            27.4505291
          ],
          [
            -81.3487339,
            27.4505565
          ],
          [
            -81.3487151,
            27.4505778
          ],
          [
            -81.3486974,
            27.4505998
          ],
          [
            -81.3486808,
            27.4506224
          ],
          [
            -81.3486652,
            27.4506457
          ],
          [
            -81.3486507,
            27.4506695
          ],
          [
            -81.3486331,
            27.4507019
          ],
          [
            -81.3486212,
            27.4507268
          ],
          [
            -81.3486101,
            27.450752
          ],
          [
            -81.3485933,
            27.4507946
          ],
          [
            -81.3485779,
            27.4508376
          ],
          [
            -81.3485635,
            27.4508808
          ],
          [
            -81.3485503,
            27.4509244
          ],
          [
            -81.3485409,
            27.4509595
          ],
          [
            -81.348533,
            27.4509949
          ],
          [
            -81.3485242,
            27.4510484
          ],
          [
            -81.3485186,
            27.4511023
          ],
          [
            -81.3485146,
            27.4511744
          ],
          [
            -81.3485153,
            27.4512196
          ],
          [
            -81.348518,
            27.4512465
          ],
          [
            -81.3485228,
            27.4512732
          ],
          [
            -81.3485295,
            27.4512996
          ],
          [
            -81.3485425,
            27.4513432
          ],
          [
            -81.3485503,
            27.4513786
          ],
          [
            -81.3485557,
            27.4514144
          ],
          [
            -81.3485589,
            27.4514594
          ],
          [
            -81.3485588,
            27.4514775
          ],
          [
            -81.3485573,
            27.4514955
          ],
          [
            -81.3485443,
            27.4515759
          ],
          [
            -81.3485398,
            27.4516117
          ],
          [
            -81.3485379,
            27.4516478
          ],
          [
            -81.3485386,
            27.4516929
          ],
          [
            -81.3485425,
            27.4517288
          ],
          [
            -81.3485526,
            27.4517822
          ],
          [
            -81.3485761,
            27.4518884
          ],
          [
            -81.3485996,
            27.4519947
          ],
          [
            -81.3486143,
            27.4520657
          ],
          [
            -81.348641,
            27.4521713
          ],
          [
            -81.348643,
            27.4521801
          ],
          [
            -81.3486713,
            27.4523162
          ],
          [
            -81.3486996,
            27.4524522
          ],
          [
            -81.3487279,
            27.4525883
          ],
          [
            -81.3487349,
            27.4526146
          ],
          [
            -81.34875,
            27.4526576
          ],
          [
            -81.3487667,
            27.4527097
          ],
          [
            -81.3487851,
            27.45278
          ],
          [
            -81.3487882,
            27.4527978
          ],
          [
            -81.3487893,
            27.4528068
          ],
          [
            -81.3487971,
            27.4528786
          ],
          [
            -81.348801,
            27.4529327
          ],
          [
            -81.3488031,
            27.4529506
          ],
          [
            -81.3488095,
            27.4529863
          ],
          [
            -81.3488239,
            27.4530481
          ],
          [
            -81.3488331,
            27.4530925
          ],
          [
            -81.3488373,
            27.4531193
          ],
          [
            -81.3488412,
            27.4531552
          ],
          [
            -81.3488533,
            27.4532266
          ],
          [
            -81.3488561,
            27.4532535
          ],
          [
            -81.3488599,
            27.4533166
          ],
          [
            -81.3488633,
            27.4533977
          ],
          [
            -81.3488648,
            27.4535692
          ],
          [
            -81.3488646,
            27.4537406
          ],
          [
            -81.3488644,
            27.4539121
          ],
          [
            -81.3488642,
            27.4540835
          ],
          [
            -81.348867,
            27.4541828
          ],
          [
            -81.3488698,
            27.4542188
          ],
          [
            -81.348873,
            27.4542457
          ],
          [
            -81.3488783,
            27.4542723
          ],
          [
            -81.348881,
            27.454281
          ],
          [
            -81.3488872,
            27.4542982
          ],
          [
            -81.3489053,
            27.4543403
          ],
          [
            -81.3489174,
            27.4543652
          ],
          [
            -81.3489263,
            27.4543814
          ],
          [
            -81.3489459,
            27.4544129
          ],
          [
            -81.3489627,
            27.4544355
          ],
          [
            -81.3489817,
            27.4544565
          ],
          [
            -81.3490029,
            27.4544759
          ],
          [
            -81.349026,
            27.4544935
          ],
          [
            -81.3490502,
            27.4545098
          ],
          [
            -81.3490753,
            27.454525
          ],
          [
            -81.3491099,
            27.4545437
          ],
          [
            -81.3491368,
            27.4545562
          ],
          [
            -81.3491647,
            27.454567
          ],
          [
            -81.3491837,
            27.4545731
          ],
          [
            -81.3492034,
            27.4545773
          ],
          [
            -81.3492234,
            27.4545797
          ],
          [
            -81.3492538,
            27.4545807
          ],
          [
            -81.3493448,
            27.4545792
          ],
          [
            -81.3494662,
            27.4545788
          ],
          [
            -81.3495875,
            27.4545817
          ],
          [
            -81.3496076,
            27.4545835
          ],
          [
            -81.3496275,
            27.4545868
          ],
          [
            -81.3496566,
            27.4545945
          ],
          [
            -81.349685,
            27.4546041
          ],
          [
            -81.349722,
            27.4546186
          ],
          [
            -81.3497946,
            27.4546505
          ],
          [
            -81.3498477,
            27.4546768
          ],
          [
            -81.349882,
            27.4546959
          ],
          [
            -81.3499149,
            27.4547169
          ],
          [
            -81.3500259,
            27.4547953
          ],
          [
            -81.3501147,
            27.4548551
          ],
          [
            -81.3501554,
            27.4548819
          ],
          [
            -81.3501893,
            27.4549016
          ],
          [
            -81.3502422,
            27.4549283
          ],
          [
            -81.3503059,
            27.4549558
          ],
          [
            -81.3503527,
            27.4549728
          ],
          [
            -81.3504005,
            27.4549876
          ],
          [
            -81.35042,
            27.4549925
          ],
          [
            -81.3504495,
            27.4549987
          ],
          [
            -81.3504793,
            27.4550039
          ],
          [
            -81.3505092,
            27.4550082
          ],
          [
            -81.3505495,
            27.4550118
          ],
          [
            -81.3506001,
            27.4550128
          ],
          [
            -81.3506404,
            27.4550106
          ],
          [
            -81.3506804,
            27.455005
          ],
          [
            -81.3507593,
            27.4549888
          ],
          [
            -81.3507787,
            27.4549838
          ],
          [
            -81.3507978,
            27.4549778
          ],
          [
            -81.3508253,
            27.4549663
          ],
          [
            -81.3508508,
            27.4549518
          ],
          [
            -81.3508905,
            27.4549237
          ],
          [
            -81.3509279,
            27.4548934
          ],
          [
            -81.3509492,
            27.4548741
          ],
          [
            -81.3509687,
            27.4548533
          ],
          [
            -81.3509918,
            27.4548237
          ],
          [
            -81.3510192,
            27.4547858
          ],
          [
            -81.3510292,
            27.4547701
          ],
          [
            -81.3510424,
            27.4547457
          ],
          [
            -81.3511103,
            27.4546048
          ],
          [
            -81.3511783,
            27.4544639
          ],
          [
            -81.3512436,
            27.4543417
          ],
          [
            -81.3512724,
            27.454284
          ],
          [
            -81.3512858,
            27.4542597
          ],
          [
            -81.3513452,
            27.4541653
          ],
          [
            -81.3513975,
            27.4540881
          ],
          [
            -81.3514424,
            27.454028
          ],
          [
            -81.3515127,
            27.4539397
          ],
          [
            -81.3515558,
            27.4538896
          ],
          [
            -81.3516186,
            27.4538189
          ],
          [
            -81.351722,
            27.4537078
          ],
          [
            -81.3517883,
            27.4536396
          ],
          [
            -81.3518696,
            27.4535592
          ],
          [
            -81.3519478,
            27.4534886
          ],
          [
            -81.35203,
            27.4534217
          ],
          [
            -81.3520914,
            27.4533747
          ],
          [
            -81.3521698,
            27.4533176
          ],
          [
            -81.3522018,
            27.4532956
          ],
          [
            -81.3522997,
            27.4532316
          ],
          [
            -81.3523988,
            27.453169
          ],
          [
            -81.3524749,
            27.4531244
          ],
          [
            -81.3525693,
            27.4530719
          ],
          [
            -81.3526666,
            27.4530238
          ],
          [
            -81.3527922,
            27.4529655
          ],
          [
            -81.3528651,
            27.4529342
          ],
          [
            -81.3529388,
            27.4529044
          ],
          [
            -81.3529945,
            27.4528828
          ],
          [
            -81.3530414,
            27.4528659
          ],
          [
            -81.3531076,
            27.4528435
          ],
          [
            -81.3531838,
            27.4528191
          ],
          [
            -81.35327,
            27.4527931
          ],
          [
            -81.353347,
            27.4527708
          ],
          [
            -81.353405,
            27.4527549
          ],
          [
            -81.3534537,
            27.4527426
          ],
          [
            -81.3535617,
            27.4527187
          ],
          [
            -81.3536407,
            27.4527031
          ],
          [
            -81.3537698,
            27.4526811
          ],
          [
            -81.3538902,
            27.4526669
          ],
          [
            -81.3539805,
            27.4526571
          ],
          [
            -81.3540811,
            27.4526477
          ],
          [
            -81.3541822,
            27.4526433
          ],
          [
            -81.3542883,
            27.4526398
          ],
          [
            -81.3543944,
            27.4526363
          ],
          [
            -81.3545563,
            27.4526349
          ],
          [
            -81.3546271,
            27.4526336
          ],
          [
            -81.3547434,
            27.4526346
          ],
          [
            -81.3548597,
            27.4526355
          ],
          [
            -81.3550012,
            27.45264
          ],
          [
            -81.3550821,
            27.4526414
          ],
          [
            -81.3552844,
            27.4526414
          ],
          [
            -81.3554867,
            27.4526414
          ],
          [
            -81.3556587,
            27.4526404
          ],
          [
            -81.3558306,
            27.4526394
          ],
          [
            -81.3560026,
            27.4526384
          ],
          [
            -81.356151,
            27.452638
          ],
          [
            -81.3562993,
            27.4526376
          ],
          [
            -81.3564477,
            27.4526372
          ],
          [
            -81.3566297,
            27.452635
          ],
          [
            -81.3567562,
            27.4526342
          ],
          [
            -81.3568826,
            27.4526333
          ],
          [
            -81.3570545,
            27.4526293
          ],
          [
            -81.3571607,
            27.4526291
          ],
          [
            -81.3572669,
            27.4526289
          ],
          [
            -81.3573832,
            27.4526274
          ],
          [
            -81.3574995,
            27.4526259
          ],
          [
            -81.3576967,
            27.452622
          ],
          [
            -81.3578939,
            27.4526181
          ],
          [
            -81.3580355,
            27.45262
          ],
          [
            -81.3580557,
            27.4526218
          ],
          [
            -81.3580754,
            27.4526258
          ],
          [
            -81.3580943,
            27.4526323
          ],
          [
            -81.3581396,
            27.4526523
          ],
          [
            -81.3581575,
            27.4526607
          ],
          [
            -81.3581748,
            27.4526701
          ],
          [
            -81.358191,
            27.4526808
          ],
          [
            -81.3582135,
            27.4526991
          ],
          [
            -81.3582269,
            27.4527125
          ],
          [
            -81.3582387,
            27.4527272
          ],
          [
            -81.3582481,
            27.4527431
          ],
          [
            -81.3582553,
            27.45276
          ],
          [
            -81.3582607,
            27.4527774
          ],
          [
            -81.3582663,
            27.452804
          ],
          [
            -81.3582682,
            27.452822
          ],
          [
            -81.3582693,
            27.452849
          ],
          [
            -81.3582678,
            27.4528761
          ],
          [
            -81.3582652,
            27.452894
          ],
          [
            -81.3582611,
            27.4529116
          ],
          [
            -81.3582582,
            27.4529203
          ],
          [
            -81.3582509,
            27.4529371
          ],
          [
            -81.3582326,
            27.4529693
          ],
          [
            -81.3582167,
            27.4529923
          ],
          [
            -81.3582107,
            27.4529996
          ],
          [
            -81.3581975,
            27.4530133
          ],
          [
            -81.3581402,
            27.4530643
          ],
          [
            -81.3581197,
            27.4530842
          ],
          [
            -81.3581,
            27.4531049
          ],
          [
            -81.358082,
            27.4531266
          ],
          [
            -81.3580708,
            27.4531417
          ],
          [
            -81.3580558,
            27.4531652
          ],
          [
            -81.3580472,
            27.4531815
          ],
          [
            -81.3580398,
            27.4531983
          ],
          [
            -81.3580303,
            27.453224
          ],
          [
            -81.3580224,
            27.4532502
          ],
          [
            -81.3580182,
            27.4532678
          ],
          [
            -81.358015,
            27.4532856
          ],
          [
            -81.3580116,
            27.4533125
          ],
          [
            -81.3580071,
            27.4533937
          ],
          [
            -81.3580037,
            27.4534206
          ],
          [
            -81.3580003,
            27.4534383
          ],
          [
            -81.3579937,
            27.4534648
          ],
          [
            -81.3579747,
            27.4535256
          ],
          [
            -81.3579653,
            27.4535514
          ],
          [
            -81.3579314,
            27.4536364
          ],
          [
            -81.3579204,
            27.4536616
          ],
          [
            -81.3579086,
            27.4536866
          ],
          [
            -81.3578952,
            27.4537108
          ],
          [
            -81.3578752,
            27.4537422
          ],
          [
            -81.3578585,
            27.4537648
          ],
          [
            -81.3578407,
            27.4537868
          ],
          [
            -81.3578159,
            27.4538153
          ],
          [
            -81.3577587,
            27.4538785
          ],
          [
            -81.3576989,
            27.4539396
          ],
          [
            -81.3576488,
            27.4539843
          ],
          [
            -81.3575995,
            27.4540297
          ],
          [
            -81.3574993,
            27.4541189
          ],
          [
            -81.357399,
            27.4542081
          ],
          [
            -81.3573291,
            27.4542734
          ],
          [
            -81.3573003,
            27.4542986
          ],
          [
            -81.3571883,
            27.45439
          ],
          [
            -81.3571105,
            27.4544477
          ],
          [
            -81.3570468,
            27.4544922
          ],
          [
            -81.3570142,
            27.4545136
          ],
          [
            -81.356964,
            27.454544
          ],
          [
            -81.3569208,
            27.4545675
          ],
          [
            -81.3568766,
            27.4545893
          ],
          [
            -81.3568137,
            27.4546184
          ],
          [
            -81.3567134,
            27.4546613
          ],
          [
            -81.3566761,
            27.4546753
          ],
          [
            -81.3565345,
            27.454724
          ],
          [
            -81.3564393,
            27.4547544
          ],
          [
            -81.356296,
            27.4547989
          ],
          [
            -81.3561042,
            27.4548563
          ],
          [
            -81.3559489,
            27.4549043
          ],
          [
            -81.3557935,
            27.4549522
          ],
          [
            -81.3556382,
            27.4550002
          ],
          [
            -81.3554829,
            27.4550482
          ],
          [
            -81.3553207,
            27.4550992
          ],
          [
            -81.3552734,
            27.4551152
          ],
          [
            -81.3552266,
            27.4551322
          ],
          [
            -81.3551616,
            27.4551573
          ],
          [
            -81.3551249,
            27.4551726
          ],
          [
            -81.3550624,
            27.4552022
          ],
          [
            -81.3550097,
            27.4552291
          ],
          [
            -81.3549579,
            27.4552573
          ],
          [
            -81.3548901,
            27.4552967
          ],
          [
            -81.3548317,
            27.4553324
          ],
          [
            -81.3547745,
            27.4553696
          ],
          [
            -81.3547263,
            27.4554026
          ],
          [
            -81.3546167,
            27.4554826
          ],
          [
            -81.3545051,
            27.4555742
          ],
          [
            -81.3544411,
            27.455632
          ],
          [
            -81.3543852,
            27.4556842
          ],
          [
            -81.3542588,
            27.4558134
          ],
          [
            -81.3541915,
            27.4558807
          ],
          [
            -81.3541278,
            27.4559388
          ],
          [
            -81.3540843,
            27.4559765
          ],
          [
            -81.3540372,
            27.4560236
          ],
          [
            -81.3540164,
            27.4560434
          ],
          [
            -81.3538806,
            27.4561646
          ],
          [
            -81.3538116,
            27.4562306
          ],
          [
            -81.3537683,
            27.4562686
          ],
          [
            -81.3536505,
            27.456374
          ],
          [
            -81.3535326,
            27.4564795
          ],
          [
            -81.3534406,
            27.4565633
          ],
          [
            -81.3533386,
            27.4566573
          ],
          [
            -81.3532367,
            27.4567514
          ],
          [
            -81.3531085,
            27.4568667
          ],
          [
            -81.3530346,
            27.4569284
          ],
          [
            -81.352926,
            27.4570229
          ],
          [
            -81.3528665,
            27.4570718
          ],
          [
            -81.3528525,
            27.4570848
          ],
          [
            -81.3528202,
            27.4571196
          ],
          [
            -81.3527997,
            27.4571395
          ],
          [
            -81.3527777,
            27.4571582
          ],
          [
            -81.3527551,
            27.4571762
          ],
          [
            -81.3527393,
            27.4571876
          ],
          [
            -81.3527229,
            27.4571981
          ],
          [
            -81.3526971,
            27.4572124
          ],
          [
            -81.3526794,
            27.457221
          ],
          [
            -81.3526609,
            27.4572284
          ],
          [
            -81.3526514,
            27.4572314
          ],
          [
            -81.3526319,
            27.4572363
          ],
          [
            -81.3526121,
            27.45724
          ],
          [
            -81.3525921,
            27.4572426
          ],
          [
            -81.3525719,
            27.4572442
          ],
          [
            -81.3525517,
            27.4572445
          ],
          [
            -81.3525315,
            27.4572433
          ],
          [
            -81.3525016,
            27.457239
          ],
          [
            -81.3524723,
            27.4572319
          ],
          [
            -81.3524241,
            27.4572183
          ],
          [
            -81.352405,
            27.4572123
          ],
          [
            -81.3523862,
            27.4572056
          ],
          [
            -81.3523681,
            27.4571976
          ],
          [
            -81.3523508,
            27.4571882
          ],
          [
            -81.3523343,
            27.4571778
          ],
          [
            -81.3523102,
            27.4571613
          ],
          [
            -81.352287,
            27.4571439
          ],
          [
            -81.3522652,
            27.4571251
          ],
          [
            -81.352197,
            27.4570584
          ],
          [
            -81.3521772,
            27.4570379
          ],
          [
            -81.3521284,
            27.4569803
          ],
          [
            -81.3520768,
            27.4569134
          ],
          [
            -81.3520145,
            27.4568366
          ],
          [
            -81.3519522,
            27.4567599
          ],
          [
            -81.351934,
            27.4567383
          ],
          [
            -81.3519149,
            27.4567173
          ],
          [
            -81.3518944,
            27.4566973
          ],
          [
            -81.351872,
            27.456679
          ],
          [
            -81.3518558,
            27.4566682
          ],
          [
            -81.3518301,
            27.4566538
          ],
          [
            -81.3517773,
            27.4566271
          ],
          [
            -81.3517505,
            27.4566143
          ],
          [
            -81.3516593,
            27.4565753
          ],
          [
            -81.3515022,
            27.456513
          ],
          [
            -81.3514554,
            27.456496
          ],
          [
            -81.3512723,
            27.4564439
          ],
          [
            -81.3512237,
            27.4564312
          ],
          [
            -81.3511844,
            27.4564229
          ],
          [
            -81.3511546,
            27.4564177
          ],
          [
            -81.3511246,
            27.4564133
          ],
          [
            -81.3510945,
            27.45641
          ],
          [
            -81.3510643,
            27.4564078
          ],
          [
            -81.3510339,
            27.4564068
          ],
          [
            -81.3509834,
            27.456408
          ],
          [
            -81.3509331,
            27.4564126
          ],
          [
            -81.3509031,
            27.4564167
          ],
          [
            -81.3508733,
            27.4564219
          ],
          [
            -81.3508144,
            27.4564348
          ],
          [
            -81.3507272,
            27.4564581
          ],
          [
            -81.350649,
            27.456477
          ],
          [
            -81.3505144,
            27.4565161
          ],
          [
            -81.3504852,
            27.4565236
          ],
          [
            -81.3504457,
            27.4565313
          ],
          [
            -81.3503657,
            27.456542
          ],
          [
            -81.3503262,
            27.4565499
          ],
          [
            -81.3503069,
            27.4565553
          ],
          [
            -81.3502883,
            27.4565624
          ],
          [
            -81.3502154,
            27.4565938
          ],
          [
            -81.3500801,
            27.456655
          ],
          [
            -81.3499824,
            27.4567025
          ],
          [
            -81.3499122,
            27.4567384
          ],
          [
            -81.3498409,
            27.4567726
          ],
          [
            -81.3497354,
            27.4568262
          ],
          [
            -81.3497084,
            27.4568384
          ],
          [
            -81.349662,
            27.4568563
          ],
          [
            -81.3496239,
            27.4568686
          ],
          [
            -81.3495749,
            27.4568796
          ],
          [
            -81.3495451,
            27.456885
          ],
          [
            -81.3495152,
            27.4568894
          ],
          [
            -81.349445,
            27.4568977
          ],
          [
            -81.3494047,
            27.4569013
          ],
          [
            -81.3492938,
            27.4569093
          ],
          [
            -81.3491827,
            27.4569139
          ],
          [
            -81.3490816,
            27.4569161
          ],
          [
            -81.3489804,
            27.4569173
          ],
          [
            -81.3488693,
            27.4569222
          ],
          [
            -81.3487176,
            27.4569214
          ],
          [
            -81.3486063,
            27.4569224
          ],
          [
            -81.348495,
            27.4569233
          ],
          [
            -81.348404,
            27.4569236
          ],
          [
            -81.3483737,
            27.4569229
          ],
          [
            -81.3483434,
            27.4569209
          ],
          [
            -81.3483134,
            27.4569168
          ],
          [
            -81.3482637,
            27.4569083
          ],
          [
            -81.3482344,
            27.4569012
          ],
          [
            -81.348138,
            27.4568739
          ],
          [
            -81.3480905,
            27.4568584
          ],
          [
            -81.3480539,
            27.4568431
          ],
          [
            -81.3480364,
            27.456834
          ],
          [
            -81.3480198,
            27.4568237
          ],
          [
            -81.3480043,
            27.4568121
          ],
          [
            -81.34799,
            27.4567994
          ],
          [
            -81.3479713,
            27.4567781
          ],
          [
            -81.3479557,
            27.4567549
          ],
          [
            -81.3479371,
            27.4567228
          ],
          [
            -81.3479288,
            27.4567063
          ],
          [
            -81.3479221,
            27.4566893
          ],
          [
            -81.3479146,
            27.4566631
          ],
          [
            -81.3479061,
            27.4566186
          ],
          [
            -81.347895,
            27.456538
          ],
          [
            -81.3478834,
            27.4564757
          ],
          [
            -81.3478808,
            27.4564396
          ],
          [
            -81.3478821,
            27.4563404
          ],
          [
            -81.3478834,
            27.4562411
          ],
          [
            -81.3478827,
            27.4560697
          ],
          [
            -81.3478834,
            27.4559524
          ],
          [
            -81.3478848,
            27.4558983
          ],
          [
            -81.3478888,
            27.4558081
          ],
          [
            -81.3478873,
            27.4556682
          ],
          [
            -81.3478859,
            27.4555284
          ],
          [
            -81.3478859,
            27.4553795
          ],
          [
            -81.3478858,
            27.4552306
          ],
          [
            -81.3478852,
            27.4550727
          ],
          [
            -81.3478845,
            27.4549147
          ],
          [
            -81.3478835,
            27.4548426
          ],
          [
            -81.3478845,
            27.4548155
          ],
          [
            -81.3478896,
            27.4547344
          ],
          [
            -81.347891,
            27.4546803
          ],
          [
            -81.3478901,
            27.4545991
          ],
          [
            -81.3478873,
            27.4545269
          ],
          [
            -81.3478885,
            27.4544638
          ],
          [
            -81.347886,
            27.4544187
          ],
          [
            -81.347886,
            27.4543736
          ],
          [
            -81.3478824,
            27.4542022
          ],
          [
            -81.3478828,
            27.4541029
          ],
          [
            -81.3478816,
            27.4540217
          ],
          [
            -81.347883,
            27.4539405
          ],
          [
            -81.347883,
            27.4538683
          ],
          [
            -81.347882,
            27.4538232
          ],
          [
            -81.3478837,
            27.4537691
          ],
          [
            -81.3478824,
            27.4537511
          ],
          [
            -81.3478775,
            27.4537152
          ],
          [
            -81.347876,
            27.4536972
          ],
          [
            -81.3478751,
            27.4536431
          ],
          [
            -81.347878,
            27.4535981
          ],
          [
            -81.3478863,
            27.4535353
          ],
          [
            -81.3478901,
            27.4534994
          ],
          [
            -81.3478934,
            27.4534816
          ],
          [
            -81.3479149,
            27.4533934
          ],
          [
            -81.3479223,
            27.4533488
          ],
          [
            -81.3479371,
            27.4532687
          ],
          [
            -81.3479451,
            27.453215
          ],
          [
            -81.347946,
            27.453197
          ],
          [
            -81.347945,
            27.4531609
          ],
          [
            -81.3479451,
            27.4530977
          ],
          [
            -81.3479439,
            27.4530616
          ],
          [
            -81.3479399,
            27.4530257
          ],
          [
            -81.3479364,
            27.4530079
          ],
          [
            -81.3479318,
            27.4529904
          ],
          [
            -81.3479226,
            27.4529646
          ],
          [
            -81.3478822,
            27.4528721
          ],
          [
            -81.3478518,
            27.4527956
          ],
          [
            -81.3478199,
            27.4527195
          ],
          [
            -81.3477629,
            27.452594
          ],
          [
            -81.3477381,
            27.4525446
          ],
          [
            -81.3477076,
            27.4524876
          ],
          [
            -81.3476997,
            27.452471
          ],
          [
            -81.347687,
            27.4524368
          ],
          [
            -81.3476534,
            27.4523327
          ],
          [
            -81.3476392,
            27.4522801
          ],
          [
            -81.3476339,
            27.4522626
          ],
          [
            -81.3476034,
            27.4521861
          ],
          [
            -81.3475876,
            27.4521529
          ],
          [
            -81.3475572,
            27.4520959
          ],
          [
            -81.3475415,
            27.4520626
          ],
          [
            -81.3475175,
            27.4520032
          ],
          [
            -81.3474831,
            27.4519088
          ],
          [
            -81.3474612,
            27.4518583
          ],
          [
            -81.347445,
            27.4518252
          ],
          [
            -81.3474271,
            27.4517928
          ],
          [
            -81.3474126,
            27.451769
          ],
          [
            -81.3473968,
            27.4517459
          ],
          [
            -81.3473796,
            27.4517236
          ],
          [
            -81.3473674,
            27.4517092
          ],
          [
            -81.3473481,
            27.4516884
          ],
          [
            -81.3473279,
            27.4516682
          ],
          [
            -81.3472782,
            27.4516232
          ],
          [
            -81.3471543,
            27.4515167
          ],
          [
            -81.3471047,
            27.4514717
          ],
          [
            -81.3470636,
            27.4514319
          ],
          [
            -81.3469706,
            27.4513366
          ],
          [
            -81.3468942,
            27.4512644
          ],
          [
            -81.3467646,
            27.4511503
          ],
          [
            -81.3466385,
            27.451046
          ],
          [
            -81.3465095,
            27.4509315
          ],
          [
            -81.3463857,
            27.4508249
          ],
          [
            -81.3462997,
            27.4507486
          ],
          [
            -81.3462579,
            27.4507093
          ],
          [
            -81.3462376,
            27.4506892
          ],
          [
            -81.3462247,
            27.4506752
          ],
          [
            -81.3462068,
            27.4506534
          ],
          [
            -81.346196,
            27.4506381
          ],
          [
            -81.3461865,
            27.4506222
          ],
          [
            -81.3461789,
            27.4506055
          ],
          [
            -81.3461735,
            27.4505881
          ],
          [
            -81.34617,
            27.4505703
          ],
          [
            -81.3461578,
            27.4504354
          ],
          [
            -81.3461575,
            27.4504083
          ],
          [
            -81.3461587,
            27.4503813
          ],
          [
            -81.3461625,
            27.4503453
          ],
          [
            -81.3461697,
            27.4503098
          ],
          [
            -81.3461815,
            27.4502659
          ],
          [
            -81.3461936,
            27.4502315
          ],
          [
            -81.3462196,
            27.4501727
          ],
          [
            -81.3462356,
            27.4501396
          ],
          [
            -81.3462535,
            27.4501072
          ],
          [
            -81.346278,
            27.4500678
          ],
          [
            -81.3463042,
            27.4500292
          ],
          [
            -81.346338,
            27.4499842
          ],
          [
            -81.3463681,
            27.4499479
          ],
          [
            -81.3464129,
            27.449899
          ],
          [
            -81.3464251,
            27.4498847
          ],
          [
            -81.3464803,
            27.449809
          ],
          [
            -81.3464957,
            27.4497857
          ],
          [
            -81.3465095,
            27.4497616
          ],
          [
            -81.3465209,
            27.4497365
          ],
          [
            -81.3465297,
            27.4497106
          ],
          [
            -81.3465678,
            27.4495796
          ],
          [
            -81.3465767,
            27.4495444
          ],
          [
            -81.3465841,
            27.4495089
          ],
          [
            -81.3465898,
            27.4494731
          ],
          [
            -81.3465939,
            27.4494372
          ],
          [
            -81.3466051,
            27.4492932
          ],
          [
            -81.3466095,
            27.4492573
          ],
          [
            -81.3466151,
            27.4492216
          ],
          [
            -81.3466267,
            27.4491593
          ],
          [
            -81.3466447,
            27.4490705
          ],
          [
            -81.346649,
            27.4490528
          ],
          [
            -81.3466617,
            27.4490091
          ],
          [
            -81.3466772,
            27.4489383
          ],
          [
            -81.3466969,
            27.4488314
          ],
          [
            -81.3467133,
            27.4487333
          ],
          [
            -81.3467207,
            27.4486978
          ],
          [
            -81.3467363,
            27.4486362
          ],
          [
            -81.346742,
            27.4486189
          ],
          [
            -81.3467487,
            27.4486019
          ],
          [
            -81.3467608,
            27.448577
          ],
          [
            -81.3467702,
            27.448561
          ],
          [
            -81.3467807,
            27.4485456
          ],
          [
            -81.3467982,
            27.4485235
          ],
          [
            -81.3468175,
            27.4485026
          ],
          [
            -81.3468454,
            27.4484765
          ],
          [
            -81.3468753,
            27.4484522
          ],
          [
            -81.3469068,
            27.4484295
          ],
          [
            -81.3469397,
            27.4484085
          ],
          [
            -81.3469654,
            27.4483941
          ],
          [
            -81.3470009,
            27.4483769
          ],
          [
            -81.3470281,
            27.4483647
          ],
          [
            -81.3470372,
            27.448361
          ],
          [
            -81.3470652,
            27.4483505
          ],
          [
            -81.3470937,
            27.4483412
          ],
          [
            -81.3471034,
            27.4483385
          ],
          [
            -81.3471132,
            27.4483363
          ],
          [
            -81.3471528,
            27.448329
          ],
          [
            -81.3471727,
            27.448326
          ],
          [
            -81.3471828,
            27.4483249
          ],
          [
            -81.3472029,
            27.4483232
          ],
          [
            -81.3472634,
            27.448319
          ],
          [
            -81.3473038,
            27.4483175
          ],
          [
            -81.3474353,
            27.4483161
          ],
          [
            -81.3475061,
            27.4483164
          ],
          [
            -81.3475466,
            27.4483177
          ],
          [
            -81.3475768,
            27.4483196
          ],
          [
            -81.347607,
            27.4483224
          ],
          [
            -81.347617,
            27.4483236
          ],
          [
            -81.3476967,
            27.4483364
          ],
          [
            -81.3477367,
            27.4483413
          ],
          [
            -81.3477468,
            27.4483423
          ],
          [
            -81.3477972,
            27.4483454
          ],
          [
            -81.3478478,
            27.4483467
          ],
          [
            -81.3479489,
            27.448346
          ],
          [
            -81.3480804,
            27.4483465
          ],
          [
            -81.348222,
            27.448345
          ],
          [
            -81.3483029,
            27.4483434
          ],
          [
            -81.3484648,
            27.4483431
          ],
          [
            -81.3485761,
            27.4483438
          ],
          [
            -81.3487581,
            27.4483433
          ],
          [
            -81.3489402,
            27.4483427
          ],
          [
            -81.3490717,
            27.4483428
          ],
          [
            -81.3492032,
            27.4483429
          ],
          [
            -81.3493499,
            27.4483423
          ],
          [
            -81.3494965,
            27.4483417
          ],
          [
            -81.3496432,
            27.4483401
          ],
          [
            -81.3497898,
            27.4483386
          ],
          [
            -81.3499112,
            27.4483395
          ],
          [
            -81.3500731,
            27.4483382
          ],
          [
            -81.3501439,
            27.4483385
          ],
          [
            -81.3503428,
            27.4483379
          ],
          [
            -81.3505417,
            27.4483374
          ],
          [
            -81.3507407,
            27.4483368
          ],
          [
            -81.3509328,
            27.4483372
          ],
          [
            -81.3511099,
            27.4483361
          ],
          [
            -81.3512869,
            27.4483349
          ],
          [
            -81.3514437,
            27.4483349
          ],
          [
            -81.3516004,
            27.4483348
          ],
          [
            -81.3518027,
            27.4483334
          ],
          [
            -81.3518432,
            27.4483339
          ],
          [
            -81.3519341,
            27.4483372
          ],
          [
            -81.3519645,
            27.4483374
          ],
          [
            -81.3521364,
            27.4483343
          ],
          [
            -81.3522948,
            27.4483292
          ],
          [
            -81.3524532,
            27.4483242
          ],
          [
            -81.3526115,
            27.4483191
          ],
          [
            -81.3527833,
            27.4483122
          ],
          [
            -81.3529451,
            27.4483083
          ],
          [
            -81.353026,
            27.4483084
          ],
          [
            -81.3531878,
            27.4483067
          ],
          [
            -81.3532991,
            27.4483076
          ],
          [
            -81.3535014,
            27.448307
          ],
          [
            -81.3536329,
            27.4483074
          ],
          [
            -81.3537914,
            27.4483067
          ],
          [
            -81.3539498,
            27.448306
          ],
          [
            -81.3541083,
            27.4483053
          ],
          [
            -81.3542499,
            27.4483051
          ],
          [
            -81.3543915,
            27.4483048
          ],
          [
            -81.3545837,
            27.4483031
          ],
          [
            -81.3547759,
            27.4483014
          ],
          [
            -81.3549074,
            27.4483028
          ],
          [
            -81.3550237,
            27.4483023
          ],
          [
            -81.35514,
            27.4483017
          ],
          [
            -81.3552816,
            27.4483023
          ],
          [
            -81.3554283,
            27.4483015
          ],
          [
            -81.355575,
            27.4483006
          ],
          [
            -81.3556963,
            27.4483006
          ],
          [
            -81.3558683,
            27.4482988
          ],
          [
            -81.3559189,
            27.4482996
          ],
          [
            -81.3559997,
            27.4483029
          ],
          [
            -81.3560401,
            27.4483031
          ],
          [
            -81.3561211,
            27.4483019
          ],
          [
            -81.3561312,
            27.4483015
          ],
          [
            -81.3561513,
            27.4482996
          ],
          [
            -81.3562113,
            27.4482918
          ],
          [
            -81.3562515,
            27.4482877
          ],
          [
            -81.3563019,
            27.448284
          ],
          [
            -81.3563322,
            27.4482831
          ],
          [
            -81.3563525,
            27.4482836
          ],
          [
            -81.3563726,
            27.448285
          ],
          [
            -81.3564127,
            27.4482899
          ],
          [
            -81.3564425,
            27.448295
          ],
          [
            -81.3565412,
            27.4483148
          ],
          [
            -81.3565509,
            27.4483172
          ],
          [
            -81.3565799,
            27.4483254
          ],
          [
            -81.356618,
            27.4483374
          ],
          [
            -81.3566274,
            27.4483407
          ],
          [
            -81.3566459,
            27.4483481
          ],
          [
            -81.3566725,
            27.4483611
          ],
          [
            -81.3566896,
            27.4483707
          ],
          [
            -81.3567061,
            27.4483812
          ],
          [
            -81.356819,
            27.4484575
          ],
          [
            -81.3568846,
            27.4484998
          ],
          [
            -81.3569271,
            27.4485241
          ],
          [
            -81.3570235,
            27.4485737
          ],
          [
            -81.3570662,
            27.4485979
          ],
          [
            -81.3570825,
            27.4486086
          ],
          [
            -81.3571062,
            27.4486255
          ],
          [
            -81.3571678,
            27.4486723
          ],
          [
            -81.3573234,
            27.4487876
          ],
          [
            -81.357393,
            27.44884
          ],
          [
            -81.3574312,
            27.4488696
          ],
          [
            -81.3574603,
            27.4488946
          ],
          [
            -81.3574802,
            27.4489151
          ],
          [
            -81.3574977,
            27.4489372
          ],
          [
            -81.3575028,
            27.448945
          ],
          [
            -81.3575127,
            27.4489607
          ],
          [
            -81.3575296,
            27.4489935
          ],
          [
            -81.3575441,
            27.4490272
          ],
          [
            -81.3575672,
            27.4490869
          ],
          [
            -81.3575734,
            27.4491041
          ],
          [
            -81.3575786,
            27.4491215
          ],
          [
            -81.3575887,
            27.4491657
          ],
          [
            -81.3576016,
            27.4492186
          ],
          [
            -81.3576066,
            27.4492453
          ],
          [
            -81.3576113,
            27.4492902
          ],
          [
            -81.3576126,
            27.4493353
          ],
          [
            -81.3576119,
            27.4493805
          ],
          [
            -81.3576107,
            27.4493985
          ],
          [
            -81.357608,
            27.4494164
          ],
          [
            -81.3576042,
            27.4494341
          ],
          [
            -81.3575997,
            27.4494517
          ],
          [
            -81.3575938,
            27.4494689
          ],
          [
            -81.3575859,
            27.4494855
          ],
          [
            -81.3575553,
            27.4495425
          ],
          [
            -81.357546,
            27.4495585
          ],
          [
            -81.3575308,
            27.4495819
          ],
          [
            -81.3574415,
            27.4497024
          ],
          [
            -81.3574006,
            27.4497539
          ],
          [
            -81.3573532,
            27.4498233
          ],
          [
            -81.3573141,
            27.4498759
          ],
          [
            -81.3572963,
            27.4498978
          ],
          [
            -81.3572775,
            27.4499191
          ],
          [
            -81.3572576,
            27.4499395
          ],
          [
            -81.3572437,
            27.4499527
          ],
          [
            -81.3572293,
            27.4499653
          ],
          [
            -81.3572066,
            27.4499833
          ],
          [
            -81.3571669,
            27.4500112
          ],
          [
            -81.3571417,
            27.4500263
          ],
          [
            -81.3571155,
            27.45004
          ],
          [
            -81.3570888,
            27.4500527
          ],
          [
            -81.3570524,
            27.4500686
          ],
          [
            -81.3569876,
            27.4500939
          ],
          [
            -81.3569421,
            27.4501136
          ],
          [
            -81.3569049,
            27.4501279
          ],
          [
            -81.3568485,
            27.450148
          ],
          [
            -81.3568007,
            27.4501628
          ],
          [
            -81.356762,
            27.4501733
          ],
          [
            -81.356723,
            27.4501827
          ],
          [
            -81.3566835,
            27.4501907
          ],
          [
            -81.3566438,
            27.4501976
          ],
          [
            -81.3566038,
            27.4502029
          ],
          [
            -81.3565636,
            27.4502069
          ],
          [
            -81.3564628,
            27.4502148
          ],
          [
            -81.3563921,
            27.450218
          ],
          [
            -81.3562303,
            27.4502218
          ],
          [
            -81.3560888,
            27.4502274
          ],
          [
            -81.3558865,
            27.4502281
          ],
          [
            -81.3557652,
            27.4502302
          ],
          [
            -81.3555932,
            27.4502298
          ],
          [
            -81.3554213,
            27.4502259
          ],
          [
            -81.3552797,
            27.4502265
          ],
          [
            -81.3551381,
            27.4502271
          ],
          [
            -81.3549965,
            27.4502277
          ],
          [
            -81.354865,
            27.4502277
          ],
          [
            -81.3547335,
            27.4502277
          ],
          [
            -81.3545691,
            27.4502285
          ],
          [
            -81.3544047,
            27.4502292
          ],
          [
            -81.3542404,
            27.45023
          ],
          [
            -81.354076,
            27.4502307
          ],
          [
            -81.3538939,
            27.4502321
          ],
          [
            -81.3537928,
            27.4502317
          ],
          [
            -81.3536604,
            27.4502321
          ],
          [
            -81.353528,
            27.4502325
          ]
        ]
      }
    },
    {
      "type": "Feature",
      "properties": {
        "role": "start_finish",
        "name": "Start / Finish",
        "marker": 0.0
      },
      "geometry": {
        "type": "Point",
        "coordinates": [
          -81.3535298,
          27.4502325
        ]
      }
    },
    {
      "type": "Feature",
      "properties": {
        "role": "pit_entry",
        "name": "Pit Entry",
        "marker": 0.96739
      },
      "geometry": {
        "type": "Point",
        "coordinates": [
          -81.3554618,
          27.4502268
        ]
      }
    },
    {
      "type": "Feature",
      "properties": {
        "role": "pit_exit",
        "name": "Pit Exit",
        "marker": 0.06101
      },
      "geometry": {
        "type": "Point",
        "coordinates": [
          -81.3499196,
          27.4502597
        ]
      }
    },
    {
      "type": "Feature",
      "properties": {
        "role": "corner",
        "id": "t1",
        "number": 1,
        "code": "1",
        "display": "Turn 1",
        "labels": {
          "numbered": "Turn 1"
        },
        "direction": "left",
        "scale": 3,
        "marker": 0.08429
      },
      "geometry": {
        "type": "Point",
        "coordinates": [
          -81.3486808,
          27.4506224
        ]
      }
    },
    {
      "type": "Feature",
      "properties": {
        "role": "corner",
        "id": "t2",
        "number": 2,
        "code": "2",
        "display": "Turn 2",
        "labels": {
          "numbered": "Turn 2"
        },
        "direction": "right",
        "scale": 6,
        "marker": 0.12791
      },
      "geometry": {
        "type": "Point",
        "coordinates": [
          -81.3487961,
          27.4528697
        ]
      }
    },
    {
      "type": "Feature",
      "properties": {
        "role": "corner",
        "id": "t3",
        "number": 3,
        "code": "3",
        "display": "Turn 3",
        "labels": {
          "numbered": "Turn 3"
        },
        "direction": "left",
        "scale": 4,
        "marker": 0.16297
      },
      "geometry": {
        "type": "Point",
        "coordinates": [
          -81.3492034,
          27.4545773
        ]
      }
    },
    {
      "type": "Feature",
      "properties": {
        "role": "corner",
        "id": "t4",
        "number": 4,
        "code": "4",
        "display": "Turn 4",
        "labels": {
          "numbered": "Turn 4"
        },
        "direction": "right",
        "scale": 5,
        "marker": 0.16998
      },
      "geometry": {
        "type": "Point",
        "coordinates": [
          -81.3496176,
          27.4545851
        ]
      }
    },
    {
      "type": "Feature",
      "properties": {
        "role": "corner",
        "id": "t5",
        "number": 5,
        "code": "5",
        "display": "Turn 5",
        "labels": {
          "numbered": "Turn 5"
        },
        "direction": "left",
        "scale": 2,
        "marker": 0.19239
      },
      "geometry": {
        "type": "Point",
        "coordinates": [
          -81.350807,
          27.454974
        ]
      }
    },
    {
      "type": "Feature",
      "properties": {
        "role": "corner",
        "id": "t6",
        "number": 6,
        "code": "6",
        "display": "Big Bend",
        "labels": {
          "numbered": "Turn 6",
          "driver": "Big Bend",
          "official": "Gurney Bend"
        },
        "direction": "right",
        "scale": 5,
        "marker": 0.26183
      },
      "geometry": {
        "type": "Point",
        "coordinates": [
          -81.3537698,
          27.4526811
        ]
      }
    },
    {
      "type": "Feature",
      "properties": {
        "role": "corner",
        "id": "t7",
        "number": 7,
        "code": "7",
        "display": "Hairpin",
        "labels": {
          "numbered": "Turn 7",
          "driver": "Hairpin",
          "official": "Hairpin"
        },
        "direction": "right",
        "scale": 1,
        "marker": 0.33794
      },
      "geometry": {
        "type": "Point",
        "coordinates": [
          -81.3582328,
          27.4527198
        ]
      }
    },
    {
      "type": "Feature",
      "properties": {
        "role": "corner",
        "id": "t8",
        "number": 8,
        "code": "8",
        "display": "Fangio",
        "labels": {
          "numbered": "Turn 8",
          "official": "Fangio",
          "driver": "Fangio"
        },
        "direction": "right",
        "scale": 6,
        "marker": 0.37951
      },
      "geometry": {
        "type": "Point",
        "coordinates": [
          -81.3570305,
          27.4545029
        ]
      }
    },
    {
      "type": "Feature",
      "properties": {
        "role": "corner",
        "id": "t9",
        "number": 9,
        "code": "9",
        "display": "Turn 9",
        "labels": {
          "numbered": "Turn 9"
        },
        "direction": "left",
        "scale": 6,
        "marker": 0.41577
      },
      "geometry": {
        "type": "Point",
        "coordinates": [
          -81.3550448,
          27.4552112
        ]
      }
    },
    {
      "type": "Feature",
      "properties": {
        "role": "corner",
        "id": "t10",
        "number": 10,
        "code": "10",
        "display": "Cunningham",
        "labels": {
          "numbered": "Turn 10",
          "official": "Cunningham Corner",
          "driver": "Cunningham"
        },
        "direction": "right",
        "scale": 3,
        "marker": 0.47358
      },
      "geometry": {
        "type": "Point",
        "coordinates": [
          -81.3525416,
          27.4572439
        ]
      }
    },
    {
      "type": "Feature",
      "properties": {
        "role": "corner",
        "id": "t11",
        "number": 11,
        "code": "11",
        "display": "Collier",
        "labels": {
          "numbered": "Turn 11",
          "driver": "Collier",
          "official": "Collier Curve"
        },
        "direction": "left",
        "scale": 4,
        "marker": 0.50522
      },
      "geometry": {
        "type": "Point",
        "coordinates": [
          -81.3510137,
          27.4564073
        ]
      }
    },
    {
      "type": "Feature",
      "properties": {
        "role": "corner",
        "id": "t12",
        "number": 12,
        "code": "12",
        "display": "Turn 12",
        "labels": {
          "numbered": "Turn 12"
        },
        "direction": "right",
        "scale": 5,
        "marker": 0.53173
      },
      "geometry": {
        "type": "Point",
        "coordinates": [
          -81.349555,
          27.4568832
        ]
      }
    },
    {
      "type": "Feature",
      "properties": {
        "role": "corner",
        "id": "t13",
        "number": 13,
        "code": "13",
        "display": "Tower Turn",
        "labels": {
          "numbered": "Turn 13",
          "driver": "Tower Turn",
          "official": "Tower Turn"
        },
        "direction": "right",
        "scale": 4,
        "marker": 0.55876
      },
      "geometry": {
        "type": "Point",
        "coordinates": [
          -81.34799,
          27.4567994
        ]
      }
    },
    {
      "type": "Feature",
      "properties": {
        "role": "corner",
        "id": "t14",
        "number": 14,
        "code": "14",
        "display": "Bishop Bend",
        "labels": {
          "numbered": "Turn 14",
          "driver": "Bishop Bend",
          "official": "Bishop Bend"
        },
        "direction": "left",
        "scale": 4,
        "marker": 0.63076
      },
      "geometry": {
        "type": "Point",
        "coordinates": [
          -81.3479399,
          27.4530257
        ]
      }
    },
    {
      "type": "Feature",
      "properties": {
        "role": "corner",
        "id": "t15",
        "number": 15,
        "code": "15",
        "display": "Gendebien",
        "labels": {
          "numbered": "Turn 15",
          "official": "Gendebien Bend",
          "driver": "Gendebien"
        },
        "direction": "right",
        "scale": 4,
        "marker": 0.68669
      },
      "geometry": {
        "type": "Point",
        "coordinates": [
          -81.3461789,
          27.4506055
        ]
      }
    },
    {
      "type": "Feature",
      "properties": {
        "role": "corner",
        "id": "t16",
        "number": 16,
        "code": "16",
        "display": "Le Mans",
        "labels": {
          "numbered": "Turn 16",
          "driver": "Le Mans",
          "official": "Le Mans Curve"
        },
        "direction": "right",
        "scale": 4,
        "marker": 0.7274
      },
      "geometry": {
        "type": "Point",
        "coordinates": [
          -81.3467655,
          27.448569
        ]
      }
    },
    {
      "type": "Feature",
      "properties": {
        "role": "corner",
        "id": "t17",
        "number": 17,
        "code": "17",
        "display": "Sunset Bend",
        "labels": {
          "numbered": "Turn 17",
          "driver": "Sunset Bend",
          "official": "Sunset Bend"
        },
        "direction": "right",
        "scale": 4,
        "marker": 0.92427
      },
      "geometry": {
        "type": "Point",
        "coordinates": [
          -81.3576062,
          27.4494252
        ]
      }
    }
  ]
}