{
  "type": "FeatureCollection",
  "features": [
    {
      "type": "Feature",
      "properties": {
        "role": "outline",
        "layout": "gp",
        "basis": "midline"
      },
      "geometry": {
        "type": "LineString",
        "coordinates": [
          [
            -76.9288499,
            42.3409777
          ],
          [
            -76.9288382,
            42.3411201
          ],
          [
            -76.9288289,
            42.3412459
          ],
          [
            -76.9288196,
            42.3413717
          ],
          [
            -76.9288081,
            42.3414975
          ],
          [
            -76.9287966,
            42.3416232
          ],
          [
            -76.9287841,
            42.3417715
          ],
          [
            -76.9287715,
            42.3419197
          ],
          [
            -76.9287542,
            42.3420993
          ],
          [
            -76.9287455,
            42.3422071
          ],
          [
            -76.9287367,
            42.3423149
          ],
          [
            -76.9287272,
            42.3424182
          ],
          [
            -76.9287177,
            42.3425215
          ],
          [
            -76.9287066,
            42.3426533
          ],
          [
            -76.9286954,
            42.342785
          ],
          [
            -76.9286842,
            42.3429168
          ],
          [
            -76.9286712,
            42.3430515
          ],
          [
            -76.9286582,
            42.3431862
          ],
          [
            -76.9286426,
            42.3433297
          ],
          [
            -76.928627,
            42.3434733
          ],
          [
            -76.9286173,
            42.3435991
          ],
          [
            -76.9286039,
            42.3437338
          ],
          [
            -76.9285905,
            42.3438684
          ],
          [
            -76.9285831,
            42.3439583
          ],
          [
            -76.9285783,
            42.343985
          ],
          [
            -76.9285706,
            42.3440114
          ],
          [
            -76.9285592,
            42.3440371
          ],
          [
            -76.9285448,
            42.3440619
          ],
          [
            -76.9285277,
            42.3440857
          ],
          [
            -76.9285078,
            42.3441083
          ],
          [
            -76.9284781,
            42.3441368
          ],
          [
            -76.9284533,
            42.3441566
          ],
          [
            -76.9284357,
            42.344169
          ],
          [
            -76.9284078,
            42.3441863
          ],
          [
            -76.9283784,
            42.3442023
          ],
          [
            -76.9283478,
            42.3442169
          ],
          [
            -76.9283266,
            42.3442256
          ],
          [
            -76.9282938,
            42.3442374
          ],
          [
            -76.9282603,
            42.3442478
          ],
          [
            -76.9282373,
            42.3442537
          ],
          [
            -76.928214,
            42.3442587
          ],
          [
            -76.9281903,
            42.3442626
          ],
          [
            -76.9281664,
            42.3442656
          ],
          [
            -76.9281423,
            42.3442675
          ],
          [
            -76.9280939,
            42.34427
          ],
          [
            -76.9280575,
            42.3442708
          ],
          [
            -76.9280211,
            42.3442702
          ],
          [
            -76.9279969,
            42.3442688
          ],
          [
            -76.9279608,
            42.3442655
          ],
          [
            -76.9278649,
            42.3442544
          ],
          [
            -76.9277328,
            42.3442404
          ],
          [
            -76.927697,
            42.3442354
          ],
          [
            -76.9275187,
            42.3442081
          ],
          [
            -76.927447,
            42.3441989
          ],
          [
            -76.9273158,
            42.3441807
          ],
          [
            -76.9271711,
            42.3441688
          ],
          [
            -76.9270744,
            42.3441633
          ],
          [
            -76.9270262,
            42.3441587
          ],
          [
            -76.926919,
            42.3441431
          ],
          [
            -76.9268241,
            42.3441283
          ],
          [
            -76.9267057,
            42.3441086
          ],
          [
            -76.926658,
            42.344102
          ],
          [
            -76.9265381,
            42.344088
          ],
          [
            -76.9264071,
            42.3440691
          ],
          [
            -76.9262761,
            42.3440502
          ],
          [
            -76.9262406,
            42.3440444
          ],
          [
            -76.9262056,
            42.344037
          ],
          [
            -76.9259973,
            42.3439883
          ],
          [
            -76.925789,
            42.3439396
          ],
          [
            -76.9257536,
            42.3439332
          ],
          [
            -76.9256344,
            42.3439165
          ],
          [
            -76.9254917,
            42.343895
          ],
          [
            -76.9254558,
            42.3438906
          ],
          [
            -76.9254196,
            42.3438877
          ],
          [
            -76.9253591,
            42.3438849
          ],
          [
            -76.9253227,
            42.3438843
          ],
          [
            -76.9252742,
            42.343886
          ],
          [
            -76.9251778,
            42.3438943
          ],
          [
            -76.9251414,
            42.3438954
          ],
          [
            -76.925105,
            42.3438945
          ],
          [
            -76.9250689,
            42.3438912
          ],
          [
            -76.9250451,
            42.3438876
          ],
          [
            -76.9250102,
            42.3438801
          ],
          [
            -76.9249646,
            42.3438678
          ],
          [
            -76.924886,
            42.343844
          ],
          [
            -76.9247536,
            42.3437989
          ],
          [
            -76.9247101,
            42.343783
          ],
          [
            -76.924646,
            42.3437575
          ],
          [
            -76.9245934,
            42.343735
          ],
          [
            -76.9244902,
            42.3436877
          ],
          [
            -76.9244704,
            42.3436772
          ],
          [
            -76.9244045,
            42.3436375
          ],
          [
            -76.9243765,
            42.3436202
          ],
          [
            -76.9243497,
            42.343602
          ],
          [
            -76.924265,
            42.3435375
          ],
          [
            -76.9241353,
            42.3434428
          ],
          [
            -76.9240853,
            42.3434036
          ],
          [
            -76.9240463,
            42.3433691
          ],
          [
            -76.9240101,
            42.343333
          ],
          [
            -76.9239622,
            42.3432809
          ],
          [
            -76.9239234,
            42.3432352
          ],
          [
            -76.9238745,
            42.343173
          ],
          [
            -76.9238341,
            42.3431176
          ],
          [
            -76.9237968,
            42.343061
          ],
          [
            -76.923752,
            42.3429871
          ],
          [
            -76.923719,
            42.342929
          ],
          [
            -76.9236976,
            42.3428869
          ],
          [
            -76.9236504,
            42.3427847
          ],
          [
            -76.9236132,
            42.3426991
          ],
          [
            -76.9236051,
            42.3426727
          ],
          [
            -76.9235946,
            42.3426193
          ],
          [
            -76.9235748,
            42.3425305
          ],
          [
            -76.9235676,
            42.3424949
          ],
          [
            -76.9235397,
            42.3423251
          ],
          [
            -76.9235274,
            42.3422355
          ],
          [
            -76.9235053,
            42.3420562
          ],
          [
            -76.9234972,
            42.3420116
          ],
          [
            -76.9234858,
            42.3419583
          ],
          [
            -76.9234753,
            42.341914
          ],
          [
            -76.9234656,
            42.3418787
          ],
          [
            -76.9234513,
            42.3418349
          ],
          [
            -76.9234376,
            42.3418004
          ],
          [
            -76.9234034,
            42.3417235
          ],
          [
            -76.9233786,
            42.3416727
          ],
          [
            -76.9233471,
            42.3416142
          ],
          [
            -76.9233183,
            42.3415646
          ],
          [
            -76.9232826,
            42.3415074
          ],
          [
            -76.9232501,
            42.3414591
          ],
          [
            -76.9232092,
            42.3414039
          ],
          [
            -76.9231651,
            42.34135
          ],
          [
            -76.9231124,
            42.3412895
          ],
          [
            -76.923057,
            42.3412304
          ],
          [
            -76.9230059,
            42.3411801
          ],
          [
            -76.9229523,
            42.3411312
          ],
          [
            -76.9228891,
            42.3410765
          ],
          [
            -76.9228232,
            42.3410236
          ],
          [
            -76.9227554,
            42.3409721
          ],
          [
            -76.9226934,
            42.340929
          ],
          [
            -76.922638,
            42.340894
          ],
          [
            -76.922451,
            42.3407793
          ],
          [
            -76.9223799,
            42.3407303
          ],
          [
            -76.9223346,
            42.3407003
          ],
          [
            -76.9223066,
            42.3406831
          ],
          [
            -76.92222,
            42.3406337
          ],
          [
            -76.922146,
            42.3405871
          ],
          [
            -76.9221006,
            42.3405573
          ],
          [
            -76.9219829,
            42.3404937
          ],
          [
            -76.9219351,
            42.340466
          ],
          [
            -76.9218889,
            42.3404368
          ],
          [
            -76.9218359,
            42.3403998
          ],
          [
            -76.9217762,
            42.340355
          ],
          [
            -76.9217185,
            42.3403087
          ],
          [
            -76.9216382,
            42.3402413
          ],
          [
            -76.9215759,
            42.340186
          ],
          [
            -76.9215154,
            42.3401297
          ],
          [
            -76.9214568,
            42.3400723
          ],
          [
            -76.9214001,
            42.3400139
          ],
          [
            -76.921338,
            42.3399472
          ],
          [
            -76.9212716,
            42.3398719
          ],
          [
            -76.9212149,
            42.3398027
          ],
          [
            -76.921156,
            42.3397239
          ],
          [
            -76.9210828,
            42.3396203
          ],
          [
            -76.9210345,
            42.3395476
          ],
          [
            -76.9209945,
            42.339482
          ],
          [
            -76.920962,
            42.3394238
          ],
          [
            -76.9209093,
            42.3393231
          ],
          [
            -76.9208654,
            42.3392296
          ],
          [
            -76.9208356,
            42.3391611
          ],
          [
            -76.9208019,
            42.3390746
          ],
          [
            -76.9207748,
            42.3389961
          ],
          [
            -76.9207535,
            42.3389258
          ],
          [
            -76.9207311,
            42.3388374
          ],
          [
            -76.9207093,
            42.3387397
          ],
          [
            -76.920692,
            42.3386415
          ],
          [
            -76.9206876,
            42.3386056
          ],
          [
            -76.9206782,
            42.3384618
          ],
          [
            -76.9206707,
            42.33839
          ],
          [
            -76.9206608,
            42.3382461
          ],
          [
            -76.9206589,
            42.3381921
          ],
          [
            -76.9206577,
            42.3380841
          ],
          [
            -76.9206547,
            42.3379761
          ],
          [
            -76.9206496,
            42.3378547
          ],
          [
            -76.9206446,
            42.3377332
          ],
          [
            -76.9206354,
            42.3375538
          ],
          [
            -76.9206263,
            42.3373743
          ],
          [
            -76.9206172,
            42.3371949
          ],
          [
            -76.920608,
            42.3370155
          ],
          [
            -76.9205989,
            42.336836
          ],
          [
            -76.9205897,
            42.3366566
          ],
          [
            -76.9205806,
            42.3364771
          ],
          [
            -76.9205715,
            42.3362977
          ],
          [
            -76.9205623,
            42.3361183
          ],
          [
            -76.9205532,
            42.3359388
          ],
          [
            -76.920544,
            42.3357594
          ],
          [
            -76.9205349,
            42.33558
          ],
          [
            -76.9205258,
            42.3354005
          ],
          [
            -76.9205166,
            42.3352211
          ],
          [
            -76.9205075,
            42.3350417
          ],
          [
            -76.9204983,
            42.3348622
          ],
          [
            -76.9204892,
            42.3346828
          ],
          [
            -76.9204801,
            42.3345034
          ],
          [
            -76.9204709,
            42.3343239
          ],
          [
            -76.9204626,
            42.334153
          ],
          [
            -76.9204542,
            42.3339821
          ],
          [
            -76.9204459,
            42.3338382
          ],
          [
            -76.9204424,
            42.3337482
          ],
          [
            -76.9204425,
            42.3337122
          ],
          [
            -76.9204464,
            42.3336583
          ],
          [
            -76.9204524,
            42.3336225
          ],
          [
            -76.9204569,
            42.3336049
          ],
          [
            -76.9204628,
            42.3335874
          ],
          [
            -76.9204705,
            42.3335703
          ],
          [
            -76.9204799,
            42.3335537
          ],
          [
            -76.9204853,
            42.3335457
          ],
          [
            -76.9205361,
            42.333474
          ],
          [
            -76.9205489,
            42.3334587
          ],
          [
            -76.920563,
            42.333444
          ],
          [
            -76.9205939,
            42.3334162
          ],
          [
            -76.9206349,
            42.3333831
          ],
          [
            -76.9206695,
            42.3333578
          ],
          [
            -76.9207234,
            42.3333216
          ],
          [
            -76.920749,
            42.3333024
          ],
          [
            -76.9207569,
            42.3332956
          ],
          [
            -76.9207722,
            42.3332816
          ],
          [
            -76.9207794,
            42.3332744
          ],
          [
            -76.9207864,
            42.333267
          ],
          [
            -76.9207994,
            42.3332518
          ],
          [
            -76.9208113,
            42.3332361
          ],
          [
            -76.9208218,
            42.3332199
          ],
          [
            -76.9208265,
            42.3332116
          ],
          [
            -76.9208392,
            42.3331863
          ],
          [
            -76.9208466,
            42.3331692
          ],
          [
            -76.9208497,
            42.3331605
          ],
          [
            -76.9208522,
            42.3331517
          ],
          [
            -76.9208541,
            42.3331428
          ],
          [
            -76.9208564,
            42.3331249
          ],
          [
            -76.9208573,
            42.3331069
          ],
          [
            -76.920857,
            42.3330799
          ],
          [
            -76.9208487,
            42.3328999
          ],
          [
            -76.9208455,
            42.33281
          ],
          [
            -76.9208418,
            42.332738
          ],
          [
            -76.9208381,
            42.332621
          ],
          [
            -76.9208376,
            42.332612
          ],
          [
            -76.9208343,
            42.3325761
          ],
          [
            -76.9208295,
            42.3325403
          ],
          [
            -76.9208261,
            42.3325224
          ],
          [
            -76.9208238,
            42.3325136
          ],
          [
            -76.920821,
            42.3325048
          ],
          [
            -76.9208176,
            42.3324962
          ],
          [
            -76.9208134,
            42.3324878
          ],
          [
            -76.9208087,
            42.3324795
          ],
          [
            -76.9208031,
            42.3324715
          ],
          [
            -76.9207966,
            42.3324639
          ],
          [
            -76.9207897,
            42.3324565
          ],
          [
            -76.9207823,
            42.3324494
          ],
          [
            -76.9207425,
            42.3324154
          ],
          [
            -76.9206686,
            42.3323558
          ],
          [
            -76.9206606,
            42.3323491
          ],
          [
            -76.9205909,
            42.3322866
          ],
          [
            -76.9205614,
            42.3322581
          ],
          [
            -76.9205331,
            42.3322288
          ],
          [
            -76.9205132,
            42.3322062
          ],
          [
            -76.9204884,
            42.3321752
          ],
          [
            -76.9204652,
            42.3321436
          ],
          [
            -76.9204442,
            42.3321112
          ],
          [
            -76.92043,
            42.3320863
          ],
          [
            -76.9204135,
            42.3320525
          ],
          [
            -76.9203992,
            42.3320181
          ],
          [
            -76.9203872,
            42.3319832
          ],
          [
            -76.9203774,
            42.3319479
          ],
          [
            -76.9203669,
            42.3319036
          ],
          [
            -76.9203651,
            42.3318947
          ],
          [
            -76.9203592,
            42.331859
          ],
          [
            -76.920358,
            42.33185
          ],
          [
            -76.9203498,
            42.3317602
          ],
          [
            -76.9203438,
            42.3317064
          ],
          [
            -76.9203431,
            42.3316974
          ],
          [
            -76.9203359,
            42.3315534
          ],
          [
            -76.9203332,
            42.3315175
          ],
          [
            -76.9203273,
            42.3314727
          ],
          [
            -76.9203171,
            42.3314101
          ],
          [
            -76.9203119,
            42.3313653
          ],
          [
            -76.9203082,
            42.3313023
          ],
          [
            -76.9203085,
            42.3312393
          ],
          [
            -76.9203103,
            42.3311944
          ],
          [
            -76.9203137,
            42.3311494
          ],
          [
            -76.9203192,
            42.3310956
          ],
          [
            -76.9203232,
            42.3310687
          ],
          [
            -76.9203254,
            42.3310599
          ],
          [
            -76.920328,
            42.3310511
          ],
          [
            -76.9203312,
            42.3310424
          ],
          [
            -76.9203449,
            42.3310079
          ],
          [
            -76.9203609,
            42.3309645
          ],
          [
            -76.9203767,
            42.3309304
          ],
          [
            -76.9203906,
            42.3309055
          ],
          [
            -76.920407,
            42.3308813
          ],
          [
            -76.9204197,
            42.330866
          ],
          [
            -76.9204268,
            42.3308587
          ],
          [
            -76.9204863,
            42.3308019
          ],
          [
            -76.9204933,
            42.3307945
          ],
          [
            -76.9205601,
            42.3307194
          ],
          [
            -76.9206098,
            42.3306683
          ],
          [
            -76.9206622,
            42.3306187
          ],
          [
            -76.9206854,
            42.3305979
          ],
          [
            -76.9207426,
            42.3305513
          ],
          [
            -76.9207764,
            42.3305254
          ],
          [
            -76.9208291,
            42.3304882
          ],
          [
            -76.9208747,
            42.3304585
          ],
          [
            -76.9209411,
            42.3304192
          ],
          [
            -76.9209997,
            42.3303872
          ],
          [
            -76.9210606,
            42.3303575
          ],
          [
            -76.921123,
            42.3303298
          ],
          [
            -76.9211766,
            42.3303087
          ],
          [
            -76.9212207,
            42.3302937
          ],
          [
            -76.9212319,
            42.3302902
          ],
          [
            -76.9212883,
            42.3302737
          ],
          [
            -76.9213572,
            42.3302562
          ],
          [
            -76.921427,
            42.3302409
          ],
          [
            -76.9214858,
            42.3302299
          ],
          [
            -76.9215572,
            42.3302192
          ],
          [
            -76.9216291,
            42.3302108
          ],
          [
            -76.9217014,
            42.3302046
          ],
          [
            -76.9217499,
            42.3302027
          ],
          [
            -76.9217984,
            42.3302026
          ],
          [
            -76.9218468,
            42.3302047
          ],
          [
            -76.9219192,
            42.3302109
          ],
          [
            -76.9219792,
            42.3302173
          ],
          [
            -76.9221705,
            42.3302417
          ],
          [
            -76.9222301,
            42.33025
          ],
          [
            -76.9222891,
            42.3302606
          ],
          [
            -76.922324,
            42.3302683
          ],
          [
            -76.9223469,
            42.3302742
          ],
          [
            -76.9223692,
            42.3302814
          ],
          [
            -76.9224347,
            42.3303048
          ],
          [
            -76.9224987,
            42.3303306
          ],
          [
            -76.9225404,
            42.330349
          ],
          [
            -76.9226727,
            42.3304128
          ],
          [
            -76.9227112,
            42.3304347
          ],
          [
            -76.9227655,
            42.3304706
          ],
          [
            -76.922784,
            42.3304823
          ],
          [
            -76.9227935,
            42.3304879
          ],
          [
            -76.9228433,
            42.3305136
          ],
          [
            -76.9228623,
            42.3305248
          ],
          [
            -76.9228798,
            42.3305372
          ],
          [
            -76.9228962,
            42.3305505
          ],
          [
            -76.9230039,
            42.3306479
          ],
          [
            -76.9230257,
            42.3306695
          ],
          [
            -76.9230388,
            42.3306847
          ],
          [
            -76.9230811,
            42.3307394
          ],
          [
            -76.9231128,
            42.3307777
          ],
          [
            -76.923198,
            42.3308653
          ],
          [
            -76.9232136,
            42.3308791
          ],
          [
            -76.9232389,
            42.3308985
          ],
          [
            -76.9232655,
            42.3309169
          ],
          [
            -76.9233023,
            42.3309404
          ],
          [
            -76.9233198,
            42.3309529
          ],
          [
            -76.9233443,
            42.3309729
          ],
          [
            -76.9233829,
            42.3310076
          ],
          [
            -76.9234645,
            42.3310859
          ],
          [
            -76.9235503,
            42.3311732
          ],
          [
            -76.923681,
            42.331303
          ],
          [
            -76.9237897,
            42.3314076
          ],
          [
            -76.9238984,
            42.3315121
          ],
          [
            -76.924007,
            42.3316167
          ],
          [
            -76.924097,
            42.3317016
          ],
          [
            -76.9241432,
            42.3317434
          ],
          [
            -76.9242256,
            42.3318154
          ],
          [
            -76.9243081,
            42.3318874
          ],
          [
            -76.9243621,
            42.3319361
          ],
          [
            -76.9244567,
            42.332024
          ],
          [
            -76.9245512,
            42.332112
          ],
          [
            -76.9246103,
            42.3321692
          ],
          [
            -76.9246897,
            42.3322488
          ],
          [
            -76.9247433,
            42.3322977
          ],
          [
            -76.9247835,
            42.3323313
          ],
          [
            -76.9248258,
            42.3323636
          ],
          [
            -76.9248615,
            42.332388
          ],
          [
            -76.9249168,
            42.3324232
          ],
          [
            -76.9249455,
            42.3324397
          ],
          [
            -76.9249752,
            42.3324553
          ],
          [
            -76.9250059,
            42.3324699
          ],
          [
            -76.9250269,
            42.3324788
          ],
          [
            -76.9250593,
            42.3324912
          ],
          [
            -76.9250923,
            42.3325026
          ],
          [
            -76.9251257,
            42.3325133
          ],
          [
            -76.925171,
            42.3325263
          ],
          [
            -76.9252054,
            42.332535
          ],
          [
            -76.9252403,
            42.3325428
          ],
          [
            -76.9253111,
            42.3325551
          ],
          [
            -76.9253829,
            42.3325644
          ],
          [
            -76.925419,
            42.3325677
          ],
          [
            -76.9254552,
            42.33257
          ],
          [
            -76.9255037,
            42.3325707
          ],
          [
            -76.9255521,
            42.3325678
          ],
          [
            -76.9255999,
            42.3325618
          ],
          [
            -76.925671,
            42.3325499
          ],
          [
            -76.9257526,
            42.3325325
          ],
          [
            -76.9258216,
            42.3325153
          ],
          [
            -76.9259121,
            42.3324893
          ],
          [
            -76.9259561,
            42.3324741
          ],
          [
            -76.9259773,
            42.3324653
          ],
          [
            -76.9259976,
            42.3324555
          ],
          [
            -76.9260369,
            42.3324344
          ],
          [
            -76.9260935,
            42.3324004
          ],
          [
            -76.9261381,
            42.3323699
          ],
          [
            -76.92618,
            42.3323374
          ],
          [
            -76.926219,
            42.3323029
          ],
          [
            -76.9262551,
            42.3322667
          ],
          [
            -76.9262816,
            42.3322365
          ],
          [
            -76.9263116,
            42.3321974
          ],
          [
            -76.9263327,
            42.332165
          ],
          [
            -76.9263554,
            42.3321233
          ],
          [
            -76.9263793,
            42.3320722
          ],
          [
            -76.926395,
            42.3320288
          ],
          [
            -76.9264078,
            42.3319848
          ],
          [
            -76.9264172,
            42.3319403
          ],
          [
            -76.9264218,
            42.3319045
          ],
          [
            -76.9264226,
            42.3318775
          ],
          [
            -76.9264201,
            42.3318325
          ],
          [
            -76.9264095,
            42.3317067
          ],
          [
            -76.926399,
            42.331581
          ],
          [
            -76.9263884,
            42.3314552
          ],
          [
            -76.9263856,
            42.3314012
          ],
          [
            -76.9263859,
            42.3313472
          ],
          [
            -76.92638,
            42.3313024
          ],
          [
            -76.9263692,
            42.3312037
          ],
          [
            -76.9263614,
            42.3310328
          ],
          [
            -76.9263506,
            42.3308619
          ],
          [
            -76.9263474,
            42.33079
          ],
          [
            -76.9263398,
            42.3306911
          ],
          [
            -76.926333,
            42.3305787
          ],
          [
            -76.9263262,
            42.3304663
          ],
          [
            -76.9263138,
            42.3302865
          ],
          [
            -76.926305,
            42.3301426
          ],
          [
            -76.9262978,
            42.3300527
          ],
          [
            -76.9262855,
            42.3299632
          ],
          [
            -76.9262833,
            42.3299362
          ],
          [
            -76.9262778,
            42.3298103
          ],
          [
            -76.9262723,
            42.3296843
          ],
          [
            -76.9262666,
            42.3295764
          ],
          [
            -76.9262601,
            42.3294775
          ],
          [
            -76.9262482,
            42.3293247
          ],
          [
            -76.9262419,
            42.3292213
          ],
          [
            -76.9262356,
            42.3291179
          ],
          [
            -76.9262309,
            42.3290549
          ],
          [
            -76.9262307,
            42.3290189
          ],
          [
            -76.9262322,
            42.328992
          ],
          [
            -76.9262356,
            42.3289651
          ],
          [
            -76.9262429,
            42.3289295
          ],
          [
            -76.9262552,
            42.3288854
          ],
          [
            -76.9262713,
            42.328842
          ],
          [
            -76.9262916,
            42.3287996
          ],
          [
            -76.9263059,
            42.3287748
          ],
          [
            -76.9263164,
            42.3287585
          ],
          [
            -76.9263335,
            42.3287347
          ],
          [
            -76.9263458,
            42.3287192
          ],
          [
            -76.9263589,
            42.328704
          ],
          [
            -76.9263799,
            42.328682
          ],
          [
            -76.926418,
            42.328647
          ],
          [
            -76.9264598,
            42.3286143
          ],
          [
            -76.9264866,
            42.3285961
          ],
          [
            -76.9265051,
            42.3285845
          ],
          [
            -76.926544,
            42.3285629
          ],
          [
            -76.9265644,
            42.3285531
          ],
          [
            -76.9265958,
            42.3285395
          ],
          [
            -76.92665,
            42.3285193
          ],
          [
            -76.926706,
            42.328502
          ],
          [
            -76.9267522,
            42.328491
          ],
          [
            -76.9267874,
            42.3284842
          ],
          [
            -76.926823,
            42.3284785
          ],
          [
            -76.9268829,
            42.3284714
          ],
          [
            -76.9269313,
            42.3284683
          ],
          [
            -76.9269676,
            42.3284675
          ],
          [
            -76.927004,
            42.328468
          ],
          [
            -76.9270524,
            42.3284706
          ],
          [
            -76.9271006,
            42.3284752
          ],
          [
            -76.9271363,
            42.3284802
          ],
          [
            -76.9271717,
            42.3284865
          ],
          [
            -76.9272067,
            42.3284939
          ],
          [
            -76.9272297,
            42.3284996
          ],
          [
            -76.9272634,
            42.3285099
          ],
          [
            -76.9273071,
            42.3285256
          ],
          [
            -76.9273499,
            42.3285426
          ],
          [
            -76.9273812,
            42.3285564
          ],
          [
            -76.9274115,
            42.3285713
          ],
          [
            -76.9274407,
            42.3285874
          ],
          [
            -76.9274689,
            42.3286044
          ],
          [
            -76.927496,
            42.3286225
          ],
          [
            -76.9275308,
            42.3286476
          ],
          [
            -76.9275557,
            42.3286673
          ],
          [
            -76.9275792,
            42.3286879
          ],
          [
            -76.9276162,
            42.3287236
          ],
          [
            -76.9276446,
            42.3287528
          ],
          [
            -76.9276707,
            42.3287831
          ],
          [
            -76.9276952,
            42.3288142
          ],
          [
            -76.927718,
            42.328846
          ],
          [
            -76.9277443,
            42.3288865
          ],
          [
            -76.9277587,
            42.3289113
          ],
          [
            -76.927776,
            42.328945
          ],
          [
            -76.9277876,
            42.3289706
          ],
          [
            -76.9277978,
            42.3289965
          ],
          [
            -76.9278062,
            42.3290228
          ],
          [
            -76.9278208,
            42.3290757
          ],
          [
            -76.927829,
            42.3291112
          ],
          [
            -76.9278359,
            42.3291468
          ],
          [
            -76.9278629,
            42.3293076
          ],
          [
            -76.9278804,
            42.3294511
          ],
          [
            -76.9278814,
            42.32946
          ],
          [
            -76.9278878,
            42.3295409
          ],
          [
            -76.9279022,
            42.3296665
          ],
          [
            -76.9279045,
            42.3297205
          ],
          [
            -76.9279062,
            42.3297384
          ],
          [
            -76.9279182,
            42.3298099
          ],
          [
            -76.9279296,
            42.3299085
          ],
          [
            -76.9279409,
            42.3300072
          ],
          [
            -76.9279582,
            42.3301687
          ],
          [
            -76.9279757,
            42.3303483
          ],
          [
            -76.9279877,
            42.3304605
          ],
          [
            -76.9279997,
            42.3305726
          ],
          [
            -76.9280202,
            42.330752
          ],
          [
            -76.9280357,
            42.3308685
          ],
          [
            -76.9280455,
            42.3309582
          ],
          [
            -76.9280498,
            42.3310031
          ],
          [
            -76.9280573,
            42.331102
          ],
          [
            -76.9280775,
            42.3312754
          ],
          [
            -76.9280977,
            42.3314488
          ],
          [
            -76.9281178,
            42.3316222
          ],
          [
            -76.9281363,
            42.3318017
          ],
          [
            -76.9281529,
            42.3319474
          ],
          [
            -76.9281694,
            42.3320932
          ],
          [
            -76.928186,
            42.332239
          ],
          [
            -76.9282025,
            42.3323847
          ],
          [
            -76.9282217,
            42.3325642
          ],
          [
            -76.9282386,
            42.3326986
          ],
          [
            -76.9282512,
            42.3328153
          ],
          [
            -76.9282683,
            42.3329588
          ],
          [
            -76.9282798,
            42.3330755
          ],
          [
            -76.9282938,
            42.3331966
          ],
          [
            -76.9283078,
            42.3333176
          ],
          [
            -76.9283261,
            42.333461
          ],
          [
            -76.9283396,
            42.3335731
          ],
          [
            -76.9283531,
            42.3336852
          ],
          [
            -76.9283704,
            42.333806
          ],
          [
            -76.9283877,
            42.3339269
          ],
          [
            -76.9283893,
            42.3339448
          ],
          [
            -76.9283895,
            42.3339628
          ],
          [
            -76.9283881,
            42.3339808
          ],
          [
            -76.9283853,
            42.3339987
          ],
          [
            -76.9283791,
            42.3340253
          ],
          [
            -76.9283714,
            42.3340517
          ],
          [
            -76.9283622,
            42.3340778
          ],
          [
            -76.9283545,
            42.3340949
          ],
          [
            -76.9283456,
            42.3341116
          ],
          [
            -76.9283353,
            42.334128
          ],
          [
            -76.9283239,
            42.3341438
          ],
          [
            -76.928305,
            42.3341669
          ],
          [
            -76.9282911,
            42.3341817
          ],
          [
            -76.9282689,
            42.3342031
          ],
          [
            -76.9282455,
            42.3342238
          ],
          [
            -76.928229,
            42.334237
          ],
          [
            -76.9281614,
            42.3342886
          ],
          [
            -76.9281435,
            42.3343008
          ],
          [
            -76.9281246,
            42.3343121
          ],
          [
            -76.9281048,
            42.3343225
          ],
          [
            -76.9280739,
            42.3343367
          ],
          [
            -76.9280416,
            42.3343492
          ],
          [
            -76.9280194,
            42.3343565
          ],
          [
            -76.9279968,
            42.3343629
          ],
          [
            -76.9279621,
            42.3343711
          ],
          [
            -76.9279152,
            42.3343804
          ],
          [
            -76.9278797,
            42.3343862
          ],
          [
            -76.9278198,
            42.3343935
          ],
          [
            -76.9277473,
            42.3343985
          ],
          [
            -76.9277109,
            42.3343993
          ],
          [
            -76.9276745,
            42.334399
          ],
          [
            -76.927626,
            42.3343978
          ],
          [
            -76.9275897,
            42.334396
          ],
          [
            -76.9275535,
            42.3343934
          ],
          [
            -76.9275174,
            42.3343898
          ],
          [
            -76.9274816,
            42.3343851
          ],
          [
            -76.927446,
            42.3343794
          ],
          [
            -76.9273757,
            42.3343653
          ],
          [
            -76.9273411,
            42.3343571
          ],
          [
            -76.9273069,
            42.3343479
          ],
          [
            -76.9272623,
            42.3343336
          ],
          [
            -76.9271862,
            42.3343057
          ],
          [
            -76.9271532,
            42.3342943
          ],
          [
            -76.9271194,
            42.3342842
          ],
          [
            -76.9270507,
            42.3342663
          ],
          [
            -76.927017,
            42.3342562
          ],
          [
            -76.9269949,
            42.3342488
          ],
          [
            -76.9269628,
            42.3342361
          ],
          [
            -76.9269423,
            42.3342264
          ],
          [
            -76.9269325,
            42.3342211
          ],
          [
            -76.9268461,
            42.3341716
          ],
          [
            -76.9267773,
            42.3341347
          ],
          [
            -76.9267671,
            42.3341298
          ],
          [
            -76.9266522,
            42.3340795
          ],
          [
            -76.9265589,
            42.3340373
          ],
          [
            -76.9264425,
            42.3339889
          ],
          [
            -76.9263559,
            42.3339564
          ],
          [
            -76.9262077,
            42.3339046
          ],
          [
            -76.9260596,
            42.3338527
          ],
          [
            -76.9259339,
            42.3338078
          ],
          [
            -76.9258081,
            42.333763
          ],
          [
            -76.925665,
            42.3337138
          ],
          [
            -76.9254681,
            42.3336436
          ],
          [
            -76.9252713,
            42.3335734
          ],
          [
            -76.9252388,
            42.3335613
          ],
          [
            -76.9251856,
            42.3335397
          ],
          [
            -76.925164,
            42.3335314
          ],
          [
            -76.9251307,
            42.3335205
          ],
          [
            -76.9250853,
            42.3335078
          ],
          [
            -76.9250506,
            42.3334999
          ],
          [
            -76.9250153,
            42.3334933
          ],
          [
            -76.9249796,
            42.3334879
          ],
          [
            -76.9249437,
            42.3334837
          ],
          [
            -76.9249074,
            42.333481
          ],
          [
            -76.924859,
            42.3334793
          ],
          [
            -76.9248226,
            42.3334794
          ],
          [
            -76.9247984,
            42.3334805
          ],
          [
            -76.9247623,
            42.333484
          ],
          [
            -76.9247145,
            42.3334904
          ],
          [
            -76.9246789,
            42.333496
          ],
          [
            -76.924632,
            42.3335053
          ],
          [
            -76.9245973,
            42.3335134
          ],
          [
            -76.9245747,
            42.3335199
          ],
          [
            -76.9245525,
            42.3335272
          ],
          [
            -76.9245201,
            42.3335395
          ],
          [
            -76.924478,
            42.3335574
          ],
          [
            -76.9244472,
            42.3335717
          ],
          [
            -76.9244177,
            42.3335875
          ],
          [
            -76.9243703,
            42.3336157
          ],
          [
            -76.9243427,
            42.3336333
          ],
          [
            -76.9243252,
            42.3336457
          ],
          [
            -76.9243003,
            42.3336654
          ],
          [
            -76.924269,
            42.3336929
          ],
          [
            -76.9242469,
            42.3337144
          ],
          [
            -76.9242261,
            42.3337365
          ],
          [
            -76.9242006,
            42.3337671
          ],
          [
            -76.9241831,
            42.3337908
          ],
          [
            -76.924167,
            42.333815
          ],
          [
            -76.9241476,
            42.3338481
          ],
          [
            -76.9241349,
            42.3338733
          ],
          [
            -76.9241277,
            42.3338905
          ],
          [
            -76.9241191,
            42.3339168
          ],
          [
            -76.9241124,
            42.3339433
          ],
          [
            -76.9241059,
            42.333979
          ],
          [
            -76.9241023,
            42.3340059
          ],
          [
            -76.9241019,
            42.3340239
          ],
          [
            -76.9241037,
            42.3340418
          ],
          [
            -76.9241053,
            42.3340507
          ],
          [
            -76.9241251,
            42.3341395
          ],
          [
            -76.9241378,
            42.3341927
          ],
          [
            -76.9241474,
            42.334228
          ],
          [
            -76.9241801,
            42.3343379
          ],
          [
            -76.9242128,
            42.3344478
          ],
          [
            -76.9242348,
            42.3345271
          ],
          [
            -76.9242378,
            42.3345358
          ],
          [
            -76.9242669,
            42.3346139
          ],
          [
            -76.9242791,
            42.3346488
          ],
          [
            -76.9243225,
            42.3347984
          ],
          [
            -76.9243364,
            42.3348514
          ],
          [
            -76.9243596,
            42.334958
          ],
          [
            -76.9243751,
            42.33502
          ],
          [
            -76.924384,
            42.3350462
          ],
          [
            -76.924398,
            42.3350806
          ],
          [
            -76.9244327,
            42.3351574
          ],
          [
            -76.924436,
            42.3351661
          ],
          [
            -76.9244439,
            42.3351925
          ],
          [
            -76.9244602,
            42.3352543
          ],
          [
            -76.9244632,
            42.335263
          ],
          [
            -76.9244848,
            42.3353146
          ],
          [
            -76.9245002,
            42.3353581
          ],
          [
            -76.9245028,
            42.3353669
          ],
          [
            -76.9245096,
            42.3353934
          ],
          [
            -76.9245114,
            42.3354023
          ],
          [
            -76.9245157,
            42.3354292
          ],
          [
            -76.9245193,
            42.335447
          ],
          [
            -76.9245319,
            42.335491
          ],
          [
            -76.924556,
            42.3355792
          ],
          [
            -76.9245928,
            42.3357022
          ],
          [
            -76.9246294,
            42.335816
          ],
          [
            -76.924666,
            42.3359299
          ],
          [
            -76.9246757,
            42.3359652
          ],
          [
            -76.9246897,
            42.3360273
          ],
          [
            -76.9247019,
            42.3360714
          ],
          [
            -76.9247357,
            42.3361857
          ],
          [
            -76.9247737,
            42.3362993
          ],
          [
            -76.9247933,
            42.3363606
          ],
          [
            -76.9248082,
            42.3364135
          ],
          [
            -76.9248424,
            42.3365461
          ],
          [
            -76.9248554,
            42.33659
          ],
          [
            -76.9248675,
            42.3366249
          ],
          [
            -76.9248739,
            42.3366423
          ],
          [
            -76.9248849,
            42.336668
          ],
          [
            -76.9248891,
            42.3366765
          ],
          [
            -76.924912,
            42.3367181
          ],
          [
            -76.924922,
            42.3367345
          ],
          [
            -76.9249383,
            42.3367587
          ],
          [
            -76.9249741,
            42.3368057
          ],
          [
            -76.9249805,
            42.3368133
          ],
          [
            -76.9249941,
            42.3368283
          ],
          [
            -76.9250229,
            42.3368572
          ],
          [
            -76.9250573,
            42.3368943
          ],
          [
            -76.9250719,
            42.3369087
          ],
          [
            -76.9250797,
            42.3369156
          ],
          [
            -76.9251285,
            42.3369556
          ],
          [
            -76.9251709,
            42.3369878
          ],
          [
            -76.9251884,
            42.3370003
          ],
          [
            -76.9251976,
            42.3370062
          ],
          [
            -76.925207,
            42.3370118
          ],
          [
            -76.9252169,
            42.3370171
          ],
          [
            -76.9252375,
            42.3370265
          ],
          [
            -76.9252484,
            42.3370305
          ],
          [
            -76.9252708,
            42.3370372
          ],
          [
            -76.925317,
            42.3370484
          ],
          [
            -76.9253284,
            42.3370514
          ],
          [
            -76.9253396,
            42.3370549
          ],
          [
            -76.9253506,
            42.3370587
          ],
          [
            -76.9254585,
            42.3370999
          ],
          [
            -76.9255136,
            42.3371188
          ],
          [
            -76.9255247,
            42.3371223
          ],
          [
            -76.9255932,
            42.3371405
          ],
          [
            -76.9256629,
            42.3371562
          ],
          [
            -76.9257101,
            42.3371646
          ],
          [
            -76.9257219,
            42.3371664
          ],
          [
            -76.9257938,
            42.337175
          ],
          [
            -76.925842,
            42.3371791
          ],
          [
            -76.9259145,
            42.3371839
          ],
          [
            -76.9260961,
            42.3371928
          ],
          [
            -76.926181,
            42.3371959
          ],
          [
            -76.9263325,
            42.3372004
          ],
          [
            -76.926484,
            42.337205
          ],
          [
            -76.9266296,
            42.3372083
          ],
          [
            -76.9267144,
            42.3372113
          ],
          [
            -76.9268719,
            42.3372181
          ],
          [
            -76.9270293,
            42.337225
          ],
          [
            -76.927217,
            42.3372341
          ],
          [
            -76.9274046,
            42.3372431
          ],
          [
            -76.9276466,
            42.3372571
          ],
          [
            -76.9278403,
            42.3372664
          ],
          [
            -76.9280097,
            42.3372753
          ],
          [
            -76.9281792,
            42.3372841
          ],
          [
            -76.9283125,
            42.3372888
          ],
          [
            -76.9283486,
            42.337292
          ],
          [
            -76.9283846,
            42.3372961
          ],
          [
            -76.9284204,
            42.3373011
          ],
          [
            -76.9284558,
            42.3373071
          ],
          [
            -76.9285026,
            42.3373166
          ],
          [
            -76.9285368,
            42.3373258
          ],
          [
            -76.9285701,
            42.3373368
          ],
          [
            -76.928613,
            42.3373535
          ],
          [
            -76.9286545,
            42.3373722
          ],
          [
            -76.9286845,
            42.3373875
          ],
          [
            -76.9287229,
            42.3374096
          ],
          [
            -76.928769,
            42.3374387
          ],
          [
            -76.9288041,
            42.3374637
          ],
          [
            -76.9288372,
            42.33749
          ],
          [
            -76.9288683,
            42.3375176
          ],
          [
            -76.9288979,
            42.3375462
          ],
          [
            -76.9289266,
            42.3375752
          ],
          [
            -76.9289535,
            42.3376052
          ],
          [
            -76.9289785,
            42.337636
          ],
          [
            -76.9290015,
            42.3376677
          ],
          [
            -76.9290266,
            42.3377087
          ],
          [
            -76.9290441,
            42.3377423
          ],
          [
            -76.9290482,
            42.3377507
          ],
          [
            -76.929062,
            42.3377852
          ],
          [
            -76.9290786,
            42.3378378
          ],
          [
            -76.9290894,
            42.3378821
          ],
          [
            -76.929095,
            42.3379179
          ],
          [
            -76.9290976,
            42.3379628
          ],
          [
            -76.9290966,
            42.3380168
          ],
          [
            -76.9290948,
            42.3380438
          ],
          [
            -76.9290916,
            42.3380707
          ],
          [
            -76.9290755,
            42.3381781
          ],
          [
            -76.9290611,
            42.3382584
          ],
          [
            -76.9290476,
            42.3383569
          ],
          [
            -76.929039,
            42.3384014
          ],
          [
            -76.9290283,
            42.338473
          ],
          [
            -76.9290266,
            42.3384819
          ],
          [
            -76.9290119,
            42.338544
          ],
          [
            -76.92901,
            42.3385529
          ],
          [
            -76.9290055,
            42.3385797
          ],
          [
            -76.9290008,
            42.3386155
          ],
          [
            -76.9289916,
            42.3387053
          ],
          [
            -76.9289798,
            42.3387858
          ],
          [
            -76.9289672,
            42.3388572
          ],
          [
            -76.9289486,
            42.3389507
          ],
          [
            -76.9289299,
            42.3390442
          ],
          [
            -76.928924,
            42.33908
          ],
          [
            -76.9289221,
            42.3390979
          ],
          [
            -76.9289222,
            42.3391069
          ],
          [
            -76.9289239,
            42.3391249
          ],
          [
            -76.9289278,
            42.3391426
          ],
          [
            -76.9289331,
            42.3391602
          ],
          [
            -76.9289442,
            42.3391859
          ],
          [
            -76.9289756,
            42.3392445
          ],
          [
            -76.9289829,
            42.3392616
          ],
          [
            -76.9289889,
            42.3392791
          ],
          [
            -76.9289935,
            42.3392967
          ],
          [
            -76.928996,
            42.3393147
          ],
          [
            -76.9289962,
            42.3393507
          ],
          [
            -76.9289943,
            42.3393866
          ],
          [
            -76.9289885,
            42.3394495
          ],
          [
            -76.9289738,
            42.3395886
          ],
          [
            -76.9289591,
            42.3397277
          ],
          [
            -76.9289505,
            42.3398355
          ],
          [
            -76.9289434,
            42.3399434
          ],
          [
            -76.9289314,
            42.3400782
          ],
          [
            -76.9289194,
            42.3402129
          ],
          [
            -76.9289043,
            42.3403475
          ],
          [
            -76.9288906,
            42.3405182
          ],
          [
            -76.9288768,
            42.3406889
          ],
          [
            -76.928865,
            42.3408237
          ],
          [
            -76.9288499,
            42.3409777
          ]
        ]
      }
    },
    {
      "type": "Feature",
      "properties": {
        "role": "start_finish",
        "name": "Start / Finish",
        "marker": 0.0
      },
      "geometry": {
        "type": "Point",
        "coordinates": [
          -76.92885,
          42.3409763
        ]
      }
    },
    {
      "type": "Feature",
      "properties": {
        "role": "pit_entry",
        "name": "Pit Entry",
        "marker": 0.94678
      },
      "geometry": {
        "type": "Point",
        "coordinates": [
          -76.9290459,
          42.3383658
        ]
      }
    },
    {
      "type": "Feature",
      "properties": {
        "role": "pit_exit",
        "name": "Pit Exit",
        "marker": 0.07812
      },
      "geometry": {
        "type": "Point",
        "coordinates": [
          -76.9276257,
          42.3442245
        ]
      }
    },
    {
      "type": "Feature",
      "properties": {
        "role": "corner",
        "id": "t1",
        "number": 1,
        "code": "1",
        "display": "The 90",
        "labels": {
          "numbered": "Turn 1",
          "official": "The Ninety",
          "driver": "The 90"
        },
        "direction": "right",
        "scale": 2,
        "marker": 0.06142
      },
      "geometry": {
        "type": "Point",
        "coordinates": [
          -76.9285732,
          42.3440026
        ]
      }
    },
    {
      "type": "Feature",
      "properties": {
        "role": "corner",
        "id": "t2",
        "number": 2,
        "code": "2",
        "display": "Esses",
        "labels": {
          "numbered": "Turn 2",
          "official": "The Esses",
          "driver": "Esses"
        },
        "direction": "left",
        "scale": 4,
        "marker": 0.16917
      },
      "geometry": {
        "type": "Point",
        "coordinates": [
          -76.9234513,
          42.3418349
        ]
      }
    },
    {
      "type": "Feature",
      "properties": {
        "role": "corner",
        "id": "t3",
        "number": 3,
        "code": "3",
        "display": "Esses",
        "labels": {
          "numbered": "Turn 3",
          "official": "The Esses",
          "driver": "Esses"
        },
        "direction": "right",
        "scale": 4,
        "marker": 0.20564
      },
      "geometry": {
        "type": "Point",
        "coordinates": [
          -76.9219446,
          42.3404716
        ]
      }
    },
    {
      "type": "Feature",
      "properties": {
        "role": "corner",
        "id": "t4",
        "number": 4,
        "code": "4",
        "display": "Bus Stop",
        "labels": {
          "numbered": "Turn 4",
          "official": "Inner Loop",
          "driver": "Bus Stop"
        },
        "direction": "right",
        "scale": 2,
        "marker": 0.35077
      },
      "geometry": {
        "type": "Point",
        "coordinates": [
          -76.9204665,
          42.3335788
        ]
      }
    },
    {
      "type": "Feature",
      "properties": {
        "role": "corner",
        "id": "t5",
        "number": 5,
        "code": "5",
        "display": "Carousel",
        "labels": {
          "numbered": "Turn 5",
          "official": "Outer Loop",
          "driver": "Carousel"
        },
        "direction": "right",
        "scale": 3,
        "marker": 0.43464
      },
      "geometry": {
        "type": "Point",
        "coordinates": [
          -76.9217135,
          42.3302041
        ]
      }
    },
    {
      "type": "Feature",
      "properties": {
        "role": "corner",
        "id": "t6",
        "number": 6,
        "code": "6",
        "display": "Chute",
        "labels": {
          "numbered": "Turn 6",
          "official": "The Chute",
          "driver": "Chute"
        },
        "direction": "left",
        "scale": 4,
        "marker": 0.5125
      },
      "geometry": {
        "type": "Point",
        "coordinates": [
          -76.9255037,
          42.3325707
        ]
      }
    },
    {
      "type": "Feature",
      "properties": {
        "role": "corner",
        "id": "t7",
        "number": 7,
        "code": "7",
        "display": "Toe",
        "labels": {
          "numbered": "Turn 7",
          "official": "Toe of the Boot",
          "driver": "Toe"
        },
        "direction": "left",
        "scale": 2,
        "marker": 0.60275
      },
      "geometry": {
        "type": "Point",
        "coordinates": [
          -76.9265343,
          42.3285683
        ]
      }
    },
    {
      "type": "Feature",
      "properties": {
        "role": "corner",
        "id": "t8",
        "number": 8,
        "code": "8",
        "display": "Heel",
        "labels": {
          "numbered": "Turn 8",
          "official": "Heel of the Boot",
          "driver": "Heel"
        },
        "direction": "left",
        "scale": 3,
        "marker": 0.75791
      },
      "geometry": {
        "type": "Point",
        "coordinates": [
          -76.9268166,
          42.3341558
        ]
      }
    },
    {
      "type": "Feature",
      "properties": {
        "role": "corner",
        "id": "t9",
        "number": 9,
        "code": "9",
        "display": "Turn 9",
        "labels": {
          "numbered": "Turn 9"
        },
        "direction": "right",
        "scale": 2,
        "marker": 0.80514
      },
      "geometry": {
        "type": "Point",
        "coordinates": [
          -76.9241312,
          42.3338819
        ]
      }
    },
    {
      "type": "Feature",
      "properties": {
        "role": "corner",
        "id": "t10",
        "number": 10,
        "code": "10",
        "display": "Turn 10",
        "labels": {
          "numbered": "Turn 10"
        },
        "direction": "left",
        "scale": 2,
        "marker": 0.87187
      },
      "geometry": {
        "type": "Point",
        "coordinates": [
          -76.9252271,
          42.3370219
        ]
      }
    },
    {
      "type": "Feature",
      "properties": {
        "role": "corner",
        "id": "t11",
        "number": 11,
        "code": "11",
        "display": "Turn 11",
        "labels": {
          "numbered": "Turn 11"
        },
        "direction": "right",
        "scale": 4,
        "marker": 0.92237
      },
      "geometry": {
        "type": "Point",
        "coordinates": [
          -76.9285368,
          42.3373258
        ]
      }
    }
  ]
}