{
  "type": "FeatureCollection",
  "features": [
    {
      "type": "Feature",
      "properties": {
        "role": "outline",
        "layout": "gp",
        "basis": "midline"
      },
      "geometry": {
        "type": "LineString",
        "coordinates": [
          [
            -86.2388628,
            39.7931551
          ],
          [
            -86.2388631,
            39.7931601
          ],
          [
            -86.2388709,
            39.7932319
          ],
          [
            -86.2388729,
            39.793313
          ],
          [
            -86.2388725,
            39.79334
          ],
          [
            -86.2388667,
            39.7933848
          ],
          [
            -86.2388652,
            39.7934118
          ],
          [
            -86.2388658,
            39.7935064
          ],
          [
            -86.2388663,
            39.793601
          ],
          [
            -86.238868,
            39.793637
          ],
          [
            -86.2388757,
            39.7936907
          ],
          [
            -86.2388777,
            39.7937537
          ],
          [
            -86.2388771,
            39.7937717
          ],
          [
            -86.2388731,
            39.7938076
          ],
          [
            -86.2388723,
            39.7938256
          ],
          [
            -86.2388736,
            39.7938887
          ],
          [
            -86.2388735,
            39.7939968
          ],
          [
            -86.2388751,
            39.7940778
          ],
          [
            -86.2388747,
            39.7941589
          ],
          [
            -86.2388788,
            39.7942399
          ],
          [
            -86.2388794,
            39.794384
          ],
          [
            -86.2388835,
            39.7945101
          ],
          [
            -86.2388833,
            39.7945731
          ],
          [
            -86.2388854,
            39.7946362
          ],
          [
            -86.2388877,
            39.7947623
          ],
          [
            -86.2388896,
            39.7949244
          ],
          [
            -86.2388915,
            39.7950865
          ],
          [
            -86.2388939,
            39.7951586
          ],
          [
            -86.2388952,
            39.7952622
          ],
          [
            -86.2388964,
            39.7953657
          ],
          [
            -86.2388992,
            39.7955098
          ],
          [
            -86.238902,
            39.795654
          ],
          [
            -86.2389041,
            39.7957936
          ],
          [
            -86.2389061,
            39.7959332
          ],
          [
            -86.2389088,
            39.7960412
          ],
          [
            -86.2389104,
            39.7960592
          ],
          [
            -86.2389179,
            39.7961039
          ],
          [
            -86.2389193,
            39.7961219
          ],
          [
            -86.2389212,
            39.7962119
          ],
          [
            -86.2389214,
            39.7962209
          ],
          [
            -86.2389199,
            39.7962479
          ],
          [
            -86.2389132,
            39.7962927
          ],
          [
            -86.2389121,
            39.7963197
          ],
          [
            -86.2389145,
            39.7964368
          ],
          [
            -86.2389168,
            39.7965538
          ],
          [
            -86.2389198,
            39.7966349
          ],
          [
            -86.2389195,
            39.7966979
          ],
          [
            -86.2389175,
            39.7967429
          ],
          [
            -86.2389107,
            39.7967967
          ],
          [
            -86.2389085,
            39.7968237
          ],
          [
            -86.2389077,
            39.7968867
          ],
          [
            -86.238906,
            39.7969047
          ],
          [
            -86.2388805,
            39.7970293
          ],
          [
            -86.2388755,
            39.7970651
          ],
          [
            -86.2388734,
            39.7970921
          ],
          [
            -86.2388731,
            39.7971281
          ],
          [
            -86.2388771,
            39.7972451
          ],
          [
            -86.2388775,
            39.7973082
          ],
          [
            -86.23887,
            39.7974432
          ],
          [
            -86.2388692,
            39.7975332
          ],
          [
            -86.2388683,
            39.7976233
          ],
          [
            -86.2388657,
            39.7977404
          ],
          [
            -86.2388592,
            39.7978754
          ],
          [
            -86.2388585,
            39.7978844
          ],
          [
            -86.2388548,
            39.7979113
          ],
          [
            -86.2388503,
            39.797929
          ],
          [
            -86.2388385,
            39.7979638
          ],
          [
            -86.238816,
            39.7980244
          ],
          [
            -86.2388107,
            39.798042
          ],
          [
            -86.2388072,
            39.7980598
          ],
          [
            -86.2387913,
            39.7981853
          ],
          [
            -86.2387754,
            39.7983108
          ],
          [
            -86.2387725,
            39.7983468
          ],
          [
            -86.2387719,
            39.7983738
          ],
          [
            -86.2387728,
            39.7983918
          ],
          [
            -86.2387738,
            39.7984007
          ],
          [
            -86.2387755,
            39.7984096
          ],
          [
            -86.2387806,
            39.7984272
          ],
          [
            -86.2387892,
            39.798444
          ],
          [
            -86.2388002,
            39.7984598
          ],
          [
            -86.2388063,
            39.7984675
          ],
          [
            -86.23882,
            39.7984821
          ],
          [
            -86.2388356,
            39.7984955
          ],
          [
            -86.2388882,
            39.7985312
          ],
          [
            -86.2388964,
            39.7985376
          ],
          [
            -86.2389123,
            39.7985508
          ],
          [
            -86.2389265,
            39.798565
          ],
          [
            -86.2389328,
            39.7985726
          ],
          [
            -86.2389425,
            39.798589
          ],
          [
            -86.238946,
            39.7985976
          ],
          [
            -86.2389498,
            39.7986153
          ],
          [
            -86.2389511,
            39.7986333
          ],
          [
            -86.2389507,
            39.7987144
          ],
          [
            -86.2389517,
            39.7988405
          ],
          [
            -86.2389528,
            39.7989666
          ],
          [
            -86.2389559,
            39.7990206
          ],
          [
            -86.2389549,
            39.7990386
          ],
          [
            -86.2389506,
            39.7990563
          ],
          [
            -86.238942,
            39.799073
          ],
          [
            -86.2389363,
            39.7990809
          ],
          [
            -86.2389218,
            39.7990949
          ],
          [
            -86.2389042,
            39.7991067
          ],
          [
            -86.2388843,
            39.7991161
          ],
          [
            -86.238863,
            39.7991234
          ],
          [
            -86.2388407,
            39.7991288
          ],
          [
            -86.2388179,
            39.7991326
          ],
          [
            -86.238783,
            39.799135
          ],
          [
            -86.2387013,
            39.7991345
          ],
          [
            -86.2386779,
            39.799135
          ],
          [
            -86.2386431,
            39.799138
          ],
          [
            -86.2385626,
            39.7991489
          ],
          [
            -86.2385394,
            39.7991507
          ],
          [
            -86.238516,
            39.7991514
          ],
          [
            -86.238481,
            39.7991518
          ],
          [
            -86.2384577,
            39.799151
          ],
          [
            -86.2384346,
            39.7991485
          ],
          [
            -86.2383658,
            39.7991381
          ],
          [
            -86.238331,
            39.7991351
          ],
          [
            -86.238296,
            39.799134
          ],
          [
            -86.238226,
            39.7991339
          ],
          [
            -86.238191,
            39.799135
          ],
          [
            -86.2381212,
            39.79914
          ],
          [
            -86.2380867,
            39.7991447
          ],
          [
            -86.2380415,
            39.7991537
          ],
          [
            -86.2380083,
            39.7991623
          ],
          [
            -86.2379762,
            39.7991732
          ],
          [
            -86.237945,
            39.7991855
          ],
          [
            -86.2379248,
            39.7991944
          ],
          [
            -86.237896,
            39.7992098
          ],
          [
            -86.2378595,
            39.7992323
          ],
          [
            -86.2378332,
            39.7992502
          ],
          [
            -86.2378011,
            39.7992763
          ],
          [
            -86.2377712,
            39.799304
          ],
          [
            -86.2377516,
            39.7993264
          ],
          [
            -86.2377287,
            39.7993578
          ],
          [
            -86.2377185,
            39.799374
          ],
          [
            -86.2377095,
            39.7993906
          ],
          [
            -86.2376946,
            39.7994247
          ],
          [
            -86.2376852,
            39.7994508
          ],
          [
            -86.2376807,
            39.7994684
          ],
          [
            -86.2376773,
            39.7994863
          ],
          [
            -86.2376735,
            39.7995131
          ],
          [
            -86.2376717,
            39.7995401
          ],
          [
            -86.2376745,
            39.7996302
          ],
          [
            -86.237683,
            39.799711
          ],
          [
            -86.2376873,
            39.7997649
          ],
          [
            -86.237707,
            39.7999173
          ],
          [
            -86.2377091,
            39.7999443
          ],
          [
            -86.2377107,
            39.7999893
          ],
          [
            -86.2377098,
            39.8000163
          ],
          [
            -86.2377072,
            39.8000523
          ],
          [
            -86.2376984,
            39.800124
          ],
          [
            -86.2376935,
            39.8001508
          ],
          [
            -86.2376785,
            39.8002127
          ],
          [
            -86.2376485,
            39.8003091
          ],
          [
            -86.237639,
            39.8003351
          ],
          [
            -86.2376098,
            39.8004035
          ],
          [
            -86.2375753,
            39.8004705
          ],
          [
            -86.2375598,
            39.8004948
          ],
          [
            -86.2375242,
            39.8005413
          ],
          [
            -86.2374796,
            39.8005941
          ],
          [
            -86.2374327,
            39.8006458
          ],
          [
            -86.2374116,
            39.8006673
          ],
          [
            -86.2373751,
            39.8007025
          ],
          [
            -86.2373282,
            39.8007426
          ],
          [
            -86.2372956,
            39.8007684
          ],
          [
            -86.2372532,
            39.8007994
          ],
          [
            -86.2372271,
            39.8008174
          ],
          [
            -86.2371643,
            39.8008578
          ],
          [
            -86.2370899,
            39.8009014
          ],
          [
            -86.2370215,
            39.8009358
          ],
          [
            -86.2369811,
            39.800954
          ],
          [
            -86.2369402,
            39.8009713
          ],
          [
            -86.2368668,
            39.800999
          ],
          [
            -86.2367602,
            39.8010359
          ],
          [
            -86.236623,
            39.8010859
          ],
          [
            -86.2365273,
            39.8011194
          ],
          [
            -86.2364641,
            39.8011428
          ],
          [
            -86.2363894,
            39.8011683
          ],
          [
            -86.2363046,
            39.8011986
          ],
          [
            -86.2362723,
            39.8012091
          ],
          [
            -86.2362395,
            39.8012186
          ],
          [
            -86.2362059,
            39.8012262
          ],
          [
            -86.2361831,
            39.8012302
          ],
          [
            -86.23616,
            39.8012327
          ],
          [
            -86.236125,
            39.8012338
          ],
          [
            -86.23609,
            39.8012331
          ],
          [
            -86.2360551,
            39.8012305
          ],
          [
            -86.2360208,
            39.8012252
          ],
          [
            -86.2359869,
            39.8012185
          ],
          [
            -86.2359536,
            39.80121
          ],
          [
            -86.2359218,
            39.8011988
          ],
          [
            -86.2358805,
            39.8011819
          ],
          [
            -86.2358406,
            39.8011632
          ],
          [
            -86.2358116,
            39.801148
          ],
          [
            -86.2357838,
            39.8011316
          ],
          [
            -86.2357315,
            39.8010956
          ],
          [
            -86.2357066,
            39.8010766
          ],
          [
            -86.2356672,
            39.8010434
          ],
          [
            -86.2356447,
            39.8010227
          ],
          [
            -86.2356171,
            39.8009936
          ],
          [
            -86.2355976,
            39.8009712
          ],
          [
            -86.2355796,
            39.800948
          ],
          [
            -86.2355574,
            39.8009162
          ],
          [
            -86.235543,
            39.8008916
          ],
          [
            -86.2355215,
            39.8008497
          ],
          [
            -86.2355137,
            39.8008328
          ],
          [
            -86.2355071,
            39.8008155
          ],
          [
            -86.2354876,
            39.8007543
          ],
          [
            -86.2354779,
            39.8007098
          ],
          [
            -86.2354728,
            39.800665
          ],
          [
            -86.2354696,
            39.800593
          ],
          [
            -86.2354681,
            39.8004579
          ],
          [
            -86.2354665,
            39.8003227
          ],
          [
            -86.2354632,
            39.8002057
          ],
          [
            -86.2354612,
            39.8000796
          ],
          [
            -86.2354616,
            39.7999715
          ],
          [
            -86.2354584,
            39.7998004
          ],
          [
            -86.2354582,
            39.7997103
          ],
          [
            -86.235457,
            39.7996923
          ],
          [
            -86.2354546,
            39.7996744
          ],
          [
            -86.2354462,
            39.7996389
          ],
          [
            -86.2354403,
            39.7996215
          ],
          [
            -86.2354294,
            39.7995958
          ],
          [
            -86.2354164,
            39.7995707
          ],
          [
            -86.2354063,
            39.7995545
          ],
          [
            -86.2353947,
            39.7995388
          ],
          [
            -86.2353758,
            39.7995161
          ],
          [
            -86.2353621,
            39.7995015
          ],
          [
            -86.2353471,
            39.7994877
          ],
          [
            -86.2353308,
            39.7994748
          ],
          [
            -86.2353135,
            39.7994627
          ],
          [
            -86.2352866,
            39.7994454
          ],
          [
            -86.2352677,
            39.7994348
          ],
          [
            -86.2352379,
            39.7994206
          ],
          [
            -86.2351668,
            39.7993895
          ],
          [
            -86.2351278,
            39.7993696
          ],
          [
            -86.2351009,
            39.7993524
          ],
          [
            -86.235085,
            39.7993392
          ],
          [
            -86.2350779,
            39.7993321
          ],
          [
            -86.235065,
            39.799317
          ],
          [
            -86.2350192,
            39.7992542
          ],
          [
            -86.2350047,
            39.7992296
          ],
          [
            -86.2349938,
            39.7992039
          ],
          [
            -86.2349851,
            39.7991778
          ],
          [
            -86.2349779,
            39.7991513
          ],
          [
            -86.2349752,
            39.7991334
          ],
          [
            -86.2349733,
            39.7990884
          ],
          [
            -86.2349743,
            39.7989983
          ],
          [
            -86.2349709,
            39.7988723
          ],
          [
            -86.2349691,
            39.7987777
          ],
          [
            -86.2349673,
            39.7986831
          ],
          [
            -86.2349655,
            39.7985075
          ],
          [
            -86.2349637,
            39.7983318
          ],
          [
            -86.2349613,
            39.7982238
          ],
          [
            -86.234961,
            39.7981022
          ],
          [
            -86.2349607,
            39.7979806
          ],
          [
            -86.2349581,
            39.7978725
          ],
          [
            -86.2349555,
            39.7977644
          ],
          [
            -86.2349544,
            39.7976293
          ],
          [
            -86.2349524,
            39.7975663
          ],
          [
            -86.234954,
            39.7974942
          ],
          [
            -86.2349495,
            39.7973681
          ],
          [
            -86.2349475,
            39.797197
          ],
          [
            -86.2349436,
            39.7970529
          ],
          [
            -86.2349422,
            39.7969043
          ],
          [
            -86.2349408,
            39.7967557
          ],
          [
            -86.2349377,
            39.79658
          ],
          [
            -86.2349346,
            39.7964044
          ],
          [
            -86.2349322,
            39.7962445
          ],
          [
            -86.2349299,
            39.7960847
          ],
          [
            -86.2349275,
            39.7959248
          ],
          [
            -86.2349252,
            39.7957649
          ],
          [
            -86.2349228,
            39.7956478
          ],
          [
            -86.2349205,
            39.7955307
          ],
          [
            -86.2349192,
            39.7954271
          ],
          [
            -86.2349179,
            39.7953236
          ],
          [
            -86.2349159,
            39.795211
          ],
          [
            -86.2349139,
            39.7950984
          ],
          [
            -86.2349122,
            39.7949498
          ],
          [
            -86.2349105,
            39.7948012
          ],
          [
            -86.2349081,
            39.7946661
          ],
          [
            -86.2349057,
            39.794531
          ],
          [
            -86.2349033,
            39.7943958
          ],
          [
            -86.2349025,
            39.7942968
          ],
          [
            -86.2349017,
            39.7941977
          ],
          [
            -86.2348981,
            39.7940446
          ],
          [
            -86.2348969,
            39.7939365
          ],
          [
            -86.2348958,
            39.7938284
          ],
          [
            -86.2348938,
            39.7937383
          ],
          [
            -86.2348922,
            39.7936122
          ],
          [
            -86.2348888,
            39.7935312
          ],
          [
            -86.2348897,
            39.7934862
          ],
          [
            -86.2348875,
            39.7933871
          ],
          [
            -86.234887,
            39.793297
          ],
          [
            -86.2348824,
            39.793189
          ],
          [
            -86.2348813,
            39.7930629
          ],
          [
            -86.2348813,
            39.7929098
          ],
          [
            -86.2348792,
            39.7927521
          ],
          [
            -86.2348772,
            39.7925945
          ],
          [
            -86.2348773,
            39.7925855
          ],
          [
            -86.2348802,
            39.7925586
          ],
          [
            -86.234887,
            39.7925229
          ],
          [
            -86.2349049,
            39.7924522
          ],
          [
            -86.234913,
            39.7924167
          ],
          [
            -86.2349147,
            39.7924078
          ],
          [
            -86.234916,
            39.7923899
          ],
          [
            -86.2349154,
            39.7923809
          ],
          [
            -86.2349127,
            39.792363
          ],
          [
            -86.2349103,
            39.7923542
          ],
          [
            -86.2349073,
            39.7923455
          ],
          [
            -86.2349031,
            39.7923371
          ],
          [
            -86.2348985,
            39.7923289
          ],
          [
            -86.2348923,
            39.7923212
          ],
          [
            -86.2348778,
            39.7923071
          ],
          [
            -86.2348695,
            39.7923008
          ],
          [
            -86.2348607,
            39.7922949
          ],
          [
            -86.2348515,
            39.7922893
          ],
          [
            -86.234832,
            39.7922794
          ],
          [
            -86.234822,
            39.7922748
          ],
          [
            -86.2348012,
            39.7922667
          ],
          [
            -86.2347798,
            39.7922594
          ],
          [
            -86.2347469,
            39.7922501
          ],
          [
            -86.2347358,
            39.7922473
          ],
          [
            -86.2347021,
            39.79224
          ],
          [
            -86.2346681,
            39.7922334
          ],
          [
            -86.2346567,
            39.7922315
          ],
          [
            -86.2346337,
            39.7922285
          ],
          [
            -86.2346221,
            39.7922274
          ],
          [
            -86.2345988,
            39.7922264
          ],
          [
            -86.2345288,
            39.792225
          ],
          [
            -86.2344587,
            39.7922252
          ],
          [
            -86.234447,
            39.7922254
          ],
          [
            -86.2344121,
            39.7922272
          ],
          [
            -86.234354,
            39.7922316
          ],
          [
            -86.2342725,
            39.7922364
          ],
          [
            -86.2342608,
            39.7922368
          ],
          [
            -86.2342141,
            39.7922373
          ],
          [
            -86.2341441,
            39.7922367
          ],
          [
            -86.2340974,
            39.7922377
          ],
          [
            -86.2339342,
            39.7922449
          ],
          [
            -86.2337942,
            39.7922498
          ],
          [
            -86.2336893,
            39.7922548
          ],
          [
            -86.2335493,
            39.7922589
          ],
          [
            -86.2335376,
            39.7922589
          ],
          [
            -86.2335143,
            39.792258
          ],
          [
            -86.2334911,
            39.7922559
          ],
          [
            -86.2334336,
            39.7922484
          ],
          [
            -86.2334221,
            39.7922466
          ],
          [
            -86.2333995,
            39.7922422
          ],
          [
            -86.2333658,
            39.7922347
          ],
          [
            -86.2333437,
            39.792229
          ],
          [
            -86.2333219,
            39.7922225
          ],
          [
            -86.2333112,
            39.7922189
          ],
          [
            -86.2332797,
            39.7922072
          ],
          [
            -86.2332693,
            39.792203
          ],
          [
            -86.2332388,
            39.7921898
          ],
          [
            -86.2332289,
            39.792185
          ],
          [
            -86.2331806,
            39.7921596
          ],
          [
            -86.2331527,
            39.7921434
          ],
          [
            -86.2331437,
            39.7921376
          ],
          [
            -86.2331178,
            39.7921194
          ],
          [
            -86.2330931,
            39.7921003
          ],
          [
            -86.2330853,
            39.7920936
          ],
          [
            -86.2330706,
            39.7920796
          ],
          [
            -86.2330356,
            39.7920435
          ],
          [
            -86.2330222,
            39.7920287
          ],
          [
            -86.2330161,
            39.7920211
          ],
          [
            -86.2330045,
            39.7920055
          ],
          [
            -86.2329885,
            39.7919814
          ],
          [
            -86.2329786,
            39.7919651
          ],
          [
            -86.2329742,
            39.7919568
          ],
          [
            -86.232962,
            39.7919314
          ],
          [
            -86.2329509,
            39.7919058
          ],
          [
            -86.2329314,
            39.7918539
          ],
          [
            -86.2329244,
            39.7918367
          ],
          [
            -86.2329078,
            39.791803
          ],
          [
            -86.2328939,
            39.7917783
          ],
          [
            -86.2328887,
            39.7917702
          ],
          [
            -86.2328777,
            39.7917543
          ],
          [
            -86.2328718,
            39.7917465
          ],
          [
            -86.2328593,
            39.7917313
          ],
          [
            -86.2328394,
            39.7917091
          ],
          [
            -86.2328324,
            39.7917019
          ],
          [
            -86.2328176,
            39.7916879
          ],
          [
            -86.2328099,
            39.7916812
          ],
          [
            -86.232786,
            39.7916615
          ],
          [
            -86.2327777,
            39.7916551
          ],
          [
            -86.2327605,
            39.7916429
          ],
          [
            -86.2327517,
            39.791637
          ],
          [
            -86.2327334,
            39.7916258
          ],
          [
            -86.232724,
            39.7916205
          ],
          [
            -86.2326953,
            39.7916049
          ],
          [
            -86.2326855,
            39.7916001
          ],
          [
            -86.2326654,
            39.7915909
          ],
          [
            -86.2326552,
            39.7915866
          ],
          [
            -86.2326239,
            39.7915744
          ],
          [
            -86.2326133,
            39.7915706
          ],
          [
            -86.2325919,
            39.7915635
          ],
          [
            -86.232581,
            39.7915603
          ],
          [
            -86.2325476,
            39.7915521
          ],
          [
            -86.2325138,
            39.7915449
          ],
          [
            -86.2325025,
            39.7915429
          ],
          [
            -86.2324796,
            39.7915392
          ],
          [
            -86.2324681,
            39.7915379
          ],
          [
            -86.2324332,
            39.7915351
          ],
          [
            -86.2324216,
            39.7915345
          ],
          [
            -86.2324099,
            39.7915341
          ],
          [
            -86.2323865,
            39.7915342
          ],
          [
            -86.2323749,
            39.7915345
          ],
          [
            -86.2322001,
            39.7915435
          ],
          [
            -86.2320837,
            39.7915503
          ],
          [
            -86.2319557,
            39.7915589
          ],
          [
            -86.2318275,
            39.7915652
          ],
          [
            -86.2316878,
            39.7915736
          ],
          [
            -86.2315481,
            39.791582
          ],
          [
            -86.2314548,
            39.7915857
          ],
          [
            -86.2314315,
            39.7915861
          ],
          [
            -86.2314082,
            39.7915851
          ],
          [
            -86.2313967,
            39.7915839
          ],
          [
            -86.2313737,
            39.7915807
          ],
          [
            -86.2313396,
            39.7915745
          ],
          [
            -86.2313172,
            39.7915693
          ],
          [
            -86.2313063,
            39.7915661
          ],
          [
            -86.2312854,
            39.7915581
          ],
          [
            -86.2312755,
            39.7915534
          ],
          [
            -86.2312561,
            39.7915433
          ],
          [
            -86.2312469,
            39.7915378
          ],
          [
            -86.2312288,
            39.7915264
          ],
          [
            -86.2312119,
            39.791514
          ],
          [
            -86.2312042,
            39.7915073
          ],
          [
            -86.2311893,
            39.7914934
          ],
          [
            -86.231176,
            39.7914786
          ],
          [
            -86.231164,
            39.7914631
          ],
          [
            -86.2311483,
            39.791439
          ],
          [
            -86.2311156,
            39.7913812
          ],
          [
            -86.2310855,
            39.7913226
          ],
          [
            -86.2310581,
            39.7912632
          ],
          [
            -86.2310479,
            39.7912373
          ],
          [
            -86.2310297,
            39.7911851
          ],
          [
            -86.2310216,
            39.7911588
          ],
          [
            -86.2310074,
            39.7911059
          ],
          [
            -86.2309954,
            39.7910527
          ],
          [
            -86.2309936,
            39.7910438
          ],
          [
            -86.2309891,
            39.791017
          ],
          [
            -86.2309828,
            39.7909722
          ],
          [
            -86.2309766,
            39.7909093
          ],
          [
            -86.2309753,
            39.7908823
          ],
          [
            -86.2309759,
            39.7908373
          ],
          [
            -86.2309797,
            39.7907563
          ],
          [
            -86.2309874,
            39.7906935
          ],
          [
            -86.2309931,
            39.7906577
          ],
          [
            -86.2310205,
            39.7905152
          ],
          [
            -86.2310528,
            39.790355
          ],
          [
            -86.2310623,
            39.7903014
          ],
          [
            -86.231084,
            39.7901901
          ],
          [
            -86.2311057,
            39.7900787
          ],
          [
            -86.2311217,
            39.7899895
          ],
          [
            -86.2311414,
            39.7898916
          ],
          [
            -86.2311579,
            39.7898024
          ],
          [
            -86.2311817,
            39.7896868
          ],
          [
            -86.23121,
            39.7895352
          ],
          [
            -86.2312233,
            39.7894822
          ],
          [
            -86.2312384,
            39.7894294
          ],
          [
            -86.2312512,
            39.7893763
          ],
          [
            -86.2312643,
            39.7893324
          ],
          [
            -86.2312899,
            39.7892537
          ],
          [
            -86.2312999,
            39.7892278
          ],
          [
            -86.2313077,
            39.7892109
          ],
          [
            -86.2313211,
            39.7891859
          ],
          [
            -86.2313358,
            39.7891614
          ],
          [
            -86.2313619,
            39.7891211
          ],
          [
            -86.2314026,
            39.7890664
          ],
          [
            -86.231415,
            39.7890511
          ],
          [
            -86.231422,
            39.7890439
          ],
          [
            -86.2314651,
            39.7890013
          ],
          [
            -86.2315472,
            39.7889251
          ],
          [
            -86.2315908,
            39.7888828
          ],
          [
            -86.2316352,
            39.788841
          ],
          [
            -86.2316964,
            39.7887866
          ],
          [
            -86.2317606,
            39.7887342
          ],
          [
            -86.2318196,
            39.7886906
          ],
          [
            -86.2318897,
            39.788643
          ],
          [
            -86.2319631,
            39.7885984
          ],
          [
            -86.2320108,
            39.7885725
          ],
          [
            -86.2321096,
            39.7885245
          ],
          [
            -86.2322006,
            39.7884839
          ],
          [
            -86.2322829,
            39.7884497
          ],
          [
            -86.2323251,
            39.7884343
          ],
          [
            -86.2323574,
            39.788424
          ],
          [
            -86.2324444,
            39.7883977
          ],
          [
            -86.232577,
            39.7883627
          ],
          [
            -86.2326553,
            39.7883447
          ],
          [
            -86.2327119,
            39.7883334
          ],
          [
            -86.232746,
            39.7883275
          ],
          [
            -86.2329647,
            39.7882985
          ],
          [
            -86.233057,
            39.7882872
          ],
          [
            -86.2330917,
            39.7882836
          ],
          [
            -86.2331382,
            39.7882804
          ],
          [
            -86.2333014,
            39.7882727
          ],
          [
            -86.2334181,
            39.7882696
          ],
          [
            -86.2334529,
            39.7882668
          ],
          [
            -86.233487,
            39.7882608
          ],
          [
            -86.2335427,
            39.7882473
          ],
          [
            -86.2335653,
            39.7882426
          ],
          [
            -86.2335997,
            39.7882376
          ],
          [
            -86.2336807,
            39.7882291
          ],
          [
            -86.2337266,
            39.7882224
          ],
          [
            -86.2337719,
            39.7882138
          ],
          [
            -86.2339069,
            39.7881847
          ],
          [
            -86.2339525,
            39.7881771
          ],
          [
            -86.2339871,
            39.7881729
          ],
          [
            -86.234103,
            39.7881619
          ],
          [
            -86.234138,
            39.78816
          ],
          [
            -86.2341847,
            39.7881586
          ],
          [
            -86.2343598,
            39.788157
          ],
          [
            -86.2345349,
            39.7881553
          ],
          [
            -86.2347101,
            39.7881537
          ],
          [
            -86.2348852,
            39.788152
          ],
          [
            -86.2349202,
            39.7881534
          ],
          [
            -86.234955,
            39.7881564
          ],
          [
            -86.2349895,
            39.7881609
          ],
          [
            -86.2350236,
            39.7881672
          ],
          [
            -86.2350458,
            39.7881728
          ],
          [
            -86.2350674,
            39.7881796
          ],
          [
            -86.2350989,
            39.7881915
          ],
          [
            -86.2351294,
            39.7882047
          ],
          [
            -86.2351694,
            39.7882234
          ],
          [
            -86.2352279,
            39.7882531
          ],
          [
            -86.2352468,
            39.7882637
          ],
          [
            -86.2352642,
            39.7882758
          ],
          [
            -86.2352879,
            39.7882956
          ],
          [
            -86.2353021,
            39.7883099
          ],
          [
            -86.2353211,
            39.7883326
          ],
          [
            -86.2353321,
            39.7883485
          ],
          [
            -86.2353367,
            39.7883568
          ],
          [
            -86.2353426,
            39.7883742
          ],
          [
            -86.2353448,
            39.7883921
          ],
          [
            -86.235343,
            39.7884371
          ],
          [
            -86.2353426,
            39.7884912
          ],
          [
            -86.2353359,
            39.788563
          ],
          [
            -86.2353347,
            39.7886081
          ],
          [
            -86.2353292,
            39.788689
          ],
          [
            -86.2353269,
            39.788743
          ],
          [
            -86.2353218,
            39.788824
          ],
          [
            -86.2353169,
            39.788932
          ],
          [
            -86.2353119,
            39.7890401
          ],
          [
            -86.2353124,
            39.7891121
          ],
          [
            -86.2353106,
            39.7891391
          ],
          [
            -86.2353066,
            39.789175
          ],
          [
            -86.2353036,
            39.78922
          ],
          [
            -86.2353038,
            39.789247
          ],
          [
            -86.2353092,
            39.7892918
          ],
          [
            -86.2353125,
            39.7893097
          ],
          [
            -86.2353172,
            39.7893273
          ],
          [
            -86.2353264,
            39.7893534
          ],
          [
            -86.235337,
            39.7893792
          ],
          [
            -86.2353453,
            39.789396
          ],
          [
            -86.2353549,
            39.7894124
          ],
          [
            -86.235376,
            39.7894446
          ],
          [
            -86.2353877,
            39.7894602
          ],
          [
            -86.2354006,
            39.7894752
          ],
          [
            -86.2354287,
            39.7895039
          ],
          [
            -86.2354507,
            39.789525
          ],
          [
            -86.2354664,
            39.7895383
          ],
          [
            -86.2354834,
            39.7895506
          ],
          [
            -86.2354926,
            39.7895562
          ],
          [
            -86.2355119,
            39.7895663
          ],
          [
            -86.2355322,
            39.7895753
          ],
          [
            -86.2355535,
            39.7895827
          ],
          [
            -86.2355645,
            39.7895856
          ],
          [
            -86.2355872,
            39.7895897
          ],
          [
            -86.2356105,
            39.7895916
          ],
          [
            -86.2356338,
            39.7895919
          ],
          [
            -86.2356572,
            39.7895912
          ],
          [
            -86.2356803,
            39.7895889
          ],
          [
            -86.235703,
            39.7895845
          ],
          [
            -86.235725,
            39.7895786
          ],
          [
            -86.2358332,
            39.7895447
          ],
          [
            -86.2359095,
            39.7895221
          ],
          [
            -86.2360068,
            39.7894913
          ],
          [
            -86.2362128,
            39.789428
          ],
          [
            -86.2363204,
            39.789393
          ],
          [
            -86.2365157,
            39.789333
          ],
          [
            -86.2366455,
            39.7892922
          ],
          [
            -86.2367111,
            39.7892732
          ],
          [
            -86.2367443,
            39.7892647
          ],
          [
            -86.2368006,
            39.7892527
          ],
          [
            -86.2369028,
            39.7892338
          ],
          [
            -86.2369372,
            39.7892289
          ],
          [
            -86.236995,
            39.7892222
          ],
          [
            -86.2370646,
            39.7892164
          ],
          [
            -86.2371112,
            39.789214
          ],
          [
            -86.2371813,
            39.7892137
          ],
          [
            -86.2372513,
            39.7892158
          ],
          [
            -86.2372862,
            39.7892179
          ],
          [
            -86.237344,
            39.7892242
          ],
          [
            -86.2373786,
            39.7892288
          ],
          [
            -86.237538,
            39.7892565
          ],
          [
            -86.2375604,
            39.7892618
          ],
          [
            -86.2376485,
            39.7892856
          ],
          [
            -86.237692,
            39.7892987
          ],
          [
            -86.2377242,
            39.7893095
          ],
          [
            -86.2377553,
            39.7893218
          ],
          [
            -86.2378781,
            39.7893739
          ],
          [
            -86.2378982,
            39.7893831
          ],
          [
            -86.2379374,
            39.7894027
          ],
          [
            -86.2379754,
            39.7894237
          ],
          [
            -86.2380388,
            39.7894635
          ],
          [
            -86.2380997,
            39.7895055
          ],
          [
            -86.2381492,
            39.7895438
          ],
          [
            -86.2381727,
            39.7895638
          ],
          [
            -86.2382174,
            39.7896054
          ],
          [
            -86.2382746,
            39.7896624
          ],
          [
            -86.2382905,
            39.7896756
          ],
          [
            -86.2383496,
            39.7897192
          ],
          [
            -86.2383812,
            39.7897457
          ],
          [
            -86.2384022,
            39.7897673
          ],
          [
            -86.2384149,
            39.7897824
          ],
          [
            -86.2384263,
            39.7897981
          ],
          [
            -86.2384359,
            39.7898146
          ],
          [
            -86.2384598,
            39.7898654
          ],
          [
            -86.2384806,
            39.7899074
          ],
          [
            -86.2385342,
            39.7900073
          ],
          [
            -86.2385527,
            39.7900404
          ],
          [
            -86.2385831,
            39.7900891
          ],
          [
            -86.2386013,
            39.7901223
          ],
          [
            -86.2386179,
            39.7901559
          ],
          [
            -86.2386735,
            39.7902745
          ],
          [
            -86.2387004,
            39.7903341
          ],
          [
            -86.238724,
            39.7903944
          ],
          [
            -86.238744,
            39.7904556
          ],
          [
            -86.2387586,
            39.7905084
          ],
          [
            -86.2387984,
            39.7906676
          ],
          [
            -86.2388106,
            39.7907209
          ],
          [
            -86.2388185,
            39.7907655
          ],
          [
            -86.2388234,
            39.7908104
          ],
          [
            -86.2388256,
            39.7908554
          ],
          [
            -86.2388275,
            39.790986
          ],
          [
            -86.2388295,
            39.7911166
          ],
          [
            -86.238829,
            39.7912607
          ],
          [
            -86.2388316,
            39.7913868
          ],
          [
            -86.2388333,
            39.7915069
          ],
          [
            -86.2388351,
            39.791627
          ],
          [
            -86.2388368,
            39.7917471
          ],
          [
            -86.2388402,
            39.7918642
          ],
          [
            -86.2388449,
            39.7919451
          ],
          [
            -86.2388507,
            39.7920892
          ],
          [
            -86.2388534,
            39.7922063
          ],
          [
            -86.2388528,
            39.7922603
          ],
          [
            -86.2388496,
            39.7923143
          ],
          [
            -86.2388492,
            39.7923413
          ],
          [
            -86.2388504,
            39.7924614
          ],
          [
            -86.2388515,
            39.7925815
          ],
          [
            -86.2388527,
            39.7927016
          ],
          [
            -86.2388549,
            39.7927376
          ],
          [
            -86.2388638,
            39.7927912
          ],
          [
            -86.238866,
            39.7928272
          ],
          [
            -86.2388647,
            39.7928903
          ],
          [
            -86.2388632,
            39.7929082
          ],
          [
            -86.2388581,
            39.7929441
          ],
          [
            -86.2388569,
            39.792962
          ],
          [
            -86.238857,
            39.7929801
          ],
          [
            -86.2388608,
            39.793043
          ],
          [
            -86.2388605,
            39.7931151
          ],
          [
            -86.2388628,
            39.7931551
          ]
        ]
      }
    },
    {
      "type": "Feature",
      "properties": {
        "role": "start_finish",
        "name": "Start / Finish",
        "marker": 0.0
      },
      "geometry": {
        "type": "Point",
        "coordinates": [
          -86.2388626,
          39.7931511
        ]
      }
    },
    {
      "type": "Feature",
      "properties": {
        "role": "pit_entry",
        "name": "Pit Entry",
        "marker": 0.83269
      },
      "geometry": {
        "type": "Point",
        "coordinates": [
          -86.2355645,
          39.7895856
        ]
      }
    },
    {
      "type": "Feature",
      "properties": {
        "role": "pit_exit",
        "name": "Pit Exit",
        "marker": 0.10709
      },
      "geometry": {
        "type": "Point",
        "coordinates": [
          -86.2389024,
          39.7969225
        ]
      }
    },
    {
      "type": "Feature",
      "properties": {
        "role": "corner",
        "id": "t1",
        "number": 1,
        "code": "1",
        "display": "Turn 1",
        "labels": {
          "numbered": "Turn 1"
        },
        "direction": null,
        "scale": null,
        "marker": 0.17015
      },
      "geometry": {
        "type": "Point",
        "coordinates": [
          -86.2389292,
          39.799088
        ]
      }
    },
    {
      "type": "Feature",
      "properties": {
        "role": "corner",
        "id": "t2",
        "number": 2,
        "code": "2",
        "display": "Turn 2",
        "labels": {
          "numbered": "Turn 2"
        },
        "direction": null,
        "scale": null,
        "marker": 0.20007
      },
      "geometry": {
        "type": "Point",
        "coordinates": [
          -86.2377139,
          39.7993823
        ]
      }
    },
    {
      "type": "Feature",
      "properties": {
        "role": "corner",
        "id": "t3",
        "number": 3,
        "code": "3",
        "display": "Turn 3",
        "labels": {
          "numbered": "Turn 3"
        },
        "direction": null,
        "scale": null,
        "marker": 0.2333
      },
      "geometry": {
        "type": "Point",
        "coordinates": [
          -86.2375361,
          39.8005258
        ]
      }
    },
    {
      "type": "Feature",
      "properties": {
        "role": "corner",
        "id": "t4",
        "number": 4,
        "code": "4",
        "display": "Turn 4",
        "labels": {
          "numbered": "Turn 4"
        },
        "direction": null,
        "scale": null,
        "marker": 0.27012
      },
      "geometry": {
        "type": "Point",
        "coordinates": [
          -86.2361716,
          39.8012315
        ]
      }
    },
    {
      "type": "Feature",
      "properties": {
        "role": "corner",
        "id": "t5",
        "number": 5,
        "code": "5",
        "display": "Turn 5",
        "labels": {
          "numbered": "Turn 5"
        },
        "direction": null,
        "scale": null,
        "marker": 0.32789
      },
      "geometry": {
        "type": "Point",
        "coordinates": [
          -86.2353689,
          39.7995088
        ]
      }
    },
    {
      "type": "Feature",
      "properties": {
        "role": "corner",
        "id": "t6",
        "number": 6,
        "code": "6",
        "display": "Turn 6",
        "labels": {
          "numbered": "Turn 6"
        },
        "direction": null,
        "scale": null,
        "marker": 0.33531
      },
      "geometry": {
        "type": "Point",
        "coordinates": [
          -86.2351009,
          39.7993524
        ]
      }
    },
    {
      "type": "Feature",
      "properties": {
        "role": "corner",
        "id": "t7",
        "number": 7,
        "code": "7",
        "display": "Turn 7",
        "labels": {
          "numbered": "Turn 7"
        },
        "direction": null,
        "scale": null,
        "marker": 0.53523
      },
      "geometry": {
        "type": "Point",
        "coordinates": [
          -86.2349031,
          39.7923371
        ]
      }
    },
    {
      "type": "Feature",
      "properties": {
        "role": "corner",
        "id": "t8",
        "number": 8,
        "code": "8",
        "display": "Turn 8",
        "labels": {
          "numbered": "Turn 8"
        },
        "direction": null,
        "scale": null,
        "marker": 0.57716
      },
      "geometry": {
        "type": "Point",
        "coordinates": [
          -86.2330931,
          39.7921003
        ]
      }
    },
    {
      "type": "Feature",
      "properties": {
        "role": "corner",
        "id": "t9",
        "number": 9,
        "code": "9",
        "display": "Turn 9",
        "labels": {
          "numbered": "Turn 9"
        },
        "direction": null,
        "scale": null,
        "marker": 0.5879
      },
      "geometry": {
        "type": "Point",
        "coordinates": [
          -86.2328832,
          39.7917622
        ]
      }
    },
    {
      "type": "Feature",
      "properties": {
        "role": "corner",
        "id": "t10",
        "number": 10,
        "code": "10",
        "display": "Turn 10",
        "labels": {
          "numbered": "Turn 10"
        },
        "direction": null,
        "scale": null,
        "marker": 0.62471
      },
      "geometry": {
        "type": "Point",
        "coordinates": [
          -86.2313172,
          39.7915693
        ]
      }
    },
    {
      "type": "Feature",
      "properties": {
        "role": "corner",
        "id": "t11",
        "number": 11,
        "code": "11",
        "display": "Turn 11",
        "labels": {
          "numbered": "Turn 11"
        },
        "direction": null,
        "scale": null,
        "marker": 0.69553
      },
      "geometry": {
        "type": "Point",
        "coordinates": [
          -86.231326,
          39.7891777
        ]
      }
    },
    {
      "type": "Feature",
      "properties": {
        "role": "corner",
        "id": "t12",
        "number": 12,
        "code": "12",
        "display": "Turn 12",
        "labels": {
          "numbered": "Turn 12"
        },
        "direction": null,
        "scale": null,
        "marker": 0.79549
      },
      "geometry": {
        "type": "Point",
        "coordinates": [
          -86.2353367,
          39.7883568
        ]
      }
    },
    {
      "type": "Feature",
      "properties": {
        "role": "corner",
        "id": "t13",
        "number": 13,
        "code": "13",
        "display": "Turn 13",
        "labels": {
          "numbered": "Turn 13"
        },
        "direction": null,
        "scale": null,
        "marker": 0.83256
      },
      "geometry": {
        "type": "Point",
        "coordinates": [
          -86.2355645,
          39.7895856
        ]
      }
    },
    {
      "type": "Feature",
      "properties": {
        "role": "corner",
        "id": "t14",
        "number": 14,
        "code": "14",
        "display": "Turn 14",
        "labels": {
          "numbered": "Turn 14"
        },
        "direction": null,
        "scale": null,
        "marker": 0.90184
      },
      "geometry": {
        "type": "Point",
        "coordinates": [
          -86.2383952,
          39.7897601
        ]
      }
    }
  ]
}