{
  "type": "FeatureCollection",
  "features": [
    {
      "type": "Feature",
      "properties": {
        "role": "outline",
        "layout": "gp",
        "basis": "midline"
      },
      "geometry": {
        "type": "LineString",
        "coordinates": [
          [
            -79.206304,
            36.5688024
          ],
          [
            -79.2062275,
            36.5688077
          ],
          [
            -79.2061611,
            36.5688149
          ],
          [
            -79.2060611,
            36.5688235
          ],
          [
            -79.2058387,
            36.5688405
          ],
          [
            -79.2056605,
            36.5688513
          ],
          [
            -79.2055489,
            36.5688548
          ],
          [
            -79.2054596,
            36.5688565
          ],
          [
            -79.2053479,
            36.5688575
          ],
          [
            -79.2052585,
            36.5688574
          ],
          [
            -79.205158,
            36.5688587
          ],
          [
            -79.205024,
            36.5688572
          ],
          [
            -79.2048788,
            36.5688535
          ],
          [
            -79.2047337,
            36.5688498
          ],
          [
            -79.2046332,
            36.5688466
          ],
          [
            -79.2044994,
            36.5688411
          ],
          [
            -79.2043655,
            36.5688356
          ],
          [
            -79.2042429,
            36.5688289
          ],
          [
            -79.2040199,
            36.5688183
          ],
          [
            -79.2038082,
            36.568806
          ],
          [
            -79.2036856,
            36.5688
          ],
          [
            -79.2035742,
            36.5687936
          ],
          [
            -79.2034738,
            36.5687895
          ],
          [
            -79.2033958,
            36.5687846
          ],
          [
            -79.2033177,
            36.5687818
          ],
          [
            -79.2031059,
            36.5687712
          ],
          [
            -79.2029611,
            36.5687626
          ],
          [
            -79.2028607,
            36.5687576
          ],
          [
            -79.2027829,
            36.5687521
          ],
          [
            -79.2027048,
            36.5687481
          ],
          [
            -79.2025714,
            36.5687381
          ],
          [
            -79.2025383,
            36.5687338
          ],
          [
            -79.202495,
            36.5687247
          ],
          [
            -79.2024529,
            36.5687129
          ],
          [
            -79.2024223,
            36.5687018
          ],
          [
            -79.2023927,
            36.5686891
          ],
          [
            -79.2023643,
            36.5686747
          ],
          [
            -79.2023378,
            36.5686582
          ],
          [
            -79.2023046,
            36.5686341
          ],
          [
            -79.2022743,
            36.5686076
          ],
          [
            -79.2022539,
            36.5685861
          ],
          [
            -79.2022361,
            36.5685633
          ],
          [
            -79.2022211,
            36.5685391
          ],
          [
            -79.2022086,
            36.568514
          ],
          [
            -79.2021985,
            36.5684882
          ],
          [
            -79.202189,
            36.568453
          ],
          [
            -79.2021847,
            36.5684262
          ],
          [
            -79.2021838,
            36.5684082
          ],
          [
            -79.202185,
            36.5683902
          ],
          [
            -79.2021878,
            36.5683723
          ],
          [
            -79.2021939,
            36.5683458
          ],
          [
            -79.2022014,
            36.5683194
          ],
          [
            -79.2022077,
            36.5683021
          ],
          [
            -79.2022153,
            36.5682852
          ],
          [
            -79.2022242,
            36.5682687
          ],
          [
            -79.2022343,
            36.5682526
          ],
          [
            -79.2022511,
            36.5682292
          ],
          [
            -79.2023001,
            36.5681689
          ],
          [
            -79.2023357,
            36.5681231
          ],
          [
            -79.2023609,
            36.5680934
          ],
          [
            -79.2023809,
            36.5680716
          ],
          [
            -79.2023948,
            36.5680576
          ],
          [
            -79.202417,
            36.5680373
          ],
          [
            -79.2024405,
            36.568018
          ],
          [
            -79.2024664,
            36.5680009
          ],
          [
            -79.2025033,
            36.5679806
          ],
          [
            -79.2025225,
            36.5679714
          ],
          [
            -79.2025423,
            36.567963
          ],
          [
            -79.2025923,
            36.567943
          ],
          [
            -79.2026331,
            36.5679282
          ],
          [
            -79.202673,
            36.567912
          ],
          [
            -79.2027035,
            36.5679008
          ],
          [
            -79.2027243,
            36.5678944
          ],
          [
            -79.2027562,
            36.5678859
          ],
          [
            -79.2027884,
            36.5678785
          ],
          [
            -79.2028209,
            36.5678719
          ],
          [
            -79.2028646,
            36.5678644
          ],
          [
            -79.2029086,
            36.5678581
          ],
          [
            -79.2029418,
            36.5678543
          ],
          [
            -79.2029751,
            36.5678517
          ],
          [
            -79.2030198,
            36.5678504
          ],
          [
            -79.2031538,
            36.5678506
          ],
          [
            -79.2031873,
            36.5678521
          ],
          [
            -79.203254,
            36.5678566
          ],
          [
            -79.2033429,
            36.5678643
          ],
          [
            -79.2034312,
            36.5678751
          ],
          [
            -79.2035299,
            36.5678906
          ],
          [
            -79.2035626,
            36.5678964
          ],
          [
            -79.2036059,
            36.5679054
          ],
          [
            -79.2036704,
            36.5679201
          ],
          [
            -79.203713,
            36.5679311
          ],
          [
            -79.2037757,
            36.5679501
          ],
          [
            -79.2039657,
            36.5680031
          ],
          [
            -79.2041762,
            36.5680633
          ],
          [
            -79.2043326,
            36.5681119
          ],
          [
            -79.2044793,
            36.5681556
          ],
          [
            -79.204626,
            36.5681992
          ],
          [
            -79.2046895,
            36.5682166
          ],
          [
            -79.2047535,
            36.5682326
          ],
          [
            -79.2048187,
            36.5682453
          ],
          [
            -79.2048952,
            36.5682579
          ],
          [
            -79.2049393,
            36.5682641
          ],
          [
            -79.2049836,
            36.5682687
          ],
          [
            -79.205028,
            36.5682722
          ],
          [
            -79.2050727,
            36.568274
          ],
          [
            -79.2051285,
            36.568274
          ],
          [
            -79.2051731,
            36.5682718
          ],
          [
            -79.2052286,
            36.5682667
          ],
          [
            -79.2052728,
            36.5682615
          ],
          [
            -79.2053277,
            36.568253
          ],
          [
            -79.2053712,
            36.5682448
          ],
          [
            -79.2054249,
            36.5682325
          ],
          [
            -79.2055102,
            36.568211
          ],
          [
            -79.2056574,
            36.5681685
          ],
          [
            -79.2057822,
            36.568129
          ],
          [
            -79.2058845,
            36.5680928
          ],
          [
            -79.2059144,
            36.5680806
          ],
          [
            -79.206032,
            36.5680287
          ],
          [
            -79.206092,
            36.5680047
          ],
          [
            -79.2061302,
            36.5679859
          ],
          [
            -79.2061764,
            36.5679607
          ],
          [
            -79.2062124,
            36.5679393
          ],
          [
            -79.2062473,
            36.5679169
          ],
          [
            -79.2062724,
            36.5678989
          ],
          [
            -79.2062881,
            36.5678861
          ],
          [
            -79.2063025,
            36.5678723
          ],
          [
            -79.2063289,
            36.5678433
          ],
          [
            -79.2063543,
            36.5678136
          ],
          [
            -79.2063715,
            36.5677904
          ],
          [
            -79.2063816,
            36.5677743
          ],
          [
            -79.2063901,
            36.5677577
          ],
          [
            -79.2063972,
            36.5677406
          ],
          [
            -79.206403,
            36.5677232
          ],
          [
            -79.2064101,
            36.5676968
          ],
          [
            -79.2064226,
            36.5676437
          ],
          [
            -79.2064278,
            36.567617
          ],
          [
            -79.2064313,
            36.5675901
          ],
          [
            -79.2064323,
            36.5675631
          ],
          [
            -79.2064307,
            36.5675361
          ],
          [
            -79.2064271,
            36.5675092
          ],
          [
            -79.2064174,
            36.5674648
          ],
          [
            -79.2063878,
            36.5673594
          ],
          [
            -79.2063841,
            36.5673416
          ],
          [
            -79.2063725,
            36.5672611
          ],
          [
            -79.2063679,
            36.5672343
          ],
          [
            -79.2063533,
            36.5671723
          ],
          [
            -79.2063424,
            36.5671374
          ],
          [
            -79.2063322,
            36.5671116
          ],
          [
            -79.2063017,
            36.5670439
          ],
          [
            -79.2062845,
            36.567001
          ],
          [
            -79.2062763,
            36.5669843
          ],
          [
            -79.2062526,
            36.5669435
          ],
          [
            -79.2062444,
            36.5669267
          ],
          [
            -79.2062236,
            36.5668753
          ],
          [
            -79.206179,
            36.5667733
          ],
          [
            -79.2061435,
            36.5666785
          ],
          [
            -79.2061025,
            36.5665755
          ],
          [
            -79.2060729,
            36.5665075
          ],
          [
            -79.2060076,
            36.5663637
          ],
          [
            -79.205991,
            36.5663302
          ],
          [
            -79.2059734,
            36.5662971
          ],
          [
            -79.20594,
            36.56624
          ],
          [
            -79.2059245,
            36.5662161
          ],
          [
            -79.2059134,
            36.5662004
          ],
          [
            -79.2058952,
            36.5661777
          ],
          [
            -79.2058821,
            36.5661632
          ],
          [
            -79.2058606,
            36.5661424
          ],
          [
            -79.2058529,
            36.5661359
          ],
          [
            -79.2058368,
            36.5661234
          ],
          [
            -79.2058283,
            36.5661176
          ],
          [
            -79.2058109,
            36.5661063
          ],
          [
            -79.2058017,
            36.5661012
          ],
          [
            -79.205783,
            36.5660913
          ],
          [
            -79.2057633,
            36.5660829
          ],
          [
            -79.2057529,
            36.5660796
          ],
          [
            -79.2057319,
            36.5660735
          ],
          [
            -79.2057211,
            36.5660713
          ],
          [
            -79.2056992,
            36.5660676
          ],
          [
            -79.2056882,
            36.5660665
          ],
          [
            -79.2056659,
            36.566065
          ],
          [
            -79.2056547,
            36.566065
          ],
          [
            -79.2056324,
            36.5660656
          ],
          [
            -79.2055991,
            36.5660685
          ],
          [
            -79.205544,
            36.566076
          ],
          [
            -79.2055114,
            36.5660821
          ],
          [
            -79.2055007,
            36.5660847
          ],
          [
            -79.205437,
            36.5661015
          ],
          [
            -79.2053121,
            36.5661407
          ],
          [
            -79.2052173,
            36.5661676
          ],
          [
            -79.2051747,
            36.5661785
          ],
          [
            -79.2051316,
            36.5661882
          ],
          [
            -79.2051099,
            36.5661923
          ],
          [
            -79.2050879,
            36.5661954
          ],
          [
            -79.2050657,
            36.566197
          ],
          [
            -79.2050545,
            36.566197
          ],
          [
            -79.2050322,
            36.5661963
          ],
          [
            -79.20501,
            36.5661941
          ],
          [
            -79.2049882,
            36.5661903
          ],
          [
            -79.2049775,
            36.5661877
          ],
          [
            -79.2049563,
            36.566182
          ],
          [
            -79.2049251,
            36.5661721
          ],
          [
            -79.2048948,
            36.5661606
          ],
          [
            -79.2048754,
            36.5661517
          ],
          [
            -79.204866,
            36.5661468
          ],
          [
            -79.2048202,
            36.5661211
          ],
          [
            -79.204776,
            36.5660936
          ],
          [
            -79.2046747,
            36.5660228
          ],
          [
            -79.20465,
            36.5660045
          ],
          [
            -79.2046186,
            36.5659789
          ],
          [
            -79.2045573,
            36.5659264
          ],
          [
            -79.2045178,
            36.5658946
          ],
          [
            -79.2045025,
            36.5658815
          ],
          [
            -79.2044744,
            36.5658534
          ],
          [
            -79.2044354,
            36.5658094
          ],
          [
            -79.2044114,
            36.5657791
          ],
          [
            -79.204384,
            36.5657398
          ],
          [
            -79.2043694,
            36.5657155
          ],
          [
            -79.2043421,
            36.5656661
          ],
          [
            -79.2043372,
            36.565658
          ],
          [
            -79.2042642,
            36.5655465
          ],
          [
            -79.2042404,
            36.5655057
          ],
          [
            -79.2042074,
            36.5654387
          ],
          [
            -79.2041932,
            36.5654046
          ],
          [
            -79.2041901,
            36.5653959
          ],
          [
            -79.2041844,
            36.5653785
          ],
          [
            -79.2041775,
            36.565352
          ],
          [
            -79.2041724,
            36.5653253
          ],
          [
            -79.2041702,
            36.5653074
          ],
          [
            -79.2041691,
            36.5652894
          ],
          [
            -79.2041691,
            36.5652714
          ],
          [
            -79.2041706,
            36.5652534
          ],
          [
            -79.2041733,
            36.5652355
          ],
          [
            -79.2041773,
            36.5652178
          ],
          [
            -79.2041852,
            36.5651915
          ],
          [
            -79.2041884,
            36.5651829
          ],
          [
            -79.2041991,
            36.5651573
          ],
          [
            -79.2042032,
            36.5651489
          ],
          [
            -79.2042122,
            36.5651324
          ],
          [
            -79.2042268,
            36.5651081
          ],
          [
            -79.2042938,
            36.5650042
          ],
          [
            -79.2043869,
            36.5648707
          ],
          [
            -79.2044077,
            36.5648388
          ],
          [
            -79.2044215,
            36.5648141
          ],
          [
            -79.2044373,
            36.5647804
          ],
          [
            -79.2044508,
            36.5647461
          ],
          [
            -79.2044595,
            36.56472
          ],
          [
            -79.2044709,
            36.5646759
          ],
          [
            -79.204479,
            36.5646313
          ],
          [
            -79.2044846,
            36.5645865
          ],
          [
            -79.2044906,
            36.5645146
          ],
          [
            -79.2044921,
            36.5644695
          ],
          [
            -79.2044882,
            36.5643705
          ],
          [
            -79.2044886,
            36.5643074
          ],
          [
            -79.2044876,
            36.5642533
          ],
          [
            -79.2044908,
            36.5641903
          ],
          [
            -79.2044937,
            36.5641634
          ],
          [
            -79.2044966,
            36.5641455
          ],
          [
            -79.2045022,
            36.5641189
          ],
          [
            -79.2045044,
            36.5641101
          ],
          [
            -79.2045282,
            36.564022
          ],
          [
            -79.2045363,
            36.5639958
          ],
          [
            -79.2045426,
            36.5639785
          ],
          [
            -79.2045535,
            36.5639529
          ],
          [
            -79.2045657,
            36.5639278
          ],
          [
            -79.2046101,
            36.5638451
          ],
          [
            -79.2046227,
            36.5638201
          ],
          [
            -79.2046301,
            36.563803
          ],
          [
            -79.2046334,
            36.5637944
          ],
          [
            -79.2046553,
            36.5637339
          ],
          [
            -79.2046634,
            36.5637077
          ],
          [
            -79.2046713,
            36.5636722
          ],
          [
            -79.2046753,
            36.5636454
          ],
          [
            -79.2046783,
            36.5636094
          ],
          [
            -79.2046791,
            36.5635824
          ],
          [
            -79.2046791,
            36.5635734
          ],
          [
            -79.204678,
            36.5635193
          ],
          [
            -79.2046767,
            36.5634923
          ],
          [
            -79.2046693,
            36.5633889
          ],
          [
            -79.204662,
            36.5632854
          ],
          [
            -79.2046561,
            36.5632135
          ],
          [
            -79.2046469,
            36.5631237
          ],
          [
            -79.2046415,
            36.5630517
          ],
          [
            -79.2046403,
            36.5630247
          ],
          [
            -79.2046409,
            36.5629797
          ],
          [
            -79.2046405,
            36.5629526
          ],
          [
            -79.2046338,
            36.5628446
          ],
          [
            -79.2046271,
            36.5627366
          ],
          [
            -79.2046203,
            36.5625926
          ],
          [
            -79.2046166,
            36.5624755
          ],
          [
            -79.2046163,
            36.5623223
          ],
          [
            -79.2046174,
            36.5622052
          ],
          [
            -79.2046216,
            36.562043
          ],
          [
            -79.2046241,
            36.562007
          ],
          [
            -79.2046308,
            36.5619442
          ],
          [
            -79.2046511,
            36.5617873
          ],
          [
            -79.2046714,
            36.5616305
          ],
          [
            -79.2046885,
            36.5615096
          ],
          [
            -79.2047055,
            36.5613888
          ],
          [
            -79.2047206,
            36.5612904
          ],
          [
            -79.2047356,
            36.561192
          ],
          [
            -79.2047492,
            36.5610935
          ],
          [
            -79.2047618,
            36.5609814
          ],
          [
            -79.2047743,
            36.5608692
          ],
          [
            -79.2047905,
            36.5607075
          ],
          [
            -79.2048067,
            36.5605459
          ],
          [
            -79.2048179,
            36.5604743
          ],
          [
            -79.2048188,
            36.5604654
          ],
          [
            -79.2048281,
            36.5603214
          ],
          [
            -79.20484,
            36.5602046
          ],
          [
            -79.20485,
            36.5600968
          ],
          [
            -79.2048561,
            36.560043
          ],
          [
            -79.2048625,
            36.5599711
          ],
          [
            -79.2048667,
            36.5599081
          ],
          [
            -79.2048728,
            36.5598362
          ],
          [
            -79.2048741,
            36.5598002
          ],
          [
            -79.204874,
            36.559692
          ],
          [
            -79.2048728,
            36.559656
          ],
          [
            -79.204872,
            36.559647
          ],
          [
            -79.2048659,
            36.5596022
          ],
          [
            -79.204861,
            36.5595755
          ],
          [
            -79.2048497,
            36.5595222
          ],
          [
            -79.2048379,
            36.5594599
          ],
          [
            -79.2048304,
            36.5594243
          ],
          [
            -79.2048188,
            36.5593803
          ],
          [
            -79.2047811,
            36.5592578
          ],
          [
            -79.2047377,
            36.5591273
          ],
          [
            -79.2047169,
            36.5590572
          ],
          [
            -79.2046936,
            36.5589876
          ],
          [
            -79.204691,
            36.5589788
          ],
          [
            -79.2046697,
            36.5588996
          ],
          [
            -79.2046518,
            36.558829
          ],
          [
            -79.204646,
            36.5588023
          ],
          [
            -79.2046444,
            36.5587934
          ],
          [
            -79.2046422,
            36.5587755
          ],
          [
            -79.2046382,
            36.5587306
          ],
          [
            -79.2046312,
            36.5586677
          ],
          [
            -79.2046283,
            36.5586228
          ],
          [
            -79.204628,
            36.5586137
          ],
          [
            -79.2046287,
            36.5585687
          ],
          [
            -79.2046308,
            36.5585417
          ],
          [
            -79.2046358,
            36.5584969
          ],
          [
            -79.2046403,
            36.5584429
          ],
          [
            -79.2046417,
            36.558434
          ],
          [
            -79.2046458,
            36.5584163
          ],
          [
            -79.2046484,
            36.5584075
          ],
          [
            -79.2046635,
            36.5583641
          ],
          [
            -79.204666,
            36.5583554
          ],
          [
            -79.2046698,
            36.5583376
          ],
          [
            -79.204676,
            36.5583019
          ],
          [
            -79.2046798,
            36.5582842
          ],
          [
            -79.2046822,
            36.5582754
          ],
          [
            -79.204706,
            36.5581966
          ],
          [
            -79.2047232,
            36.5581351
          ],
          [
            -79.2047391,
            36.5580641
          ],
          [
            -79.204754,
            36.5580022
          ],
          [
            -79.2047592,
            36.5579755
          ],
          [
            -79.2047624,
            36.5579486
          ],
          [
            -79.2047653,
            36.5579036
          ],
          [
            -79.2047664,
            36.5578586
          ],
          [
            -79.2047655,
            36.5577775
          ],
          [
            -79.2047637,
            36.5577325
          ],
          [
            -79.2047605,
            36.5576965
          ],
          [
            -79.2047537,
            36.5576427
          ],
          [
            -79.204752,
            36.5576338
          ],
          [
            -79.2047445,
            36.5576075
          ],
          [
            -79.2047297,
            36.557564
          ],
          [
            -79.2047018,
            36.5574768
          ],
          [
            -79.2046709,
            36.5573716
          ],
          [
            -79.2046473,
            36.5572835
          ],
          [
            -79.2046452,
            36.5572747
          ],
          [
            -79.2046368,
            36.5572301
          ],
          [
            -79.2046355,
            36.5572212
          ],
          [
            -79.2046326,
            36.5571943
          ],
          [
            -79.2046299,
            36.5571402
          ],
          [
            -79.2046291,
            36.5571313
          ],
          [
            -79.2046264,
            36.5571134
          ],
          [
            -79.2046197,
            36.5570777
          ],
          [
            -79.2046185,
            36.5570688
          ],
          [
            -79.204617,
            36.5570508
          ],
          [
            -79.2046166,
            36.5570418
          ],
          [
            -79.2046166,
            36.5570148
          ],
          [
            -79.2046178,
            36.5569878
          ],
          [
            -79.2046268,
            36.5568889
          ],
          [
            -79.2046308,
            36.5568621
          ],
          [
            -79.2046401,
            36.5568085
          ],
          [
            -79.2046419,
            36.5567996
          ],
          [
            -79.2046653,
            36.5567023
          ],
          [
            -79.2046731,
            36.556676
          ],
          [
            -79.204701,
            36.5565888
          ],
          [
            -79.2047231,
            36.5565283
          ],
          [
            -79.2047265,
            36.5565197
          ],
          [
            -79.2047377,
            36.5564943
          ],
          [
            -79.2047808,
            36.5564014
          ],
          [
            -79.2048239,
            36.5563086
          ],
          [
            -79.2048769,
            36.5561996
          ],
          [
            -79.2049481,
            36.5560479
          ],
          [
            -79.2049937,
            36.5559558
          ],
          [
            -79.2050383,
            36.5558635
          ],
          [
            -79.2050995,
            36.5557425
          ],
          [
            -79.2051607,
            36.5556215
          ],
          [
            -79.2052196,
            36.5554998
          ],
          [
            -79.2052786,
            36.5553781
          ],
          [
            -79.2053211,
            36.5552851
          ],
          [
            -79.2053247,
            36.5552766
          ],
          [
            -79.205338,
            36.5552422
          ],
          [
            -79.2053409,
            36.5552335
          ],
          [
            -79.2053458,
            36.5552159
          ],
          [
            -79.2053477,
            36.5552071
          ],
          [
            -79.2053502,
            36.5551892
          ],
          [
            -79.2053566,
            36.5551263
          ],
          [
            -79.2053611,
            36.5550724
          ],
          [
            -79.2053625,
            36.5550273
          ],
          [
            -79.2053624,
            36.5550183
          ],
          [
            -79.2053608,
            36.5549913
          ],
          [
            -79.2053598,
            36.5549824
          ],
          [
            -79.205355,
            36.5549556
          ],
          [
            -79.2053531,
            36.5549467
          ],
          [
            -79.2053395,
            36.5548938
          ],
          [
            -79.2053369,
            36.554885
          ],
          [
            -79.2053256,
            36.5548502
          ],
          [
            -79.2053225,
            36.5548415
          ],
          [
            -79.2052942,
            36.5547731
          ],
          [
            -79.2052788,
            36.5547298
          ],
          [
            -79.2052754,
            36.5547212
          ],
          [
            -79.2052413,
            36.554645
          ],
          [
            -79.2052286,
            36.55462
          ],
          [
            -79.2052239,
            36.5546118
          ],
          [
            -79.2051924,
            36.5545641
          ],
          [
            -79.2051732,
            36.5545315
          ],
          [
            -79.2051085,
            36.5544167
          ],
          [
            -79.2050438,
            36.5543018
          ],
          [
            -79.2049792,
            36.554187
          ],
          [
            -79.2049458,
            36.5541201
          ],
          [
            -79.2049093,
            36.5540543
          ],
          [
            -79.2048364,
            36.5539177
          ],
          [
            -79.2047635,
            36.5537812
          ],
          [
            -79.2047034,
            36.553655
          ],
          [
            -79.2046996,
            36.5536466
          ],
          [
            -79.204667,
            36.5535699
          ],
          [
            -79.2046325,
            36.5534747
          ],
          [
            -79.2045849,
            36.5533358
          ],
          [
            -79.204542,
            36.5531958
          ],
          [
            -79.2045213,
            36.5531257
          ],
          [
            -79.204474,
            36.5529496
          ],
          [
            -79.2044515,
            36.5528613
          ],
          [
            -79.2044184,
            36.5527472
          ],
          [
            -79.2043769,
            36.5525978
          ],
          [
            -79.2043746,
            36.552589
          ],
          [
            -79.2043648,
            36.5525446
          ],
          [
            -79.2043551,
            36.552482
          ],
          [
            -79.2043529,
            36.5524551
          ],
          [
            -79.2043526,
            36.552437
          ],
          [
            -79.2043536,
            36.552419
          ],
          [
            -79.2043557,
            36.5524011
          ],
          [
            -79.2043608,
            36.5523744
          ],
          [
            -79.2043675,
            36.5523479
          ],
          [
            -79.2043751,
            36.5523216
          ],
          [
            -79.204378,
            36.5523129
          ],
          [
            -79.2043849,
            36.5522957
          ],
          [
            -79.204389,
            36.5522874
          ],
          [
            -79.2043936,
            36.5522792
          ],
          [
            -79.204404,
            36.5522633
          ],
          [
            -79.2044096,
            36.5522554
          ],
          [
            -79.2044395,
            36.5522174
          ],
          [
            -79.2044855,
            36.5521556
          ],
          [
            -79.2044915,
            36.552148
          ],
          [
            -79.2045044,
            36.5521333
          ],
          [
            -79.204511,
            36.5521261
          ],
          [
            -79.2045253,
            36.5521122
          ],
          [
            -79.2045407,
            36.5520991
          ],
          [
            -79.2045486,
            36.5520928
          ],
          [
            -79.2045653,
            36.5520808
          ],
          [
            -79.2045738,
            36.552075
          ],
          [
            -79.2046351,
            36.5520358
          ],
          [
            -79.2046944,
            36.5519947
          ],
          [
            -79.2047031,
            36.5519891
          ],
          [
            -79.2047214,
            36.5519787
          ],
          [
            -79.2047406,
            36.5519695
          ],
          [
            -79.2048,
            36.5519446
          ],
          [
            -79.2048308,
            36.5519338
          ],
          [
            -79.2048518,
            36.5519278
          ],
          [
            -79.2048733,
            36.5519229
          ],
          [
            -79.2049061,
            36.5519175
          ],
          [
            -79.2049393,
            36.5519138
          ],
          [
            -79.2049616,
            36.5519124
          ],
          [
            -79.2050174,
            36.5519106
          ],
          [
            -79.2050286,
            36.5519105
          ],
          [
            -79.2050509,
            36.5519111
          ],
          [
            -79.205062,
            36.5519119
          ],
          [
            -79.205073,
            36.5519134
          ],
          [
            -79.2050839,
            36.5519152
          ],
          [
            -79.2050946,
            36.551918
          ],
          [
            -79.205105,
            36.5519212
          ],
          [
            -79.2051151,
            36.551925
          ],
          [
            -79.2051345,
            36.5519339
          ],
          [
            -79.205144,
            36.5519386
          ],
          [
            -79.2051621,
            36.5519491
          ],
          [
            -79.2051709,
            36.5519547
          ],
          [
            -79.2051793,
            36.5519606
          ],
          [
            -79.2051954,
            36.5519731
          ],
          [
            -79.205203,
            36.5519797
          ],
          [
            -79.2052169,
            36.5519938
          ],
          [
            -79.2052292,
            36.5520088
          ],
          [
            -79.2052459,
            36.5520323
          ],
          [
            -79.2052936,
            36.5521037
          ],
          [
            -79.2053591,
            36.552198
          ],
          [
            -79.2054116,
            36.5522775
          ],
          [
            -79.2054825,
            36.5523798
          ],
          [
            -79.2055361,
            36.5524588
          ],
          [
            -79.2055834,
            36.5525304
          ],
          [
            -79.2056323,
            36.5526012
          ],
          [
            -79.2056716,
            36.5526558
          ],
          [
            -79.2057341,
            36.5527411
          ],
          [
            -79.2058124,
            36.552845
          ],
          [
            -79.2058908,
            36.552949
          ],
          [
            -79.205951,
            36.5530301
          ],
          [
            -79.2060113,
            36.5531113
          ],
          [
            -79.2060534,
            36.5531644
          ],
          [
            -79.2060984,
            36.553216
          ],
          [
            -79.2061106,
            36.5532311
          ],
          [
            -79.2061163,
            36.5532388
          ],
          [
            -79.2061533,
            36.5532944
          ],
          [
            -79.2061584,
            36.5533024
          ],
          [
            -79.2062074,
            36.5533834
          ],
          [
            -79.2062125,
            36.5533914
          ],
          [
            -79.2062338,
            36.5534231
          ],
          [
            -79.206303,
            36.5535157
          ],
          [
            -79.2063722,
            36.5536083
          ],
          [
            -79.2064425,
            36.5537004
          ],
          [
            -79.206505,
            36.5537857
          ],
          [
            -79.20658,
            36.553886
          ],
          [
            -79.2066439,
            36.5539707
          ],
          [
            -79.2067078,
            36.5540553
          ],
          [
            -79.2067764,
            36.5541482
          ],
          [
            -79.2068265,
            36.5542185
          ],
          [
            -79.2068676,
            36.5542722
          ],
          [
            -79.206951,
            36.5543859
          ],
          [
            -79.2070344,
            36.5544997
          ],
          [
            -79.2071178,
            36.5546134
          ],
          [
            -79.2072174,
            36.5547439
          ],
          [
            -79.2073364,
            36.5548964
          ],
          [
            -79.2074205,
            36.555008
          ],
          [
            -79.2075047,
            36.5551196
          ],
          [
            -79.2075827,
            36.555229
          ],
          [
            -79.2076504,
            36.5553326
          ],
          [
            -79.2076558,
            36.5553405
          ],
          [
            -79.2077203,
            36.5554249
          ],
          [
            -79.2077427,
            36.555456
          ],
          [
            -79.2077895,
            36.5555278
          ],
          [
            -79.2077944,
            36.5555359
          ],
          [
            -79.2078077,
            36.5555607
          ],
          [
            -79.2078371,
            36.5556191
          ],
          [
            -79.2078513,
            36.5556436
          ],
          [
            -79.207908,
            36.5557316
          ],
          [
            -79.2079933,
            36.5558684
          ],
          [
            -79.2080786,
            36.5560052
          ],
          [
            -79.2081631,
            36.5561424
          ],
          [
            -79.2082476,
            36.5562796
          ],
          [
            -79.2083321,
            36.5564168
          ],
          [
            -79.2084181,
            36.5565584
          ],
          [
            -79.2085041,
            36.5567
          ],
          [
            -79.208573,
            36.5568166
          ],
          [
            -79.208642,
            36.5569331
          ],
          [
            -79.2087109,
            36.5570497
          ],
          [
            -79.2087851,
            36.5571808
          ],
          [
            -79.2088594,
            36.557312
          ],
          [
            -79.2089037,
            36.5573848
          ],
          [
            -79.2089217,
            36.5574178
          ],
          [
            -79.2089682,
            36.5574997
          ],
          [
            -79.2090268,
            36.5576069
          ],
          [
            -79.2090779,
            36.5577019
          ],
          [
            -79.209129,
            36.557797
          ],
          [
            -79.2091798,
            36.5578873
          ],
          [
            -79.2092456,
            36.5580017
          ],
          [
            -79.2092938,
            36.5580929
          ],
          [
            -79.2093169,
            36.5581339
          ],
          [
            -79.2093401,
            36.5581846
          ],
          [
            -79.2093531,
            36.5582095
          ],
          [
            -79.2094171,
            36.5583246
          ],
          [
            -79.2094874,
            36.5584571
          ],
          [
            -79.2095603,
            36.5585888
          ],
          [
            -79.2096332,
            36.5587204
          ],
          [
            -79.2097104,
            36.5588653
          ],
          [
            -79.2097875,
            36.5590102
          ],
          [
            -79.2098699,
            36.5591679
          ],
          [
            -79.2098904,
            36.5592098
          ],
          [
            -79.2099047,
            36.559244
          ],
          [
            -79.2099126,
            36.5592608
          ],
          [
            -79.2099522,
            36.5593354
          ],
          [
            -79.2100033,
            36.5594255
          ],
          [
            -79.2100381,
            36.5594919
          ],
          [
            -79.2101058,
            36.5596155
          ],
          [
            -79.2101735,
            36.5597392
          ],
          [
            -79.2102412,
            36.5598628
          ],
          [
            -79.2103101,
            36.5599909
          ],
          [
            -79.2103791,
            36.5601191
          ],
          [
            -79.2104669,
            36.5602799
          ],
          [
            -79.2105547,
            36.5604407
          ],
          [
            -79.2106426,
            36.560603
          ],
          [
            -79.2107306,
            36.5607654
          ],
          [
            -79.2108186,
            36.5609278
          ],
          [
            -79.2108734,
            36.5610314
          ],
          [
            -79.2109283,
            36.561135
          ],
          [
            -79.210978,
            36.5612305
          ],
          [
            -79.2110278,
            36.561326
          ],
          [
            -79.2110895,
            36.5614419
          ],
          [
            -79.2111393,
            36.5615325
          ],
          [
            -79.2111782,
            36.5616073
          ],
          [
            -79.2111922,
            36.5616319
          ],
          [
            -79.2112082,
            36.5616556
          ],
          [
            -79.2112259,
            36.5616786
          ],
          [
            -79.2113012,
            36.561768
          ],
          [
            -79.2113143,
            36.5617826
          ],
          [
            -79.211381,
            36.5618433
          ],
          [
            -79.2115008,
            36.5619503
          ],
          [
            -79.2115322,
            36.5619759
          ],
          [
            -79.2115653,
            36.5620001
          ],
          [
            -79.2116336,
            36.5620466
          ],
          [
            -79.2117034,
            36.5620916
          ],
          [
            -79.2117612,
            36.5621341
          ],
          [
            -79.2118117,
            36.5621696
          ],
          [
            -79.2118564,
            36.5621966
          ],
          [
            -79.2118819,
            36.5622142
          ],
          [
            -79.2119053,
            36.5622334
          ],
          [
            -79.2119343,
            36.5622609
          ],
          [
            -79.2119535,
            36.562283
          ],
          [
            -79.2119641,
            36.5622989
          ],
          [
            -79.2119727,
            36.5623155
          ],
          [
            -79.2119763,
            36.562324
          ],
          [
            -79.211982,
            36.5623415
          ],
          [
            -79.2119891,
            36.5623679
          ],
          [
            -79.211995,
            36.5623945
          ],
          [
            -79.2119979,
            36.5624124
          ],
          [
            -79.2119996,
            36.5624303
          ],
          [
            -79.2119997,
            36.5624483
          ],
          [
            -79.2119983,
            36.5624663
          ],
          [
            -79.2119945,
            36.5624932
          ],
          [
            -79.2119908,
            36.5625109
          ],
          [
            -79.2119859,
            36.5625285
          ],
          [
            -79.2119758,
            36.5625543
          ],
          [
            -79.2119674,
            36.562571
          ],
          [
            -79.2119577,
            36.5625872
          ],
          [
            -79.21192,
            36.5626425
          ],
          [
            -79.2118795,
            36.5626964
          ],
          [
            -79.2118603,
            36.5627186
          ],
          [
            -79.2118457,
            36.5627322
          ],
          [
            -79.2118297,
            36.5627448
          ],
          [
            -79.211813,
            36.5627568
          ],
          [
            -79.2117181,
            36.5628197
          ],
          [
            -79.2116828,
            36.5628418
          ],
          [
            -79.2116371,
            36.5628677
          ],
          [
            -79.21162,
            36.5628792
          ],
          [
            -79.2115883,
            36.5629047
          ],
          [
            -79.2115592,
            36.562932
          ],
          [
            -79.2115393,
            36.5629538
          ],
          [
            -79.211515,
            36.562984
          ],
          [
            -79.2114917,
            36.5630148
          ],
          [
            -79.2114699,
            36.5630462
          ],
          [
            -79.2114601,
            36.5630624
          ],
          [
            -79.2114476,
            36.5630875
          ],
          [
            -79.2114367,
            36.5631131
          ],
          [
            -79.2114271,
            36.563139
          ],
          [
            -79.2114191,
            36.5631652
          ],
          [
            -79.2114131,
            36.5631918
          ],
          [
            -79.211407,
            36.5632275
          ],
          [
            -79.2114024,
            36.5632634
          ],
          [
            -79.2114004,
            36.5632994
          ],
          [
            -79.2114027,
            36.5633714
          ],
          [
            -79.2114052,
            36.5633984
          ],
          [
            -79.2114176,
            36.5634879
          ],
          [
            -79.2114318,
            36.5635773
          ],
          [
            -79.2114398,
            36.5636128
          ],
          [
            -79.2114665,
            36.5637187
          ],
          [
            -79.2114787,
            36.5637627
          ],
          [
            -79.2114923,
            36.5638064
          ],
          [
            -79.2115073,
            36.5638498
          ],
          [
            -79.2115236,
            36.5638929
          ],
          [
            -79.2115922,
            36.5640549
          ],
          [
            -79.2116541,
            36.5641901
          ],
          [
            -79.2116822,
            36.564249
          ],
          [
            -79.2117159,
            36.5643157
          ],
          [
            -79.211763,
            36.564417
          ],
          [
            -79.211823,
            36.5645335
          ],
          [
            -79.211859,
            36.5645995
          ],
          [
            -79.2118779,
            36.5646321
          ],
          [
            -79.2118937,
            36.5646559
          ],
          [
            -79.2119272,
            36.5647027
          ],
          [
            -79.2119451,
            36.5647256
          ],
          [
            -79.211971,
            36.564755
          ],
          [
            -79.2120052,
            36.5647906
          ],
          [
            -79.2120338,
            36.5648183
          ],
          [
            -79.2120566,
            36.5648381
          ],
          [
            -79.2120728,
            36.5648505
          ],
          [
            -79.2121403,
            36.5648977
          ],
          [
            -79.212167,
            36.5649141
          ],
          [
            -79.2122489,
            36.5649611
          ],
          [
            -79.2123042,
            36.5649917
          ],
          [
            -79.2123425,
            36.5650103
          ],
          [
            -79.212478,
            36.5650732
          ],
          [
            -79.2125163,
            36.5650918
          ],
          [
            -79.2125349,
            36.5651017
          ],
          [
            -79.2125705,
            36.5651235
          ],
          [
            -79.2126299,
            36.5651645
          ],
          [
            -79.2126548,
            36.5651826
          ],
          [
            -79.2126778,
            36.5652023
          ],
          [
            -79.2127123,
            36.5652377
          ],
          [
            -79.2127313,
            36.56526
          ],
          [
            -79.2127429,
            36.5652754
          ],
          [
            -79.2127535,
            36.5652912
          ],
          [
            -79.2127627,
            36.5653076
          ],
          [
            -79.2127827,
            36.5653497
          ],
          [
            -79.2127929,
            36.5653755
          ],
          [
            -79.2127984,
            36.5653929
          ],
          [
            -79.2128096,
            36.5654371
          ],
          [
            -79.212816,
            36.5654727
          ],
          [
            -79.2128221,
            36.5655356
          ],
          [
            -79.2128255,
            36.5656076
          ],
          [
            -79.2128239,
            36.5656707
          ],
          [
            -79.2128211,
            36.5657157
          ],
          [
            -79.2128099,
            36.5658235
          ],
          [
            -79.2128001,
            36.5659042
          ],
          [
            -79.2127958,
            36.565931
          ],
          [
            -79.2127832,
            36.5659841
          ],
          [
            -79.2127599,
            36.5660722
          ],
          [
            -79.2127444,
            36.5661248
          ],
          [
            -79.2127327,
            36.5661596
          ],
          [
            -79.2127221,
            36.5661852
          ],
          [
            -79.2126917,
            36.566253
          ],
          [
            -79.2126793,
            36.5662781
          ],
          [
            -79.2126646,
            36.5663024
          ],
          [
            -79.2126426,
            36.5663338
          ],
          [
            -79.2126025,
            36.5663879
          ],
          [
            -79.2125775,
            36.5664178
          ],
          [
            -79.21255,
            36.5664462
          ],
          [
            -79.2125201,
            36.566473
          ],
          [
            -79.2124965,
            36.5664922
          ],
          [
            -79.2124319,
            36.566542
          ],
          [
            -79.2123902,
            36.5665719
          ],
          [
            -79.2123115,
            36.5666224
          ],
          [
            -79.2122616,
            36.5666585
          ],
          [
            -79.2122444,
            36.56667
          ],
          [
            -79.2121819,
            36.5667079
          ],
          [
            -79.212064,
            36.5667762
          ],
          [
            -79.211946,
            36.5668446
          ],
          [
            -79.2118058,
            36.5669185
          ],
          [
            -79.2117203,
            36.5669612
          ],
          [
            -79.2117018,
            36.5669713
          ],
          [
            -79.2116222,
            36.5670208
          ],
          [
            -79.2115968,
            36.5670385
          ],
          [
            -79.2115225,
            36.5670931
          ],
          [
            -79.2114966,
            36.5671102
          ],
          [
            -79.2114432,
            36.5671429
          ],
          [
            -79.2114004,
            36.5671718
          ],
          [
            -79.2113826,
            36.5671827
          ],
          [
            -79.2113269,
            36.5672128
          ],
          [
            -79.2112828,
            36.5672405
          ],
          [
            -79.2112644,
            36.5672506
          ],
          [
            -79.2112063,
            36.5672776
          ],
          [
            -79.2111501,
            36.567307
          ],
          [
            -79.2111303,
            36.5673154
          ],
          [
            -79.2110799,
            36.5673349
          ],
          [
            -79.2110216,
            36.5673615
          ],
          [
            -79.2109605,
            36.5673836
          ],
          [
            -79.2109007,
            36.5674081
          ],
          [
            -79.2108402,
            36.5674314
          ],
          [
            -79.2107814,
            36.5674573
          ],
          [
            -79.2107215,
            36.5674815
          ],
          [
            -79.2106634,
            36.5675085
          ],
          [
            -79.210603,
            36.5675319
          ],
          [
            -79.2105232,
            36.5675644
          ],
          [
            -79.210443,
            36.5675961
          ],
          [
            -79.2102942,
            36.5676582
          ],
          [
            -79.2101579,
            36.5677138
          ],
          [
            -79.2100217,
            36.5677694
          ],
          [
            -79.2098855,
            36.5678249
          ],
          [
            -79.2097854,
            36.5678649
          ],
          [
            -79.2095867,
            36.5679474
          ],
          [
            -79.2094857,
            36.5679857
          ],
          [
            -79.2093873,
            36.5680284
          ],
          [
            -79.2092478,
            36.5680855
          ],
          [
            -79.2091084,
            36.5681425
          ],
          [
            -79.2089696,
            36.5682006
          ],
          [
            -79.2088796,
            36.5682368
          ],
          [
            -79.2087335,
            36.5682932
          ],
          [
            -79.2085874,
            36.5683496
          ],
          [
            -79.208446,
            36.5684034
          ],
          [
            -79.2082829,
            36.5684624
          ],
          [
            -79.2081704,
            36.5685023
          ],
          [
            -79.2080579,
            36.5685422
          ],
          [
            -79.2079335,
            36.5685825
          ],
          [
            -79.2078603,
            36.5686044
          ],
          [
            -79.2077231,
            36.5686428
          ],
          [
            -79.2075729,
            36.568678
          ],
          [
            -79.2074759,
            36.5686994
          ],
          [
            -79.2073893,
            36.5687169
          ],
          [
            -79.2072694,
            36.5687386
          ],
          [
            -79.20716,
            36.5687568
          ],
          [
            -79.207072,
            36.5687694
          ],
          [
            -79.2069395,
            36.5687858
          ],
          [
            -79.2069061,
            36.5687885
          ],
          [
            -79.2068838,
            36.5687892
          ],
          [
            -79.2068392,
            36.5687877
          ],
          [
            -79.2066946,
            36.5687766
          ],
          [
            -79.2066612,
            36.5687754
          ],
          [
            -79.2066277,
            36.568776
          ],
          [
            -79.2064719,
            36.5687871
          ],
          [
            -79.206304,
            36.5688024
          ]
        ]
      }
    },
    {
      "type": "Feature",
      "properties": {
        "role": "start_finish",
        "name": "Start / Finish",
        "marker": 0.0
      },
      "geometry": {
        "type": "Point",
        "coordinates": [
          -79.2063054,
          36.5688023
        ]
      }
    },
    {
      "type": "Feature",
      "properties": {
        "role": "pit_entry",
        "name": "Pit Entry",
        "marker": 0.89996
      },
      "geometry": {
        "type": "Point",
        "coordinates": [
          -79.2116575,
          36.5669988
        ]
      }
    },
    {
      "type": "Feature",
      "properties": {
        "role": "pit_exit",
        "name": "Pit Exit",
        "marker": 0.01497
      },
      "geometry": {
        "type": "Point",
        "coordinates": [
          -79.205426,
          36.5688568
        ]
      }
    },
    {
      "type": "Feature",
      "properties": {
        "role": "corner",
        "id": "t1",
        "number": 1,
        "code": "1",
        "display": "Horseshoe",
        "labels": {
          "numbered": "Turn 1",
          "driver": "Horseshoe"
        },
        "direction": "right",
        "scale": 1,
        "marker": 0.07394
      },
      "geometry": {
        "type": "Point",
        "coordinates": [
          -79.2021842,
          36.5684172
        ]
      }
    },
    {
      "type": "Feature",
      "properties": {
        "role": "corner",
        "id": "t2",
        "number": 2,
        "code": "2",
        "display": "Turn 2",
        "labels": {
          "numbered": "Turn 2"
        },
        "direction": "left",
        "scale": 4,
        "marker": 0.13041
      },
      "geometry": {
        "type": "Point",
        "coordinates": [
          -79.2050615,
          36.5682736
        ]
      }
    },
    {
      "type": "Feature",
      "properties": {
        "role": "corner",
        "id": "t3",
        "number": 3,
        "code": "3",
        "display": "NASCAR",
        "labels": {
          "numbered": "Turn 3",
          "driver": "NASCAR"
        },
        "direction": "right",
        "scale": 3,
        "marker": 0.16501
      },
      "geometry": {
        "type": "Point",
        "coordinates": [
          -79.2063878,
          36.5673594
        ]
      }
    },
    {
      "type": "Feature",
      "properties": {
        "role": "corner",
        "id": "t4",
        "number": 4,
        "code": "4",
        "display": "Left Hook",
        "labels": {
          "numbered": "Turn 4",
          "driver": "Left Hook"
        },
        "direction": "left",
        "scale": 2,
        "marker": 0.19486
      },
      "geometry": {
        "type": "Point",
        "coordinates": [
          -79.2057424,
          36.5660765
        ]
      }
    },
    {
      "type": "Feature",
      "properties": {
        "role": "corner",
        "id": "t5",
        "number": 5,
        "code": "5",
        "display": "Climbing Esses",
        "labels": {
          "numbered": "Turn 5",
          "driver": "Climbing Esses"
        },
        "direction": "right",
        "scale": 4,
        "marker": 0.20741
      },
      "geometry": {
        "type": "Point",
        "coordinates": [
          -79.2050322,
          36.5661963
        ]
      }
    },
    {
      "type": "Feature",
      "properties": {
        "role": "corner",
        "id": "t6",
        "number": 6,
        "code": "6",
        "display": "Climbing Esses",
        "labels": {
          "numbered": "Turn 6",
          "driver": "Climbing Esses"
        },
        "direction": "left",
        "scale": 4,
        "marker": 0.24373
      },
      "geometry": {
        "type": "Point",
        "coordinates": [
          -79.2044215,
          36.5648141
        ]
      }
    },
    {
      "type": "Feature",
      "properties": {
        "role": "corner",
        "id": "t7",
        "number": 7,
        "code": "7",
        "display": "Snake",
        "labels": {
          "numbered": "Turn 7",
          "driver": "Snake"
        },
        "direction": "left",
        "scale": 2,
        "marker": 0.26806
      },
      "geometry": {
        "type": "Point",
        "coordinates": [
          -79.2046675,
          36.5636899
        ]
      }
    },
    {
      "type": "Feature",
      "properties": {
        "role": "corner",
        "id": "t8",
        "number": 8,
        "code": "8",
        "display": "Spiral",
        "labels": {
          "numbered": "Turn 8",
          "driver": "Spiral"
        },
        "direction": "right",
        "scale": 2,
        "marker": 0.37967
      },
      "geometry": {
        "type": "Point",
        "coordinates": [
          -79.2046417,
          36.558434
        ]
      }
    },
    {
      "type": "Feature",
      "properties": {
        "role": "corner",
        "id": "t9",
        "number": 9,
        "code": "9",
        "display": "Spiral",
        "labels": {
          "numbered": "Turn 9",
          "driver": "Spiral"
        },
        "direction": "left",
        "scale": 3,
        "marker": 0.39659
      },
      "geometry": {
        "type": "Point",
        "coordinates": [
          -79.2047537,
          36.5576427
        ]
      }
    },
    {
      "type": "Feature",
      "properties": {
        "role": "corner",
        "id": "t10",
        "number": 10,
        "code": "10",
        "display": "Spiral",
        "labels": {
          "numbered": "Turn 10",
          "driver": "Spiral"
        },
        "direction": "right",
        "scale": 3,
        "marker": 0.40553
      },
      "geometry": {
        "type": "Point",
        "coordinates": [
          -79.2046368,
          36.5572301
        ]
      }
    },
    {
      "type": "Feature",
      "properties": {
        "role": "corner",
        "id": "t11",
        "number": 11,
        "code": "11",
        "display": "Spiral",
        "labels": {
          "numbered": "Turn 11",
          "driver": "Spiral"
        },
        "direction": "left",
        "scale": 3,
        "marker": 0.40952
      },
      "geometry": {
        "type": "Point",
        "coordinates": [
          -79.2046166,
          36.5570418
        ]
      }
    },
    {
      "type": "Feature",
      "properties": {
        "role": "corner",
        "id": "t12",
        "number": 12,
        "code": "12",
        "display": "South Bend",
        "labels": {
          "numbered": "Turn 12",
          "driver": "South Bend"
        },
        "direction": "right",
        "scale": 3,
        "marker": 0.45496
      },
      "geometry": {
        "type": "Point",
        "coordinates": [
          -79.2053608,
          36.5549913
        ]
      }
    },
    {
      "type": "Feature",
      "properties": {
        "role": "corner",
        "id": "t13",
        "number": 13,
        "code": "13",
        "display": "Oak Tree",
        "labels": {
          "numbered": "Turn 13",
          "driver": "Oak Tree"
        },
        "direction": "left",
        "scale": 4,
        "marker": 0.53025
      },
      "geometry": {
        "type": "Point",
        "coordinates": [
          -79.2050839,
          36.5519152
        ]
      }
    },
    {
      "type": "Feature",
      "properties": {
        "role": "corner",
        "id": "t14",
        "number": 14,
        "code": "14",
        "display": "Roller Coaster",
        "labels": {
          "numbered": "Turn 14",
          "driver": "Roller Coaster"
        },
        "direction": "right",
        "scale": 5,
        "marker": 0.78028
      },
      "geometry": {
        "type": "Point",
        "coordinates": [
          -79.2119641,
          36.5622989
        ]
      }
    },
    {
      "type": "Feature",
      "properties": {
        "role": "corner",
        "id": "t15",
        "number": 15,
        "code": "15",
        "display": "Hog Pen",
        "labels": {
          "numbered": "Turn 15",
          "driver": "Hog Pen"
        },
        "direction": "left",
        "scale": 2,
        "marker": 0.83941
      },
      "geometry": {
        "type": "Point",
        "coordinates": [
          -79.2120414,
          36.5648249
        ]
      }
    },
    {
      "type": "Feature",
      "properties": {
        "role": "corner",
        "id": "t16",
        "number": 16,
        "code": "16",
        "display": "Turn 17",
        "labels": {
          "numbered": "Turn 16",
          "driver": "Turn 17",
          "official": "Turn 17"
        },
        "direction": "right",
        "scale": 5,
        "marker": 0.08352
      },
      "geometry": {
        "type": "Point",
        "coordinates": [
          -79.2024326,
          36.5680244
        ]
      }
    }
  ]
}