{
  "type": "FeatureCollection",
  "features": [
    {
      "type": "Feature",
      "properties": {
        "role": "outline",
        "layout": "gp",
        "basis": "midline"
      },
      "geometry": {
        "type": "LineString",
        "coordinates": [
          [
            -81.0726402,
            29.1878559
          ],
          [
            -81.0727481,
            29.1877342
          ],
          [
            -81.0728174,
            29.1876501
          ],
          [
            -81.0728867,
            29.187566
          ],
          [
            -81.0728926,
            29.1875587
          ],
          [
            -81.0729039,
            29.1875436
          ],
          [
            -81.0729357,
            29.1874972
          ],
          [
            -81.0729412,
            29.1874896
          ],
          [
            -81.0729706,
            29.1874526
          ],
          [
            -81.0730099,
            29.1873997
          ],
          [
            -81.0731117,
            29.1872534
          ],
          [
            -81.0731426,
            29.1872065
          ],
          [
            -81.0731762,
            29.1871507
          ],
          [
            -81.0732085,
            29.1870942
          ],
          [
            -81.0732468,
            29.1870304
          ],
          [
            -81.0732699,
            29.18699
          ],
          [
            -81.0732995,
            29.1869425
          ],
          [
            -81.0733219,
            29.186902
          ],
          [
            -81.0733462,
            29.1868522
          ],
          [
            -81.073389,
            29.1867701
          ],
          [
            -81.0734386,
            29.186671
          ],
          [
            -81.0734665,
            29.1866128
          ],
          [
            -81.0734934,
            29.1865542
          ],
          [
            -81.0735542,
            29.1864104
          ],
          [
            -81.0735875,
            29.1863251
          ],
          [
            -81.073642,
            29.1861793
          ],
          [
            -81.0736811,
            29.1860671
          ],
          [
            -81.0736885,
            29.1860503
          ],
          [
            -81.0737407,
            29.1859423
          ],
          [
            -81.0737481,
            29.1859255
          ],
          [
            -81.0737717,
            29.1858564
          ],
          [
            -81.0737821,
            29.1858214
          ],
          [
            -81.0738034,
            29.1857424
          ],
          [
            -81.073839,
            29.1856293
          ],
          [
            -81.0738746,
            29.1855163
          ],
          [
            -81.0738844,
            29.1854812
          ],
          [
            -81.0738878,
            29.1854635
          ],
          [
            -81.0738889,
            29.1854454
          ],
          [
            -81.073885,
            29.1853914
          ],
          [
            -81.0738775,
            29.1853468
          ],
          [
            -81.0738602,
            29.1852762
          ],
          [
            -81.0738577,
            29.1852583
          ],
          [
            -81.0738568,
            29.1852403
          ],
          [
            -81.0738572,
            29.1852313
          ],
          [
            -81.0738585,
            29.1852133
          ],
          [
            -81.0738596,
            29.1852043
          ],
          [
            -81.0738645,
            29.1851776
          ],
          [
            -81.0738693,
            29.1851601
          ],
          [
            -81.0738866,
            29.1851081
          ],
          [
            -81.0738913,
            29.1850905
          ],
          [
            -81.0738933,
            29.1850817
          ],
          [
            -81.0738983,
            29.185055
          ],
          [
            -81.0739025,
            29.1850191
          ],
          [
            -81.0739053,
            29.184974
          ],
          [
            -81.073908,
            29.1849019
          ],
          [
            -81.0739078,
            29.1848297
          ],
          [
            -81.0739104,
            29.1847937
          ],
          [
            -81.0739111,
            29.1847396
          ],
          [
            -81.0739171,
            29.1846134
          ],
          [
            -81.0739161,
            29.1845773
          ],
          [
            -81.0739111,
            29.1845415
          ],
          [
            -81.0739002,
            29.1844974
          ],
          [
            -81.0738806,
            29.1844366
          ],
          [
            -81.0738444,
            29.1843331
          ],
          [
            -81.0738089,
            29.1842389
          ],
          [
            -81.0737951,
            29.1842049
          ],
          [
            -81.0737803,
            29.1841712
          ],
          [
            -81.0737161,
            29.1840383
          ],
          [
            -81.0737029,
            29.1840138
          ],
          [
            -81.0736884,
            29.18399
          ],
          [
            -81.0736724,
            29.1839668
          ],
          [
            -81.0736547,
            29.1839446
          ],
          [
            -81.073635,
            29.1839238
          ],
          [
            -81.0736132,
            29.1839047
          ],
          [
            -81.0735897,
            29.1838872
          ],
          [
            -81.0735729,
            29.1838768
          ],
          [
            -81.0735464,
            29.1838629
          ],
          [
            -81.073528,
            29.1838548
          ],
          [
            -81.0735092,
            29.1838475
          ],
          [
            -81.0734705,
            29.1838353
          ],
          [
            -81.0734307,
            29.1838263
          ],
          [
            -81.0733901,
            29.1838204
          ],
          [
            -81.0733697,
            29.1838186
          ],
          [
            -81.0733491,
            29.1838178
          ],
          [
            -81.0733183,
            29.1838188
          ],
          [
            -81.0732775,
            29.1838235
          ],
          [
            -81.073237,
            29.1838297
          ],
          [
            -81.0731868,
            29.1838395
          ],
          [
            -81.0731373,
            29.1838517
          ],
          [
            -81.0730984,
            29.1838633
          ],
          [
            -81.0730602,
            29.1838766
          ],
          [
            -81.0730227,
            29.1838915
          ],
          [
            -81.0729768,
            29.1839118
          ],
          [
            -81.0729406,
            29.183929
          ],
          [
            -81.0729221,
            29.1839367
          ],
          [
            -81.0728553,
            29.1839603
          ],
          [
            -81.0728261,
            29.1839692
          ],
          [
            -81.072787,
            29.1839801
          ],
          [
            -81.0727679,
            29.1839869
          ],
          [
            -81.0727501,
            29.1839959
          ],
          [
            -81.0727253,
            29.1840119
          ],
          [
            -81.0725888,
            29.1841078
          ],
          [
            -81.0725573,
            29.184131
          ],
          [
            -81.0725343,
            29.184149
          ],
          [
            -81.0725121,
            29.1841678
          ],
          [
            -81.0724767,
            29.1842005
          ],
          [
            -81.0723653,
            29.1843068
          ],
          [
            -81.0722759,
            29.1843939
          ],
          [
            -81.0722545,
            29.1844135
          ],
          [
            -81.0722396,
            29.1844259
          ],
          [
            -81.0722161,
            29.1844434
          ],
          [
            -81.0721917,
            29.1844599
          ],
          [
            -81.0721666,
            29.1844757
          ],
          [
            -81.0721316,
            29.1844947
          ],
          [
            -81.0720953,
            29.1845116
          ],
          [
            -81.0719461,
            29.1845724
          ],
          [
            -81.0719175,
            29.1845825
          ],
          [
            -81.0718692,
            29.1845979
          ],
          [
            -81.0717617,
            29.1846287
          ],
          [
            -81.0717328,
            29.1846384
          ],
          [
            -81.0717046,
            29.1846492
          ],
          [
            -81.0716585,
            29.1846692
          ],
          [
            -81.0716225,
            29.1846867
          ],
          [
            -81.0715966,
            29.1847014
          ],
          [
            -81.0715722,
            29.1847179
          ],
          [
            -81.0715341,
            29.1847482
          ],
          [
            -81.0714978,
            29.1847801
          ],
          [
            -81.0714634,
            29.1848137
          ],
          [
            -81.0714246,
            29.1848557
          ],
          [
            -81.0714124,
            29.1848703
          ],
          [
            -81.0714013,
            29.1848855
          ],
          [
            -81.0713364,
            29.184988
          ],
          [
            -81.0713103,
            29.1850269
          ],
          [
            -81.0712928,
            29.1850492
          ],
          [
            -81.0711843,
            29.1851694
          ],
          [
            -81.0711034,
            29.1852628
          ],
          [
            -81.0710226,
            29.1853562
          ],
          [
            -81.0709272,
            29.1854626
          ],
          [
            -81.0708273,
            29.1855773
          ],
          [
            -81.0707262,
            29.1856911
          ],
          [
            -81.0706251,
            29.185805
          ],
          [
            -81.0705316,
            29.1859126
          ],
          [
            -81.0705055,
            29.1859406
          ],
          [
            -81.070471,
            29.185974
          ],
          [
            -81.0704579,
            29.1859879
          ],
          [
            -81.070394,
            29.1860643
          ],
          [
            -81.0703301,
            29.1861406
          ],
          [
            -81.0702668,
            29.1862117
          ],
          [
            -81.0702233,
            29.186262
          ],
          [
            -81.0701903,
            29.1862966
          ],
          [
            -81.0701691,
            29.1863163
          ],
          [
            -81.0701543,
            29.1863288
          ],
          [
            -81.0701311,
            29.1863466
          ],
          [
            -81.0701149,
            29.1863578
          ],
          [
            -81.0700898,
            29.1863735
          ],
          [
            -81.0700724,
            29.1863831
          ],
          [
            -81.0700455,
            29.1863963
          ],
          [
            -81.0700269,
            29.1864041
          ],
          [
            -81.0699984,
            29.1864143
          ],
          [
            -81.0699692,
            29.1864231
          ],
          [
            -81.0699393,
            29.1864298
          ],
          [
            -81.0699191,
            29.186433
          ],
          [
            -81.0698986,
            29.1864349
          ],
          [
            -81.0698678,
            29.1864359
          ],
          [
            -81.069837,
            29.1864345
          ],
          [
            -81.0698064,
            29.1864313
          ],
          [
            -81.0697761,
            29.1864262
          ],
          [
            -81.0697462,
            29.1864193
          ],
          [
            -81.0697172,
            29.1864103
          ],
          [
            -81.0696985,
            29.1864027
          ],
          [
            -81.0696807,
            29.1863937
          ],
          [
            -81.0696637,
            29.1863835
          ],
          [
            -81.0696476,
            29.1863723
          ],
          [
            -81.069625,
            29.1863539
          ],
          [
            -81.0696043,
            29.1863339
          ],
          [
            -81.0695917,
            29.1863196
          ],
          [
            -81.0695803,
            29.1863046
          ],
          [
            -81.0695657,
            29.1862807
          ],
          [
            -81.0695575,
            29.1862642
          ],
          [
            -81.0695474,
            29.1862386
          ],
          [
            -81.0695393,
            29.1862125
          ],
          [
            -81.0695334,
            29.1861859
          ],
          [
            -81.0695296,
            29.1861591
          ],
          [
            -81.0695284,
            29.1861411
          ],
          [
            -81.069529,
            29.186114
          ],
          [
            -81.0695322,
            29.1860871
          ],
          [
            -81.0695381,
            29.1860605
          ],
          [
            -81.0695436,
            29.1860431
          ],
          [
            -81.0695538,
            29.1860176
          ],
          [
            -81.0695938,
            29.1859296
          ],
          [
            -81.0696337,
            29.1858416
          ],
          [
            -81.069651,
            29.1858088
          ],
          [
            -81.0696889,
            29.1857448
          ],
          [
            -81.0697202,
            29.1856879
          ],
          [
            -81.0697282,
            29.1856713
          ],
          [
            -81.0697498,
            29.1856206
          ],
          [
            -81.0697667,
            29.1855877
          ],
          [
            -81.0697902,
            29.1855475
          ],
          [
            -81.0698733,
            29.1854126
          ],
          [
            -81.0699295,
            29.1853265
          ],
          [
            -81.0699714,
            29.1852644
          ],
          [
            -81.0700007,
            29.1852167
          ],
          [
            -81.0700113,
            29.1852012
          ],
          [
            -81.0700741,
            29.1851187
          ],
          [
            -81.0701369,
            29.1850362
          ],
          [
            -81.0701947,
            29.1849615
          ],
          [
            -81.0703026,
            29.1848296
          ],
          [
            -81.0703814,
            29.1847349
          ],
          [
            -81.0704601,
            29.1846401
          ],
          [
            -81.0705576,
            29.1845238
          ],
          [
            -81.0706551,
            29.1844075
          ],
          [
            -81.0707548,
            29.184287
          ],
          [
            -81.0708544,
            29.1841665
          ],
          [
            -81.0709282,
            29.1840798
          ],
          [
            -81.0709821,
            29.1840138
          ],
          [
            -81.0710432,
            29.1839412
          ],
          [
            -81.0711043,
            29.1838686
          ],
          [
            -81.0711758,
            29.1837804
          ],
          [
            -81.0712432,
            29.1837007
          ],
          [
            -81.0713105,
            29.1836209
          ],
          [
            -81.0714041,
            29.1835078
          ],
          [
            -81.0714978,
            29.1833946
          ],
          [
            -81.0716077,
            29.1832639
          ],
          [
            -81.0717257,
            29.1831273
          ],
          [
            -81.0718173,
            29.1830184
          ],
          [
            -81.0718696,
            29.1829515
          ],
          [
            -81.0718753,
            29.1829439
          ],
          [
            -81.0718911,
            29.1829207
          ],
          [
            -81.0719586,
            29.1828091
          ],
          [
            -81.0719806,
            29.1827684
          ],
          [
            -81.0719921,
            29.1827433
          ],
          [
            -81.072002,
            29.1827176
          ],
          [
            -81.0720109,
            29.1826917
          ],
          [
            -81.0720215,
            29.1826569
          ],
          [
            -81.0720253,
            29.1826391
          ],
          [
            -81.0720331,
            29.1825854
          ],
          [
            -81.0720463,
            29.1824687
          ],
          [
            -81.0720512,
            29.1824147
          ],
          [
            -81.0720534,
            29.1823787
          ],
          [
            -81.0720546,
            29.1823426
          ],
          [
            -81.072055,
            29.1822524
          ],
          [
            -81.0720535,
            29.1821532
          ],
          [
            -81.0720485,
            29.1820089
          ],
          [
            -81.0720403,
            29.1818918
          ],
          [
            -81.0720284,
            29.1817659
          ],
          [
            -81.0720115,
            29.1816405
          ],
          [
            -81.0719927,
            29.1815152
          ],
          [
            -81.0719843,
            29.1814344
          ],
          [
            -81.0719798,
            29.1813804
          ],
          [
            -81.0719721,
            29.1813085
          ],
          [
            -81.071971,
            29.1812995
          ],
          [
            -81.0719652,
            29.1812638
          ],
          [
            -81.0719478,
            29.1811841
          ],
          [
            -81.0719435,
            29.1811573
          ],
          [
            -81.0719424,
            29.1811483
          ],
          [
            -81.07194,
            29.1811032
          ],
          [
            -81.0719397,
            29.1810311
          ],
          [
            -81.0719384,
            29.1810131
          ],
          [
            -81.0719374,
            29.1810041
          ],
          [
            -81.0719361,
            29.1809951
          ],
          [
            -81.0719292,
            29.1809596
          ],
          [
            -81.0719202,
            29.1809243
          ],
          [
            -81.0719116,
            29.1808984
          ],
          [
            -81.0718893,
            29.1808383
          ],
          [
            -81.0718758,
            29.1807948
          ],
          [
            -81.0718716,
            29.1807771
          ],
          [
            -81.0718698,
            29.1807682
          ],
          [
            -81.0718644,
            29.1807234
          ],
          [
            -81.0718552,
            29.1806154
          ],
          [
            -81.0718532,
            29.1805794
          ],
          [
            -81.0718528,
            29.1805433
          ],
          [
            -81.0718539,
            29.1805253
          ],
          [
            -81.0718617,
            29.1804625
          ],
          [
            -81.071866,
            29.1804357
          ],
          [
            -81.0718717,
            29.1804091
          ],
          [
            -81.0718786,
            29.1803827
          ],
          [
            -81.0718869,
            29.1803566
          ],
          [
            -81.0719188,
            29.1802709
          ],
          [
            -81.0719331,
            29.180237
          ],
          [
            -81.071945,
            29.1802121
          ],
          [
            -81.0719705,
            29.1801628
          ],
          [
            -81.0719841,
            29.1801385
          ],
          [
            -81.0719889,
            29.1801305
          ],
          [
            -81.0720046,
            29.1801072
          ],
          [
            -81.0720163,
            29.1800924
          ],
          [
            -81.072029,
            29.1800782
          ],
          [
            -81.0720428,
            29.1800648
          ],
          [
            -81.0720575,
            29.1800522
          ],
          [
            -81.0720729,
            29.1800403
          ],
          [
            -81.0720809,
            29.1800346
          ],
          [
            -81.0720974,
            29.1800238
          ],
          [
            -81.0721058,
            29.1800187
          ],
          [
            -81.0721233,
            29.1800092
          ],
          [
            -81.0721323,
            29.1800047
          ],
          [
            -81.0721508,
            29.1799969
          ],
          [
            -81.0721699,
            29.1799904
          ],
          [
            -81.0721897,
            29.1799854
          ],
          [
            -81.0722098,
            29.1799815
          ],
          [
            -81.0722199,
            29.1799799
          ],
          [
            -81.0722505,
            29.1799768
          ],
          [
            -81.072271,
            29.179976
          ],
          [
            -81.0722916,
            29.1799764
          ],
          [
            -81.0723121,
            29.1799779
          ],
          [
            -81.0723324,
            29.1799805
          ],
          [
            -81.0723626,
            29.1799859
          ],
          [
            -81.0724125,
            29.1799969
          ],
          [
            -81.072442,
            29.1800046
          ],
          [
            -81.072471,
            29.1800139
          ],
          [
            -81.072509,
            29.1800278
          ],
          [
            -81.0725369,
            29.1800394
          ],
          [
            -81.0725641,
            29.180052
          ],
          [
            -81.0725909,
            29.1800655
          ],
          [
            -81.0726168,
            29.1800802
          ],
          [
            -81.0726416,
            29.1800962
          ],
          [
            -81.0726655,
            29.1801133
          ],
          [
            -81.0726883,
            29.1801315
          ],
          [
            -81.0727097,
            29.180151
          ],
          [
            -81.0727298,
            29.1801716
          ],
          [
            -81.0727422,
            29.1801859
          ],
          [
            -81.0727595,
            29.1802083
          ],
          [
            -81.0727754,
            29.1802315
          ],
          [
            -81.0727893,
            29.1802557
          ],
          [
            -81.0728014,
            29.1802806
          ],
          [
            -81.0728158,
            29.1803144
          ],
          [
            -81.0728291,
            29.1803485
          ],
          [
            -81.0728382,
            29.1803744
          ],
          [
            -81.0728433,
            29.1803919
          ],
          [
            -81.0728704,
            29.1805067
          ],
          [
            -81.0728834,
            29.180578
          ],
          [
            -81.072899,
            29.1806763
          ],
          [
            -81.0729145,
            29.1807746
          ],
          [
            -81.0729157,
            29.1807836
          ],
          [
            -81.0729213,
            29.1808465
          ],
          [
            -81.0729254,
            29.1809367
          ],
          [
            -81.0729284,
            29.1809636
          ],
          [
            -81.072937,
            29.1810263
          ],
          [
            -81.0729385,
            29.1810352
          ],
          [
            -81.0729445,
            29.1810618
          ],
          [
            -81.0729759,
            29.1811758
          ],
          [
            -81.0729894,
            29.1812286
          ],
          [
            -81.0729986,
            29.181273
          ],
          [
            -81.0730083,
            29.1813265
          ],
          [
            -81.0730319,
            29.1814739
          ],
          [
            -81.0730556,
            29.1816213
          ],
          [
            -81.0730793,
            29.1817687
          ],
          [
            -81.0731029,
            29.1819161
          ],
          [
            -81.073118,
            29.1820054
          ],
          [
            -81.073129,
            29.182086
          ],
          [
            -81.0731507,
            29.18222
          ],
          [
            -81.0731544,
            29.1822469
          ],
          [
            -81.0731562,
            29.1822649
          ],
          [
            -81.0731567,
            29.1822739
          ],
          [
            -81.0731587,
            29.182337
          ],
          [
            -81.0731601,
            29.182355
          ],
          [
            -81.0731611,
            29.182364
          ],
          [
            -81.0731756,
            29.1824533
          ],
          [
            -81.0731808,
            29.18248
          ],
          [
            -81.0731829,
            29.1824888
          ],
          [
            -81.0732255,
            29.1826376
          ],
          [
            -81.0732277,
            29.1826464
          ],
          [
            -81.0732353,
            29.1826818
          ],
          [
            -81.073245,
            29.1827353
          ],
          [
            -81.0732523,
            29.1827708
          ],
          [
            -81.0732883,
            29.1829117
          ],
          [
            -81.0733064,
            29.1829728
          ],
          [
            -81.0733152,
            29.1829987
          ],
          [
            -81.0733249,
            29.1830244
          ],
          [
            -81.073336,
            29.1830497
          ],
          [
            -81.0733402,
            29.1830579
          ],
          [
            -81.0733493,
            29.1830741
          ],
          [
            -81.0733544,
            29.1830819
          ],
          [
            -81.0733657,
            29.183097
          ],
          [
            -81.0733718,
            29.1831042
          ],
          [
            -81.0733784,
            29.1831111
          ],
          [
            -81.0733854,
            29.1831177
          ],
          [
            -81.0733928,
            29.183124
          ],
          [
            -81.0734005,
            29.18313
          ],
          [
            -81.0734086,
            29.1831355
          ],
          [
            -81.073417,
            29.1831407
          ],
          [
            -81.0734258,
            29.1831454
          ],
          [
            -81.0734348,
            29.1831496
          ],
          [
            -81.0734536,
            29.1831571
          ],
          [
            -81.0734631,
            29.1831604
          ],
          [
            -81.0734826,
            29.1831661
          ],
          [
            -81.0734925,
            29.1831686
          ],
          [
            -81.0735224,
            29.1831752
          ],
          [
            -81.0735325,
            29.1831771
          ],
          [
            -81.0735527,
            29.1831801
          ],
          [
            -81.0735629,
            29.1831812
          ],
          [
            -81.0735834,
            29.1831826
          ],
          [
            -81.0735937,
            29.1831828
          ],
          [
            -81.073604,
            29.1831827
          ],
          [
            -81.0736142,
            29.1831822
          ],
          [
            -81.0736347,
            29.1831806
          ],
          [
            -81.0736449,
            29.1831794
          ],
          [
            -81.0736956,
            29.183172
          ],
          [
            -81.0737157,
            29.1831683
          ],
          [
            -81.0737257,
            29.1831661
          ],
          [
            -81.0738243,
            29.1831405
          ],
          [
            -81.073834,
            29.1831377
          ],
          [
            -81.0738726,
            29.1831252
          ],
          [
            -81.0739108,
            29.1831117
          ],
          [
            -81.0739577,
            29.1830933
          ],
          [
            -81.0740318,
            29.183062
          ],
          [
            -81.074188,
            29.1829931
          ],
          [
            -81.074197,
            29.1829888
          ],
          [
            -81.0742148,
            29.1829798
          ],
          [
            -81.0742411,
            29.1829656
          ],
          [
            -81.07425,
            29.1829612
          ],
          [
            -81.0742957,
            29.1829403
          ],
          [
            -81.0743046,
            29.1829359
          ],
          [
            -81.0743308,
            29.1829216
          ],
          [
            -81.0743477,
            29.1829113
          ],
          [
            -81.074364,
            29.1829004
          ],
          [
            -81.0743877,
            29.1828831
          ],
          [
            -81.0744721,
            29.182817
          ],
          [
            -81.0744943,
            29.1827982
          ],
          [
            -81.0745151,
            29.1827782
          ],
          [
            -81.0745477,
            29.1827433
          ],
          [
            -81.0745917,
            29.1826933
          ],
          [
            -81.0746114,
            29.1826725
          ],
          [
            -81.0746324,
            29.1826527
          ],
          [
            -81.0746907,
            29.1826018
          ],
          [
            -81.0747181,
            29.1825748
          ],
          [
            -81.0747302,
            29.1825603
          ],
          [
            -81.0747353,
            29.1825524
          ],
          [
            -81.0747393,
            29.1825442
          ],
          [
            -81.0747475,
            29.1825181
          ],
          [
            -81.0747825,
            29.1823724
          ],
          [
            -81.0748174,
            29.1822267
          ],
          [
            -81.0748349,
            29.1821378
          ],
          [
            -81.0748545,
            29.1820493
          ],
          [
            -81.0748643,
            29.1819958
          ],
          [
            -81.0748746,
            29.1819333
          ],
          [
            -81.074882,
            29.1818978
          ],
          [
            -81.074887,
            29.1818803
          ],
          [
            -81.0749032,
            29.1818375
          ],
          [
            -81.074915,
            29.1818029
          ],
          [
            -81.0749283,
            29.1817593
          ],
          [
            -81.0749337,
            29.1817327
          ],
          [
            -81.0749431,
            29.1816247
          ],
          [
            -81.0749491,
            29.1815347
          ],
          [
            -81.0749523,
            29.1814445
          ],
          [
            -81.0749533,
            29.1813543
          ],
          [
            -81.0749519,
            29.1812731
          ],
          [
            -81.0749491,
            29.18121
          ],
          [
            -81.0749421,
            29.1811199
          ],
          [
            -81.074933,
            29.1810391
          ],
          [
            -81.0749182,
            29.1809407
          ],
          [
            -81.0749016,
            29.1808517
          ],
          [
            -81.0748858,
            29.1807809
          ],
          [
            -81.0748711,
            29.1807283
          ],
          [
            -81.0748578,
            29.1806754
          ],
          [
            -81.0748474,
            29.1806405
          ],
          [
            -81.0748331,
            29.1805972
          ],
          [
            -81.0747903,
            29.1804766
          ],
          [
            -81.074763,
            29.1804085
          ],
          [
            -81.0747552,
            29.1803918
          ],
          [
            -81.0747458,
            29.1803757
          ],
          [
            -81.0747352,
            29.1803603
          ],
          [
            -81.0747179,
            29.1803379
          ],
          [
            -81.0746673,
            29.180281
          ],
          [
            -81.0746383,
            29.1802437
          ],
          [
            -81.0746279,
            29.1802282
          ],
          [
            -81.0746232,
            29.1802202
          ],
          [
            -81.0746091,
            29.1801961
          ],
          [
            -81.0745823,
            29.1801473
          ],
          [
            -81.0745246,
            29.1800516
          ],
          [
            -81.0744624,
            29.1799581
          ],
          [
            -81.074403,
            29.1798737
          ],
          [
            -81.07438,
            29.1798437
          ],
          [
            -81.0743321,
            29.179785
          ],
          [
            -81.0742773,
            29.1797197
          ],
          [
            -81.0742332,
            29.1796697
          ],
          [
            -81.0741944,
            29.1796276
          ],
          [
            -81.0740938,
            29.179525
          ],
          [
            -81.0740587,
            29.1794921
          ],
          [
            -81.0739938,
            29.1794342
          ],
          [
            -81.0739191,
            29.1793722
          ],
          [
            -81.0738194,
            29.1792941
          ],
          [
            -81.073788,
            29.1792708
          ],
          [
            -81.0737079,
            29.1792142
          ],
          [
            -81.0736503,
            29.1791764
          ],
          [
            -81.0736003,
            29.1791446
          ],
          [
            -81.0734982,
            29.1790838
          ],
          [
            -81.0734723,
            29.1790691
          ],
          [
            -81.0733749,
            29.1790186
          ],
          [
            -81.0732855,
            29.1789741
          ],
          [
            -81.073222,
            29.1789444
          ],
          [
            -81.0731301,
            29.1789039
          ],
          [
            -81.0730835,
            29.1788849
          ],
          [
            -81.0729887,
            29.1788499
          ],
          [
            -81.0728547,
            29.1788039
          ],
          [
            -81.0727964,
            29.1787861
          ],
          [
            -81.0727377,
            29.1787694
          ],
          [
            -81.0726788,
            29.1787534
          ],
          [
            -81.0726195,
            29.1787386
          ],
          [
            -81.0725597,
            29.178725
          ],
          [
            -81.0724997,
            29.1787125
          ],
          [
            -81.0723991,
            29.178694
          ],
          [
            -81.0723486,
            29.1786855
          ],
          [
            -81.0721655,
            29.1786619
          ],
          [
            -81.0721348,
            29.1786592
          ],
          [
            -81.0720835,
            29.1786564
          ],
          [
            -81.0720324,
            29.1786515
          ],
          [
            -81.0720016,
            29.1786493
          ],
          [
            -81.07194,
            29.1786464
          ],
          [
            -81.0718681,
            29.1786439
          ],
          [
            -81.0718373,
            29.1786434
          ],
          [
            -81.0718064,
            29.1786439
          ],
          [
            -81.0717448,
            29.1786466
          ],
          [
            -81.0716421,
            29.1786495
          ],
          [
            -81.0715907,
            29.1786517
          ],
          [
            -81.0714168,
            29.178667
          ],
          [
            -81.0713352,
            29.1786764
          ],
          [
            -81.0712541,
            29.1786883
          ],
          [
            -81.0711734,
            29.1787021
          ],
          [
            -81.071103,
            29.1787154
          ],
          [
            -81.0710331,
            29.1787305
          ],
          [
            -81.0709537,
            29.1787494
          ],
          [
            -81.0708848,
            29.1787676
          ],
          [
            -81.0708066,
            29.1787899
          ],
          [
            -81.0707389,
            29.1788114
          ],
          [
            -81.0706622,
            29.1788373
          ],
          [
            -81.070567,
            29.1788714
          ],
          [
            -81.0705012,
            29.1788971
          ],
          [
            -81.0704455,
            29.1789202
          ],
          [
            -81.0704087,
            29.1789365
          ],
          [
            -81.0702909,
            29.1789918
          ],
          [
            -81.0702102,
            29.1790315
          ],
          [
            -81.0701841,
            29.1790461
          ],
          [
            -81.0701422,
            29.1790722
          ],
          [
            -81.0700896,
            29.1791004
          ],
          [
            -81.0700467,
            29.1791253
          ],
          [
            -81.0700052,
            29.1791519
          ],
          [
            -81.0699069,
            29.1792174
          ],
          [
            -81.0698501,
            29.1792561
          ],
          [
            -81.069786,
            29.1793014
          ],
          [
            -81.0696541,
            29.179402
          ],
          [
            -81.0696234,
            29.1794261
          ],
          [
            -81.0695861,
            29.1794571
          ],
          [
            -81.0694617,
            29.1795648
          ],
          [
            -81.069433,
            29.1795907
          ],
          [
            -81.06937,
            29.1796502
          ],
          [
            -81.0693552,
            29.1796627
          ],
          [
            -81.0693393,
            29.1796741
          ],
          [
            -81.0692811,
            29.1797113
          ],
          [
            -81.0692484,
            29.1797331
          ],
          [
            -81.0692169,
            29.1797563
          ],
          [
            -81.0691941,
            29.1797746
          ],
          [
            -81.0691801,
            29.1797878
          ],
          [
            -81.0691541,
            29.1798158
          ],
          [
            -81.0691198,
            29.1798494
          ],
          [
            -81.0690812,
            29.1798916
          ],
          [
            -81.0690459,
            29.1799244
          ],
          [
            -81.0690326,
            29.1799382
          ],
          [
            -81.0690267,
            29.1799455
          ],
          [
            -81.0690167,
            29.1799613
          ],
          [
            -81.068995,
            29.1800022
          ],
          [
            -81.0689879,
            29.1800191
          ],
          [
            -81.0689691,
            29.1800801
          ],
          [
            -81.0689534,
            29.1801231
          ],
          [
            -81.068946,
            29.1801399
          ],
          [
            -81.0689416,
            29.180148
          ],
          [
            -81.0689366,
            29.1801559
          ],
          [
            -81.0689252,
            29.1801709
          ],
          [
            -81.0688546,
            29.1802484
          ],
          [
            -81.0687594,
            29.180355
          ],
          [
            -81.0686796,
            29.180449
          ],
          [
            -81.0685997,
            29.180543
          ],
          [
            -81.0685234,
            29.1806338
          ],
          [
            -81.0684471,
            29.1807246
          ],
          [
            -81.0683501,
            29.1808412
          ],
          [
            -81.068253,
            29.1809577
          ],
          [
            -81.0681993,
            29.1810238
          ],
          [
            -81.0681621,
            29.181067
          ],
          [
            -81.068077,
            29.1811689
          ],
          [
            -81.0680106,
            29.1812492
          ],
          [
            -81.0679442,
            29.1813296
          ],
          [
            -81.0678664,
            29.181425
          ],
          [
            -81.0677992,
            29.1815048
          ],
          [
            -81.0677269,
            29.1815925
          ],
          [
            -81.0676085,
            29.1817345
          ],
          [
            -81.0674901,
            29.1818765
          ],
          [
            -81.0674123,
            29.1819719
          ],
          [
            -81.0673204,
            29.1820806
          ],
          [
            -81.0672339,
            29.1821853
          ],
          [
            -81.0671473,
            29.1822899
          ],
          [
            -81.0670608,
            29.1823946
          ],
          [
            -81.0669544,
            29.182522
          ],
          [
            -81.066848,
            29.1826493
          ],
          [
            -81.066782,
            29.1827299
          ],
          [
            -81.0666829,
            29.1828488
          ],
          [
            -81.0665837,
            29.1829678
          ],
          [
            -81.0664846,
            29.1830867
          ],
          [
            -81.0664,
            29.183189
          ],
          [
            -81.0663155,
            29.1832912
          ],
          [
            -81.0662309,
            29.1833934
          ],
          [
            -81.0661459,
            29.1834953
          ],
          [
            -81.0660608,
            29.1835972
          ],
          [
            -81.0659758,
            29.1836991
          ],
          [
            -81.0658759,
            29.1838195
          ],
          [
            -81.065776,
            29.1839398
          ],
          [
            -81.0656761,
            29.1840601
          ],
          [
            -81.0655762,
            29.1841805
          ],
          [
            -81.0655344,
            29.1842319
          ],
          [
            -81.0654915,
            29.1842826
          ],
          [
            -81.0654739,
            29.1843048
          ],
          [
            -81.0654634,
            29.1843203
          ],
          [
            -81.0654501,
            29.1843448
          ],
          [
            -81.0654389,
            29.18437
          ],
          [
            -81.06543,
            29.1843959
          ],
          [
            -81.0654253,
            29.1844134
          ],
          [
            -81.0654221,
            29.1844312
          ],
          [
            -81.0654211,
            29.1844402
          ],
          [
            -81.0654202,
            29.1844582
          ],
          [
            -81.0654202,
            29.1844763
          ],
          [
            -81.0654205,
            29.1844853
          ],
          [
            -81.0654221,
            29.1845033
          ],
          [
            -81.0654274,
            29.1845391
          ],
          [
            -81.0654323,
            29.184584
          ],
          [
            -81.0654354,
            29.1846018
          ],
          [
            -81.0654374,
            29.1846107
          ],
          [
            -81.0654396,
            29.1846195
          ],
          [
            -81.0654448,
            29.1846369
          ],
          [
            -81.0654478,
            29.1846455
          ],
          [
            -81.0654724,
            29.1847049
          ],
          [
            -81.0654816,
            29.1847307
          ],
          [
            -81.0654844,
            29.1847394
          ],
          [
            -81.0654918,
            29.1847657
          ],
          [
            -81.0654939,
            29.1847745
          ],
          [
            -81.0655011,
            29.18481
          ],
          [
            -81.0655039,
            29.1848279
          ],
          [
            -81.065505,
            29.1848369
          ],
          [
            -81.065506,
            29.1848549
          ],
          [
            -81.065506,
            29.1848639
          ],
          [
            -81.0655054,
            29.1848729
          ],
          [
            -81.0655042,
            29.1848819
          ],
          [
            -81.0655005,
            29.1848996
          ],
          [
            -81.065498,
            29.1849084
          ],
          [
            -81.0654917,
            29.1849255
          ],
          [
            -81.0654881,
            29.184934
          ],
          [
            -81.0654796,
            29.1849504
          ],
          [
            -81.0654697,
            29.1849662
          ],
          [
            -81.0654322,
            29.1850201
          ],
          [
            -81.0653678,
            29.1851177
          ],
          [
            -81.0653034,
            29.1852153
          ],
          [
            -81.0652041,
            29.185363
          ],
          [
            -81.0651633,
            29.1854256
          ],
          [
            -81.0651414,
            29.1854561
          ],
          [
            -81.0651354,
            29.1854635
          ],
          [
            -81.0651289,
            29.1854705
          ],
          [
            -81.0651221,
            29.1854772
          ],
          [
            -81.0651148,
            29.1854836
          ],
          [
            -81.065107,
            29.1854894
          ],
          [
            -81.0650989,
            29.185495
          ],
          [
            -81.0650905,
            29.1855002
          ],
          [
            -81.0650726,
            29.1855091
          ],
          [
            -81.0650633,
            29.1855129
          ],
          [
            -81.0650442,
            29.1855195
          ],
          [
            -81.0650345,
            29.1855223
          ],
          [
            -81.0650146,
            29.185527
          ],
          [
            -81.0649944,
            29.1855306
          ],
          [
            -81.0649132,
            29.1855421
          ],
          [
            -81.0649032,
            29.1855439
          ],
          [
            -81.0648433,
            29.1855568
          ],
          [
            -81.0647729,
            29.1855701
          ],
          [
            -81.0646717,
            29.1855857
          ],
          [
            -81.0646617,
            29.1855879
          ],
          [
            -81.064642,
            29.1855931
          ],
          [
            -81.0646324,
            29.1855964
          ],
          [
            -81.064623,
            29.1856001
          ],
          [
            -81.064605,
            29.1856087
          ],
          [
            -81.0645879,
            29.1856187
          ],
          [
            -81.0645717,
            29.1856298
          ],
          [
            -81.0645408,
            29.1856536
          ],
          [
            -81.0645192,
            29.185673
          ],
          [
            -81.0644716,
            29.1857204
          ],
          [
            -81.0644569,
            29.1857329
          ],
          [
            -81.0643918,
            29.185777
          ],
          [
            -81.0643161,
            29.1858237
          ],
          [
            -81.064292,
            29.1858406
          ],
          [
            -81.0642765,
            29.1858525
          ],
          [
            -81.064217,
            29.1859024
          ],
          [
            -81.064148,
            29.1859692
          ],
          [
            -81.0640936,
            29.1860233
          ],
          [
            -81.0640262,
            29.1860915
          ],
          [
            -81.0639589,
            29.1861597
          ],
          [
            -81.063877,
            29.1862407
          ],
          [
            -81.0637844,
            29.1863374
          ],
          [
            -81.0637601,
            29.1863665
          ],
          [
            -81.0637133,
            29.1864259
          ],
          [
            -81.0636097,
            29.186555
          ],
          [
            -81.0635061,
            29.1866841
          ],
          [
            -81.0634485,
            29.1867588
          ],
          [
            -81.0633808,
            29.1868493
          ],
          [
            -81.0633131,
            29.1869398
          ],
          [
            -81.0632277,
            29.1870632
          ],
          [
            -81.0631392,
            29.1871955
          ],
          [
            -81.0630478,
            29.1873262
          ],
          [
            -81.0630274,
            29.1873576
          ],
          [
            -81.0630083,
            29.1873895
          ],
          [
            -81.0629491,
            29.1874947
          ],
          [
            -81.0629182,
            29.1875518
          ],
          [
            -81.0628712,
            29.187642
          ],
          [
            -81.0628525,
            29.1876741
          ],
          [
            -81.0628414,
            29.1876893
          ],
          [
            -81.0628174,
            29.1877187
          ],
          [
            -81.0627981,
            29.1877398
          ],
          [
            -81.0627438,
            29.1877939
          ],
          [
            -81.0627312,
            29.1878083
          ],
          [
            -81.0627206,
            29.1878237
          ],
          [
            -81.0627119,
            29.18784
          ],
          [
            -81.0627009,
            29.1878653
          ],
          [
            -81.0626645,
            29.1879593
          ],
          [
            -81.0626266,
            29.1880718
          ],
          [
            -81.0626157,
            29.1881066
          ],
          [
            -81.0626041,
            29.1881505
          ],
          [
            -81.0625813,
            29.1882477
          ],
          [
            -81.0625658,
            29.1883186
          ],
          [
            -81.062556,
            29.1883721
          ],
          [
            -81.0625451,
            29.1884436
          ],
          [
            -81.0625336,
            29.1885333
          ],
          [
            -81.0625278,
            29.1885962
          ],
          [
            -81.0625229,
            29.1886773
          ],
          [
            -81.0625207,
            29.1887404
          ],
          [
            -81.0625207,
            29.1888036
          ],
          [
            -81.0625227,
            29.1888758
          ],
          [
            -81.0625269,
            29.1889479
          ],
          [
            -81.0625332,
            29.1890289
          ],
          [
            -81.0625394,
            29.1890827
          ],
          [
            -81.0625499,
            29.1891543
          ],
          [
            -81.0625622,
            29.1892257
          ],
          [
            -81.0625745,
            29.1892879
          ],
          [
            -81.0625888,
            29.1893498
          ],
          [
            -81.0626074,
            29.1894201
          ],
          [
            -81.0626254,
            29.1894813
          ],
          [
            -81.0626562,
            29.1895768
          ],
          [
            -81.0626808,
            29.1896457
          ],
          [
            -81.0627073,
            29.189714
          ],
          [
            -81.0627432,
            29.1897985
          ],
          [
            -81.0627588,
            29.1898319
          ],
          [
            -81.0627961,
            29.1899062
          ],
          [
            -81.0628626,
            29.1900284
          ],
          [
            -81.062891,
            29.1900764
          ],
          [
            -81.0629258,
            29.1901317
          ],
          [
            -81.0629668,
            29.1901943
          ],
          [
            -81.0629991,
            29.1902404
          ],
          [
            -81.0630105,
            29.1902554
          ],
          [
            -81.0630467,
            29.1902992
          ],
          [
            -81.0630916,
            29.1903597
          ],
          [
            -81.0631209,
            29.1903968
          ],
          [
            -81.0631512,
            29.1904332
          ],
          [
            -81.0632011,
            29.1904906
          ],
          [
            -81.0632413,
            29.1905317
          ],
          [
            -81.0632999,
            29.1905945
          ],
          [
            -81.0633207,
            29.1906145
          ],
          [
            -81.0633914,
            29.19068
          ],
          [
            -81.0634359,
            29.1907175
          ],
          [
            -81.0634858,
            29.1907631
          ],
          [
            -81.0635455,
            29.1908127
          ],
          [
            -81.0635761,
            29.1908368
          ],
          [
            -81.0635997,
            29.1908542
          ],
          [
            -81.0637523,
            29.1909612
          ],
          [
            -81.0638103,
            29.1909987
          ],
          [
            -81.0638863,
            29.191045
          ],
          [
            -81.0639458,
            29.1910805
          ],
          [
            -81.0639896,
            29.1911042
          ],
          [
            -81.0640166,
            29.1911172
          ],
          [
            -81.0640807,
            29.1911459
          ],
          [
            -81.0641978,
            29.1912025
          ],
          [
            -81.0642988,
            29.1912472
          ],
          [
            -81.0643998,
            29.1912919
          ],
          [
            -81.0644184,
            29.1912994
          ],
          [
            -81.0644376,
            29.1913061
          ],
          [
            -81.0645055,
            29.1913268
          ],
          [
            -81.0645824,
            29.1913526
          ],
          [
            -81.0646308,
            29.1913677
          ],
          [
            -81.0647386,
            29.1913978
          ],
          [
            -81.0648277,
            29.1914196
          ],
          [
            -81.064858,
            29.1914245
          ],
          [
            -81.0648786,
            29.1914255
          ],
          [
            -81.0649503,
            29.1914204
          ],
          [
            -81.0650223,
            29.1914216
          ],
          [
            -81.0650428,
            29.1914228
          ],
          [
            -81.0650733,
            29.1914268
          ],
          [
            -81.065154,
            29.1914406
          ],
          [
            -81.0652558,
            29.1914535
          ],
          [
            -81.0653163,
            29.191464
          ],
          [
            -81.0653367,
            29.1914665
          ],
          [
            -81.0653572,
            29.1914677
          ],
          [
            -81.0654189,
            29.1914687
          ],
          [
            -81.0655832,
            29.1914759
          ],
          [
            -81.0656243,
            29.1914764
          ],
          [
            -81.0657374,
            29.1914759
          ],
          [
            -81.0657888,
            29.1914745
          ],
          [
            -81.0659425,
            29.1914637
          ],
          [
            -81.066014,
            29.1914566
          ],
          [
            -81.0660752,
            29.1914495
          ],
          [
            -81.0661769,
            29.1914364
          ],
          [
            -81.0662174,
            29.1914302
          ],
          [
            -81.0662776,
            29.1914183
          ],
          [
            -81.0664075,
            29.1913906
          ],
          [
            -81.0665071,
            29.1913682
          ],
          [
            -81.0666067,
            29.1913459
          ],
          [
            -81.0666361,
            29.1913376
          ],
          [
            -81.066684,
            29.1913214
          ],
          [
            -81.0667423,
            29.1913037
          ],
          [
            -81.0668191,
            29.1912779
          ],
          [
            -81.0668858,
            29.191254
          ],
          [
            -81.0669529,
            29.1912313
          ],
          [
            -81.0670476,
            29.191196
          ],
          [
            -81.0671244,
            29.1911701
          ],
          [
            -81.0671524,
            29.1911588
          ],
          [
            -81.0671704,
            29.1911501
          ],
          [
            -81.0672146,
            29.1911271
          ],
          [
            -81.0672331,
            29.1911192
          ],
          [
            -81.0672427,
            29.1911159
          ],
          [
            -81.067282,
            29.1911054
          ],
          [
            -81.0673617,
            29.1910876
          ],
          [
            -81.0674113,
            29.1910757
          ],
          [
            -81.0674308,
            29.19107
          ],
          [
            -81.0674403,
            29.1910666
          ],
          [
            -81.0674677,
            29.1910541
          ],
          [
            -81.0676371,
            29.1909688
          ],
          [
            -81.0678066,
            29.1908834
          ],
          [
            -81.0678348,
            29.1908725
          ],
          [
            -81.0679312,
            29.1908412
          ],
          [
            -81.0679694,
            29.1908278
          ],
          [
            -81.0679974,
            29.1908164
          ],
          [
            -81.0680239,
            29.1908027
          ],
          [
            -81.0681195,
            29.1907496
          ],
          [
            -81.0682158,
            29.1906975
          ],
          [
            -81.068333,
            29.1906323
          ],
          [
            -81.0684503,
            29.1905671
          ],
          [
            -81.0685627,
            29.1905037
          ],
          [
            -81.0686591,
            29.1904517
          ],
          [
            -81.0687554,
            29.1903997
          ],
          [
            -81.0688158,
            29.1903653
          ],
          [
            -81.0688683,
            29.1903369
          ],
          [
            -81.0689286,
            29.1903024
          ],
          [
            -81.0689904,
            29.1902701
          ],
          [
            -81.0690596,
            29.190231
          ],
          [
            -81.0691211,
            29.1901983
          ],
          [
            -81.0691811,
            29.1901634
          ],
          [
            -81.0692422,
            29.1901301
          ],
          [
            -81.0693112,
            29.1900907
          ],
          [
            -81.0693729,
            29.1900582
          ],
          [
            -81.0694514,
            29.1900152
          ],
          [
            -81.0694769,
            29.19
          ],
          [
            -81.0695183,
            29.1899732
          ],
          [
            -81.0695341,
            29.1899617
          ],
          [
            -81.0695877,
            29.1899196
          ],
          [
            -81.0696113,
            29.1899021
          ],
          [
            -81.0696607,
            29.1898697
          ],
          [
            -81.0697004,
            29.1898411
          ],
          [
            -81.0697252,
            29.189825
          ],
          [
            -81.0698564,
            29.1897538
          ],
          [
            -81.0700043,
            29.189672
          ],
          [
            -81.0701521,
            29.1895902
          ],
          [
            -81.0703,
            29.1895085
          ],
          [
            -81.0704479,
            29.1894267
          ],
          [
            -81.0705345,
            29.189378
          ],
          [
            -81.0706215,
            29.18933
          ],
          [
            -81.0707004,
            29.1892876
          ],
          [
            -81.0708132,
            29.1892246
          ],
          [
            -81.0709678,
            29.1891353
          ],
          [
            -81.0710374,
            29.1890968
          ],
          [
            -81.0711747,
            29.1890173
          ],
          [
            -81.0712524,
            29.1889733
          ],
          [
            -81.0713368,
            29.1889217
          ],
          [
            -81.0714707,
            29.1888379
          ],
          [
            -81.0715552,
            29.1887865
          ],
          [
            -81.0715881,
            29.1887648
          ],
          [
            -81.0716197,
            29.1887418
          ],
          [
            -81.0716989,
            29.1886709
          ],
          [
            -81.0717139,
            29.1886586
          ],
          [
            -81.0717537,
            29.1886299
          ],
          [
            -81.0718263,
            29.1885796
          ],
          [
            -81.0718659,
            29.1885509
          ],
          [
            -81.0719052,
            29.1885217
          ],
          [
            -81.0719585,
            29.1884794
          ],
          [
            -81.0720299,
            29.1884277
          ],
          [
            -81.0720906,
            29.188379
          ],
          [
            -81.0721499,
            29.188329
          ],
          [
            -81.072208,
            29.1882779
          ],
          [
            -81.0723293,
            29.1881674
          ],
          [
            -81.0724277,
            29.1880752
          ],
          [
            -81.0724823,
            29.1880212
          ],
          [
            -81.072563,
            29.1879394
          ],
          [
            -81.0726402,
            29.1878559
          ]
        ]
      }
    },
    {
      "type": "Feature",
      "properties": {
        "role": "start_finish",
        "name": "Start / Finish",
        "marker": 0.0
      },
      "geometry": {
        "type": "Point",
        "coordinates": [
          -81.0726408,
          29.1878553
        ]
      }
    },
    {
      "type": "Feature",
      "properties": {
        "role": "corner",
        "id": "t1",
        "number": 1,
        "code": "1",
        "display": "Turn 1",
        "labels": {
          "numbered": "Turn 1"
        },
        "direction": "left",
        "scale": 2,
        "marker": 0.08268
      },
      "geometry": {
        "type": "Point",
        "coordinates": [
          -81.0736054,
          29.1838988
        ]
      }
    },
    {
      "type": "Feature",
      "properties": {
        "role": "corner",
        "id": "t2",
        "number": 2,
        "code": "2",
        "display": "Turn 2",
        "labels": {
          "numbered": "Turn 2"
        },
        "direction": "left",
        "scale": 3,
        "marker": 0.12494
      },
      "geometry": {
        "type": "Point",
        "coordinates": [
          -81.071484,
          29.1847935
        ]
      }
    },
    {
      "type": "Feature",
      "properties": {
        "role": "corner",
        "id": "t3",
        "number": 3,
        "code": "3",
        "display": "International Horseshoe",
        "labels": {
          "numbered": "Turn 3",
          "driver": "International Horseshoe",
          "official": "International Horseshoe"
        },
        "direction": "right",
        "scale": 1,
        "marker": 0.17067
      },
      "geometry": {
        "type": "Point",
        "coordinates": [
          -81.0696896,
          29.1863983
        ]
      }
    },
    {
      "type": "Feature",
      "properties": {
        "role": "corner",
        "id": "t4",
        "number": 4,
        "code": "4",
        "display": "The Kink",
        "labels": {
          "numbered": "Turn 4",
          "driver": "The Kink",
          "official": "Turn 4 (Kink)"
        },
        "direction": "left",
        "scale": 5,
        "marker": 0.25502
      },
      "geometry": {
        "type": "Point",
        "coordinates": [
          -81.0719988,
          29.1827262
        ]
      }
    },
    {
      "type": "Feature",
      "properties": {
        "role": "corner",
        "id": "t5",
        "number": 5,
        "code": "5",
        "display": "West Horseshoe",
        "labels": {
          "numbered": "Turn 5",
          "driver": "West Horseshoe",
          "official": "West Horseshoe"
        },
        "direction": "left",
        "scale": 2,
        "marker": 0.30945
      },
      "geometry": {
        "type": "Point",
        "coordinates": [
          -81.0721414,
          29.1800007
        ]
      }
    },
    {
      "type": "Feature",
      "properties": {
        "role": "corner",
        "id": "t6",
        "number": 6,
        "code": "6",
        "display": "NASCAR 1",
        "labels": {
          "numbered": "Turn 6",
          "driver": "NASCAR 1",
          "official": "Turn 6 (NASCAR Turn 1)"
        },
        "direction": "left",
        "scale": 5,
        "marker": 0.37831
      },
      "geometry": {
        "type": "Point",
        "coordinates": [
          -81.0733657,
          29.183097
        ]
      }
    },
    {
      "type": "Feature",
      "properties": {
        "role": "corner",
        "id": "t7",
        "number": 7,
        "code": "7",
        "display": "NASCAR 2",
        "labels": {
          "numbered": "Turn 7",
          "driver": "NASCAR 2",
          "official": "Turn 7 (NASCAR Turn 2)"
        },
        "direction": "left",
        "scale": 5,
        "marker": 0.44857
      },
      "geometry": {
        "type": "Point",
        "coordinates": [
          -81.0747552,
          29.1803918
        ]
      }
    },
    {
      "type": "Feature",
      "properties": {
        "role": "corner",
        "id": "t8",
        "number": 8,
        "code": "8",
        "display": "Bus Stop entry",
        "labels": {
          "numbered": "Turn 8",
          "driver": "Bus Stop entry"
        },
        "direction": "left",
        "scale": 4,
        "marker": 0.67221
      },
      "geometry": {
        "type": "Point",
        "coordinates": [
          -81.0654389,
          29.18437
        ]
      }
    },
    {
      "type": "Feature",
      "properties": {
        "role": "corner",
        "id": "t9",
        "number": 9,
        "code": "9",
        "display": "Bus Stop",
        "labels": {
          "numbered": "Turn 9",
          "driver": "Bus Stop"
        },
        "direction": "right",
        "scale": 3,
        "marker": 0.68316
      },
      "geometry": {
        "type": "Point",
        "coordinates": [
          -81.0654917,
          29.1849255
        ]
      }
    },
    {
      "type": "Feature",
      "properties": {
        "role": "corner",
        "id": "t10",
        "number": 10,
        "code": "10",
        "display": "Bus Stop",
        "labels": {
          "numbered": "Turn 10",
          "driver": "Bus Stop"
        },
        "direction": "right",
        "scale": 3,
        "marker": 0.69621
      },
      "geometry": {
        "type": "Point",
        "coordinates": [
          -81.0650905,
          29.1855002
        ]
      }
    },
    {
      "type": "Feature",
      "properties": {
        "role": "corner",
        "id": "t11",
        "number": 11,
        "code": "11",
        "display": "Bus Stop exit",
        "labels": {
          "numbered": "Turn 11",
          "driver": "Bus Stop exit"
        },
        "direction": "left",
        "scale": 4,
        "marker": 0.70403
      },
      "geometry": {
        "type": "Point",
        "coordinates": [
          -81.064642,
          29.1855931
        ]
      }
    },
    {
      "type": "Feature",
      "properties": {
        "role": "corner",
        "id": "t12",
        "number": 12,
        "code": "12",
        "display": "NASCAR 3",
        "labels": {
          "numbered": "Turn 12",
          "driver": "NASCAR 3",
          "official": "Turn 12 (NASCAR Turns 3-4)"
        },
        "direction": "left",
        "scale": 5,
        "marker": 0.8035
      },
      "geometry": {
        "type": "Point",
        "coordinates": [
          -81.062896,
          29.1900843
        ]
      }
    }
  ]
}