{
  "type": "FeatureCollection",
  "features": [
    {
      "type": "Feature",
      "properties": {
        "role": "outline",
        "layout": "gp",
        "basis": "midline"
      },
      "geometry": {
        "type": "LineString",
        "coordinates": [
          [
            -121.756657,
            36.5864796
          ],
          [
            -121.7567595,
            36.5863617
          ],
          [
            -121.7568016,
            36.5863085
          ],
          [
            -121.7568245,
            36.5862776
          ],
          [
            -121.7568393,
            36.5862533
          ],
          [
            -121.7568575,
            36.5862204
          ],
          [
            -121.7568633,
            36.5862127
          ],
          [
            -121.7568772,
            36.5861881
          ],
          [
            -121.7569351,
            36.5861007
          ],
          [
            -121.7569632,
            36.5860516
          ],
          [
            -121.756988,
            36.5860113
          ],
          [
            -121.757017,
            36.5859527
          ],
          [
            -121.7570789,
            36.5858418
          ],
          [
            -121.7571408,
            36.5857308
          ],
          [
            -121.7572179,
            36.5855909
          ],
          [
            -121.757295,
            36.5854509
          ],
          [
            -121.7573722,
            36.5853109
          ],
          [
            -121.757465,
            36.585147
          ],
          [
            -121.7575013,
            36.5850811
          ],
          [
            -121.7575538,
            36.5849915
          ],
          [
            -121.7576042,
            36.5849011
          ],
          [
            -121.7576208,
            36.5848677
          ],
          [
            -121.7576403,
            36.5848254
          ],
          [
            -121.7576585,
            36.5847828
          ],
          [
            -121.757679,
            36.5847314
          ],
          [
            -121.7576984,
            36.5846796
          ],
          [
            -121.7577134,
            36.5846362
          ],
          [
            -121.7577243,
            36.5846013
          ],
          [
            -121.757734,
            36.5845661
          ],
          [
            -121.7577514,
            36.5844862
          ],
          [
            -121.7577594,
            36.5844416
          ],
          [
            -121.7577683,
            36.5843518
          ],
          [
            -121.7577717,
            36.5842978
          ],
          [
            -121.7577753,
            36.5841627
          ],
          [
            -121.7577757,
            36.5840906
          ],
          [
            -121.7577741,
            36.5839104
          ],
          [
            -121.7577718,
            36.5838474
          ],
          [
            -121.7577741,
            36.5837573
          ],
          [
            -121.7577716,
            36.5836672
          ],
          [
            -121.7577732,
            36.5836312
          ],
          [
            -121.7577783,
            36.5835863
          ],
          [
            -121.75778,
            36.5835594
          ],
          [
            -121.7577782,
            36.5834603
          ],
          [
            -121.7577718,
            36.5833703
          ],
          [
            -121.7577694,
            36.5833163
          ],
          [
            -121.7577674,
            36.5832983
          ],
          [
            -121.7577611,
            36.5832626
          ],
          [
            -121.7577587,
            36.5832447
          ],
          [
            -121.757757,
            36.5832177
          ],
          [
            -121.7577552,
            36.5831547
          ],
          [
            -121.7577479,
            36.5830828
          ],
          [
            -121.7577382,
            36.5830021
          ],
          [
            -121.7577358,
            36.5829661
          ],
          [
            -121.7577344,
            36.5829031
          ],
          [
            -121.757733,
            36.5828761
          ],
          [
            -121.7577264,
            36.5827952
          ],
          [
            -121.7577201,
            36.5827504
          ],
          [
            -121.7577143,
            36.5827238
          ],
          [
            -121.7577065,
            36.5826975
          ],
          [
            -121.7576994,
            36.5826804
          ],
          [
            -121.7576908,
            36.5826638
          ],
          [
            -121.7576756,
            36.5826397
          ],
          [
            -121.7576582,
            36.5826166
          ],
          [
            -121.757645,
            36.582602
          ],
          [
            -121.7576233,
            36.5825814
          ],
          [
            -121.7576002,
            36.5825619
          ],
          [
            -121.7575836,
            36.5825498
          ],
          [
            -121.7575659,
            36.5825387
          ],
          [
            -121.7575378,
            36.5825241
          ],
          [
            -121.7575083,
            36.5825112
          ],
          [
            -121.7574779,
            36.5824998
          ],
          [
            -121.757457,
            36.5824935
          ],
          [
            -121.7574247,
            36.5824864
          ],
          [
            -121.7573916,
            36.5824819
          ],
          [
            -121.7573582,
            36.5824794
          ],
          [
            -121.7573359,
            36.582479
          ],
          [
            -121.7573024,
            36.5824801
          ],
          [
            -121.7572802,
            36.5824819
          ],
          [
            -121.7572581,
            36.5824846
          ],
          [
            -121.7571597,
            36.5825014
          ],
          [
            -121.7571381,
            36.582506
          ],
          [
            -121.7571065,
            36.5825149
          ],
          [
            -121.7570755,
            36.5825253
          ],
          [
            -121.7570555,
            36.5825333
          ],
          [
            -121.7570365,
            36.5825427
          ],
          [
            -121.7570095,
            36.5825587
          ],
          [
            -121.7569923,
            36.5825703
          ],
          [
            -121.756976,
            36.5825826
          ],
          [
            -121.7569531,
            36.5826023
          ],
          [
            -121.7569388,
            36.5826161
          ],
          [
            -121.7569259,
            36.5826309
          ],
          [
            -121.7569146,
            36.5826464
          ],
          [
            -121.7569045,
            36.5826625
          ],
          [
            -121.756896,
            36.5826792
          ],
          [
            -121.7568787,
            36.582722
          ],
          [
            -121.7568701,
            36.5827481
          ],
          [
            -121.7568654,
            36.5827657
          ],
          [
            -121.7568621,
            36.5827836
          ],
          [
            -121.7568605,
            36.5828015
          ],
          [
            -121.7568605,
            36.5828196
          ],
          [
            -121.756862,
            36.5828375
          ],
          [
            -121.7568647,
            36.5828554
          ],
          [
            -121.7568685,
            36.5828732
          ],
          [
            -121.7568734,
            36.5828908
          ],
          [
            -121.756882,
            36.5829169
          ],
          [
            -121.7568889,
            36.582934
          ],
          [
            -121.7569084,
            36.5829762
          ],
          [
            -121.7569114,
            36.5829849
          ],
          [
            -121.7569443,
            36.5830519
          ],
          [
            -121.7569594,
            36.5830858
          ],
          [
            -121.7569656,
            36.5830933
          ],
          [
            -121.7569686,
            36.5831019
          ],
          [
            -121.7569994,
            36.5832072
          ],
          [
            -121.7570299,
            36.5833032
          ],
          [
            -121.7570451,
            36.5833558
          ],
          [
            -121.7570618,
            36.5834267
          ],
          [
            -121.7570813,
            36.5835245
          ],
          [
            -121.7570857,
            36.5835513
          ],
          [
            -121.7570999,
            36.5836588
          ],
          [
            -121.7571047,
            36.5837127
          ],
          [
            -121.7571067,
            36.5837668
          ],
          [
            -121.7571107,
            36.5838298
          ],
          [
            -121.7571093,
            36.5839649
          ],
          [
            -121.7570926,
            36.5841175
          ],
          [
            -121.7570874,
            36.5841533
          ],
          [
            -121.7570777,
            36.5842068
          ],
          [
            -121.7570461,
            36.5843578
          ],
          [
            -121.7570327,
            36.5844108
          ],
          [
            -121.7570227,
            36.5844642
          ],
          [
            -121.7570082,
            36.584517
          ],
          [
            -121.7569788,
            36.5846409
          ],
          [
            -121.7569683,
            36.5846759
          ],
          [
            -121.7569578,
            36.5847016
          ],
          [
            -121.75694,
            36.5847347
          ],
          [
            -121.7569141,
            36.5847746
          ],
          [
            -121.7568908,
            36.5848053
          ],
          [
            -121.7568709,
            36.5848271
          ],
          [
            -121.7568486,
            36.5848473
          ],
          [
            -121.7568164,
            36.5848723
          ],
          [
            -121.756782,
            36.5848952
          ],
          [
            -121.7567637,
            36.5849056
          ],
          [
            -121.7567447,
            36.584915
          ],
          [
            -121.756725,
            36.5849236
          ],
          [
            -121.7567048,
            36.5849313
          ],
          [
            -121.7566529,
            36.5849478
          ],
          [
            -121.7566316,
            36.5849533
          ],
          [
            -121.7565991,
            36.5849599
          ],
          [
            -121.7565662,
            36.5849649
          ],
          [
            -121.7565441,
            36.5849676
          ],
          [
            -121.7565107,
            36.5849701
          ],
          [
            -121.7564884,
            36.5849707
          ],
          [
            -121.756466,
            36.5849701
          ],
          [
            -121.7564438,
            36.5849684
          ],
          [
            -121.7563886,
            36.5849616
          ],
          [
            -121.7563445,
            36.5849554
          ],
          [
            -121.7563118,
            36.5849497
          ],
          [
            -121.7562468,
            36.5849364
          ],
          [
            -121.7561814,
            36.5849247
          ],
          [
            -121.7560728,
            36.5849035
          ],
          [
            -121.7559368,
            36.5848778
          ],
          [
            -121.7558008,
            36.5848521
          ],
          [
            -121.7557037,
            36.5848311
          ],
          [
            -121.7556386,
            36.5848181
          ],
          [
            -121.755432,
            36.5847788
          ],
          [
            -121.7552254,
            36.5847394
          ],
          [
            -121.7550188,
            36.5847001
          ],
          [
            -121.7548122,
            36.5846608
          ],
          [
            -121.7546056,
            36.5846215
          ],
          [
            -121.7544648,
            36.5845928
          ],
          [
            -121.754302,
            36.5845608
          ],
          [
            -121.7542697,
            36.5845537
          ],
          [
            -121.7542377,
            36.5845456
          ],
          [
            -121.7541855,
            36.5845295
          ],
          [
            -121.7541449,
            36.5845145
          ],
          [
            -121.7541155,
            36.5845015
          ],
          [
            -121.7540777,
            36.5844823
          ],
          [
            -121.7540504,
            36.5844666
          ],
          [
            -121.7540161,
            36.5844435
          ],
          [
            -121.7539359,
            36.5843808
          ],
          [
            -121.753914,
            36.5843603
          ],
          [
            -121.7538939,
            36.5843387
          ],
          [
            -121.7538757,
            36.584316
          ],
          [
            -121.7538589,
            36.5842926
          ],
          [
            -121.7538438,
            36.5842685
          ],
          [
            -121.7538211,
            36.5842273
          ],
          [
            -121.753809,
            36.5842021
          ],
          [
            -121.7537987,
            36.5841764
          ],
          [
            -121.753793,
            36.584159
          ],
          [
            -121.7537859,
            36.5841326
          ],
          [
            -121.7537769,
            36.5840881
          ],
          [
            -121.7537707,
            36.5840433
          ],
          [
            -121.7537518,
            36.5838819
          ],
          [
            -121.7537474,
            36.5838369
          ],
          [
            -121.7537424,
            36.583765
          ],
          [
            -121.7537366,
            36.5837111
          ],
          [
            -121.7537224,
            36.5835614
          ],
          [
            -121.7537082,
            36.5834117
          ],
          [
            -121.7536941,
            36.5832619
          ],
          [
            -121.7536812,
            36.583082
          ],
          [
            -121.7536758,
            36.5830281
          ],
          [
            -121.7536705,
            36.5829652
          ],
          [
            -121.7536673,
            36.5829112
          ],
          [
            -121.7536666,
            36.5828752
          ],
          [
            -121.7536685,
            36.582749
          ],
          [
            -121.7536843,
            36.5825964
          ],
          [
            -121.7536878,
            36.5825695
          ],
          [
            -121.7537037,
            36.5824712
          ],
          [
            -121.7537268,
            36.5823647
          ],
          [
            -121.7537353,
            36.5823294
          ],
          [
            -121.7537625,
            36.5822327
          ],
          [
            -121.7537923,
            36.5821366
          ],
          [
            -121.7538291,
            36.5820326
          ],
          [
            -121.7538463,
            36.5819803
          ],
          [
            -121.7538795,
            36.5818849
          ],
          [
            -121.7539077,
            36.581807
          ],
          [
            -121.7539316,
            36.5817376
          ],
          [
            -121.7539706,
            36.5816341
          ],
          [
            -121.7539951,
            36.5815648
          ],
          [
            -121.7540207,
            36.5814958
          ],
          [
            -121.7540449,
            36.5814264
          ],
          [
            -121.7540837,
            36.5813229
          ],
          [
            -121.7541395,
            36.5811624
          ],
          [
            -121.7541952,
            36.5810019
          ],
          [
            -121.7542426,
            36.5808722
          ],
          [
            -121.7542814,
            36.5807594
          ],
          [
            -121.7543202,
            36.5806465
          ],
          [
            -121.7543486,
            36.5805687
          ],
          [
            -121.7543707,
            36.5804989
          ],
          [
            -121.7543798,
            36.5804636
          ],
          [
            -121.7543832,
            36.5804458
          ],
          [
            -121.7543869,
            36.5804189
          ],
          [
            -121.754389,
            36.5803919
          ],
          [
            -121.7543895,
            36.5803649
          ],
          [
            -121.7543864,
            36.5803289
          ],
          [
            -121.7543832,
            36.5803111
          ],
          [
            -121.7543786,
            36.5802935
          ],
          [
            -121.7543664,
            36.5802588
          ],
          [
            -121.7543459,
            36.5802073
          ],
          [
            -121.7543386,
            36.5801903
          ],
          [
            -121.7543302,
            36.5801736
          ],
          [
            -121.7543154,
            36.5801494
          ],
          [
            -121.754299,
            36.5801258
          ],
          [
            -121.7542869,
            36.5801106
          ],
          [
            -121.7542734,
            36.5800963
          ],
          [
            -121.7542587,
            36.5800827
          ],
          [
            -121.7542355,
            36.5800632
          ],
          [
            -121.7542111,
            36.5800447
          ],
          [
            -121.754194,
            36.5800331
          ],
          [
            -121.754167,
            36.5800171
          ],
          [
            -121.7540923,
            36.5799776
          ],
          [
            -121.7540535,
            36.5799597
          ],
          [
            -121.7540134,
            36.5799438
          ],
          [
            -121.7539717,
            36.5799308
          ],
          [
            -121.7539185,
            36.5799172
          ],
          [
            -121.7538752,
            36.5799083
          ],
          [
            -121.7538204,
            36.5798995
          ],
          [
            -121.7537206,
            36.5798891
          ],
          [
            -121.7536762,
            36.5798855
          ],
          [
            -121.7536204,
            36.579884
          ],
          [
            -121.7535757,
            36.5798843
          ],
          [
            -121.7535199,
            36.5798871
          ],
          [
            -121.7534641,
            36.5798891
          ],
          [
            -121.7533973,
            36.5798934
          ],
          [
            -121.7532309,
            36.5799096
          ],
          [
            -121.7531094,
            36.5799246
          ],
          [
            -121.7529876,
            36.5799376
          ],
          [
            -121.7528394,
            36.5799603
          ],
          [
            -121.7526912,
            36.579983
          ],
          [
            -121.7524934,
            36.5800121
          ],
          [
            -121.7523324,
            36.5800365
          ],
          [
            -121.7521713,
            36.5800609
          ],
          [
            -121.7520103,
            36.5800853
          ],
          [
            -121.7519113,
            36.5800997
          ],
          [
            -121.7517625,
            36.5801197
          ],
          [
            -121.7516138,
            36.5801396
          ],
          [
            -121.7515031,
            36.5801519
          ],
          [
            -121.7514148,
            36.5801633
          ],
          [
            -121.7513374,
            36.5801722
          ],
          [
            -121.7512822,
            36.5801792
          ],
          [
            -121.7511328,
            36.5801958
          ],
          [
            -121.7509834,
            36.5802125
          ],
          [
            -121.7508176,
            36.5802324
          ],
          [
            -121.7506691,
            36.5802533
          ],
          [
            -121.7505205,
            36.5802742
          ],
          [
            -121.7503611,
            36.5802977
          ],
          [
            -121.7502018,
            36.5803212
          ],
          [
            -121.7500916,
            36.5803361
          ],
          [
            -121.7500588,
            36.5803415
          ],
          [
            -121.7500262,
            36.580348
          ],
          [
            -121.7499942,
            36.580356
          ],
          [
            -121.7499733,
            36.5803623
          ],
          [
            -121.7499529,
            36.5803697
          ],
          [
            -121.7499332,
            36.5803782
          ],
          [
            -121.7499144,
            36.580388
          ],
          [
            -121.749897,
            36.5803992
          ],
          [
            -121.7498809,
            36.5804117
          ],
          [
            -121.749866,
            36.5804251
          ],
          [
            -121.7498523,
            36.5804393
          ],
          [
            -121.7498399,
            36.5804543
          ],
          [
            -121.7497576,
            36.5805721
          ],
          [
            -121.7497474,
            36.5805881
          ],
          [
            -121.7497295,
            36.5806211
          ],
          [
            -121.7497225,
            36.580628
          ],
          [
            -121.7497168,
            36.5806356
          ],
          [
            -121.7497076,
            36.5806521
          ],
          [
            -121.7497034,
            36.5806604
          ],
          [
            -121.7496954,
            36.5806772
          ],
          [
            -121.7496917,
            36.5806857
          ],
          [
            -121.7496816,
            36.5807115
          ],
          [
            -121.7496603,
            36.5807722
          ],
          [
            -121.7496567,
            36.5807807
          ],
          [
            -121.7496491,
            36.5807976
          ],
          [
            -121.7496314,
            36.5808307
          ],
          [
            -121.7496073,
            36.5808714
          ],
          [
            -121.7495758,
            36.5809191
          ],
          [
            -121.7495589,
            36.5809424
          ],
          [
            -121.7495171,
            36.5809957
          ],
          [
            -121.7494952,
            36.5810272
          ],
          [
            -121.7494902,
            36.5810352
          ],
          [
            -121.7494617,
            36.5810842
          ],
          [
            -121.7494081,
            36.5811832
          ],
          [
            -121.7493954,
            36.5812082
          ],
          [
            -121.7493914,
            36.5812167
          ],
          [
            -121.7493808,
            36.5812423
          ],
          [
            -121.7493554,
            36.5813114
          ],
          [
            -121.7493483,
            36.5813378
          ],
          [
            -121.7493349,
            36.5814182
          ],
          [
            -121.7493232,
            36.5814806
          ],
          [
            -121.7493227,
            36.5814896
          ],
          [
            -121.7493166,
            36.5815253
          ],
          [
            -121.7493133,
            36.5815339
          ],
          [
            -121.7493027,
            36.5815963
          ],
          [
            -121.7492985,
            36.5816232
          ],
          [
            -121.7492945,
            36.5816591
          ],
          [
            -121.7492871,
            36.581767
          ],
          [
            -121.7492873,
            36.581776
          ],
          [
            -121.7492866,
            36.581803
          ],
          [
            -121.7492855,
            36.581812
          ],
          [
            -121.7492857,
            36.581839
          ],
          [
            -121.749288,
            36.581884
          ],
          [
            -121.7492878,
            36.581902
          ],
          [
            -121.7492829,
            36.581974
          ],
          [
            -121.7492833,
            36.581983
          ],
          [
            -121.7492832,
            36.581992
          ],
          [
            -121.7492812,
            36.582037
          ],
          [
            -121.7492776,
            36.582073
          ],
          [
            -121.7492702,
            36.5821176
          ],
          [
            -121.749245,
            36.5822238
          ],
          [
            -121.7492312,
            36.582295
          ],
          [
            -121.7492162,
            36.5823477
          ],
          [
            -121.7492122,
            36.5823561
          ],
          [
            -121.7492028,
            36.5824005
          ],
          [
            -121.7491967,
            36.5824453
          ],
          [
            -121.7491949,
            36.5824723
          ],
          [
            -121.7491954,
            36.5824903
          ],
          [
            -121.749203,
            36.5825621
          ],
          [
            -121.7492003,
            36.5826432
          ],
          [
            -121.7491982,
            36.582652
          ],
          [
            -121.7491894,
            36.5827418
          ],
          [
            -121.7491811,
            36.5828045
          ],
          [
            -121.7491745,
            36.5828674
          ],
          [
            -121.749161,
            36.582975
          ],
          [
            -121.7491455,
            36.5831367
          ],
          [
            -121.7491334,
            36.5833166
          ],
          [
            -121.7491283,
            36.5834697
          ],
          [
            -121.7491297,
            36.5835778
          ],
          [
            -121.7491282,
            36.5836048
          ],
          [
            -121.7491226,
            36.5836587
          ],
          [
            -121.7491226,
            36.5836767
          ],
          [
            -121.7491235,
            36.5836857
          ],
          [
            -121.7491295,
            36.5837123
          ],
          [
            -121.749139,
            36.5837382
          ],
          [
            -121.7491514,
            36.5837633
          ],
          [
            -121.7491708,
            36.5837958
          ],
          [
            -121.7491781,
            36.5838025
          ],
          [
            -121.7491844,
            36.5838192
          ],
          [
            -121.7491888,
            36.5838275
          ],
          [
            -121.7491966,
            36.5838443
          ],
          [
            -121.749209,
            36.5838789
          ],
          [
            -121.7492136,
            36.5838966
          ],
          [
            -121.7492151,
            36.5839055
          ],
          [
            -121.749216,
            36.5839145
          ],
          [
            -121.7492165,
            36.5839235
          ],
          [
            -121.7492166,
            36.5839325
          ],
          [
            -121.7492138,
            36.5839502
          ],
          [
            -121.7492131,
            36.5839863
          ],
          [
            -121.7492125,
            36.5839953
          ],
          [
            -121.7492094,
            36.5840222
          ],
          [
            -121.7491993,
            36.5840938
          ],
          [
            -121.7491976,
            36.5841027
          ],
          [
            -121.7491878,
            36.584147
          ],
          [
            -121.7491674,
            36.5842265
          ],
          [
            -121.7491432,
            36.5843052
          ],
          [
            -121.749102,
            36.5844268
          ],
          [
            -121.7490629,
            36.5845303
          ],
          [
            -121.749018,
            36.5846417
          ],
          [
            -121.7490088,
            36.5846676
          ],
          [
            -121.7490012,
            36.584694
          ],
          [
            -121.7489972,
            36.5847117
          ],
          [
            -121.7489947,
            36.5847296
          ],
          [
            -121.748994,
            36.5847386
          ],
          [
            -121.7489934,
            36.5847566
          ],
          [
            -121.7489936,
            36.5847656
          ],
          [
            -121.7489948,
            36.5847836
          ],
          [
            -121.7489985,
            36.5848105
          ],
          [
            -121.7490006,
            36.5848193
          ],
          [
            -121.7490032,
            36.584828
          ],
          [
            -121.7490065,
            36.5848366
          ],
          [
            -121.749011,
            36.5848449
          ],
          [
            -121.749021,
            36.584861
          ],
          [
            -121.7490267,
            36.5848687
          ],
          [
            -121.7490328,
            36.5848763
          ],
          [
            -121.7490395,
            36.5848835
          ],
          [
            -121.7490467,
            36.5848904
          ],
          [
            -121.7490545,
            36.5848968
          ],
          [
            -121.7490628,
            36.5849028
          ],
          [
            -121.7490717,
            36.5849083
          ],
          [
            -121.749081,
            36.5849133
          ],
          [
            -121.7490907,
            36.5849176
          ],
          [
            -121.7491008,
            36.5849214
          ],
          [
            -121.7491113,
            36.5849246
          ],
          [
            -121.7491219,
            36.5849274
          ],
          [
            -121.7491327,
            36.5849297
          ],
          [
            -121.7491655,
            36.5849353
          ],
          [
            -121.7491985,
            36.5849398
          ],
          [
            -121.7492096,
            36.584941
          ],
          [
            -121.7492318,
            36.5849426
          ],
          [
            -121.749243,
            36.5849428
          ],
          [
            -121.7492541,
            36.5849425
          ],
          [
            -121.7492987,
            36.5849397
          ],
          [
            -121.7493098,
            36.5849395
          ],
          [
            -121.7493322,
            36.5849402
          ],
          [
            -121.7493433,
            36.5849411
          ],
          [
            -121.7493543,
            36.5849425
          ],
          [
            -121.7493652,
            36.5849443
          ],
          [
            -121.7493868,
            36.584949
          ],
          [
            -121.7493974,
            36.5849519
          ],
          [
            -121.7494078,
            36.584955
          ],
          [
            -121.7494284,
            36.5849621
          ],
          [
            -121.7494372,
            36.5849672
          ],
          [
            -121.7494452,
            36.5849734
          ],
          [
            -121.7494545,
            36.5849785
          ],
          [
            -121.7494633,
            36.5849839
          ],
          [
            -121.7494801,
            36.5849958
          ],
          [
            -121.7494882,
            36.585002
          ],
          [
            -121.749503,
            36.5850155
          ],
          [
            -121.7495163,
            36.58503
          ],
          [
            -121.749528,
            36.5850453
          ],
          [
            -121.7495381,
            36.5850614
          ],
          [
            -121.7495426,
            36.5850696
          ],
          [
            -121.749547,
            36.5850779
          ],
          [
            -121.749555,
            36.5850947
          ],
          [
            -121.7495587,
            36.5851032
          ],
          [
            -121.7495712,
            36.5851378
          ],
          [
            -121.7495869,
            36.5851904
          ],
          [
            -121.7495957,
            36.5852257
          ],
          [
            -121.749613,
            36.5853056
          ],
          [
            -121.7496238,
            36.585368
          ],
          [
            -121.7496313,
            36.5854218
          ],
          [
            -121.7496382,
            36.5854846
          ],
          [
            -121.7496417,
            36.5855296
          ],
          [
            -121.7496422,
            36.5855386
          ],
          [
            -121.7496434,
            36.5856286
          ],
          [
            -121.7496422,
            36.5856827
          ],
          [
            -121.7496402,
            36.5857097
          ],
          [
            -121.7496334,
            36.5857725
          ],
          [
            -121.7496321,
            36.5857815
          ],
          [
            -121.7496141,
            36.5858704
          ],
          [
            -121.7496052,
            36.585924
          ],
          [
            -121.7496006,
            36.5859598
          ],
          [
            -121.7495967,
            36.5860048
          ],
          [
            -121.7495963,
            36.5860137
          ],
          [
            -121.7495972,
            36.5860227
          ],
          [
            -121.7495988,
            36.5860315
          ],
          [
            -121.7495982,
            36.5861036
          ],
          [
            -121.7495998,
            36.5861306
          ],
          [
            -121.7496081,
            36.5861933
          ],
          [
            -121.7496203,
            36.5862647
          ],
          [
            -121.7496379,
            36.5863446
          ],
          [
            -121.7496471,
            36.5863798
          ],
          [
            -121.7496573,
            36.5864149
          ],
          [
            -121.7496749,
            36.5864671
          ],
          [
            -121.7496847,
            36.5864929
          ],
          [
            -121.7497065,
            36.5865441
          ],
          [
            -121.7497103,
            36.5865525
          ],
          [
            -121.7497186,
            36.5865693
          ],
          [
            -121.7497281,
            36.5865855
          ],
          [
            -121.7497443,
            36.5866092
          ],
          [
            -121.7497678,
            36.5866399
          ],
          [
            -121.7497925,
            36.5866699
          ],
          [
            -121.749812,
            36.5866919
          ],
          [
            -121.7498326,
            36.5867132
          ],
          [
            -121.7498757,
            36.5867546
          ],
          [
            -121.7498831,
            36.5867614
          ],
          [
            -121.7499063,
            36.5867809
          ],
          [
            -121.7499465,
            36.5868121
          ],
          [
            -121.7500048,
            36.5868542
          ],
          [
            -121.750022,
            36.5868657
          ],
          [
            -121.7500308,
            36.5868712
          ],
          [
            -121.7500493,
            36.5868813
          ],
          [
            -121.7500686,
            36.5868904
          ],
          [
            -121.750108,
            36.5869074
          ],
          [
            -121.7501381,
            36.5869193
          ],
          [
            -121.7501795,
            36.5869329
          ],
          [
            -121.7502323,
            36.5869475
          ],
          [
            -121.7502536,
            36.586953
          ],
          [
            -121.7502644,
            36.5869554
          ],
          [
            -121.7502862,
            36.5869592
          ],
          [
            -121.7503962,
            36.5869747
          ],
          [
            -121.7504073,
            36.5869759
          ],
          [
            -121.7504296,
            36.5869767
          ],
          [
            -121.7504408,
            36.5869767
          ],
          [
            -121.7504742,
            36.5869745
          ],
          [
            -121.7504963,
            36.5869722
          ],
          [
            -121.7505184,
            36.5869692
          ],
          [
            -121.7505286,
            36.5869662
          ],
          [
            -121.7505381,
            36.5869616
          ],
          [
            -121.7505803,
            36.5869496
          ],
          [
            -121.7506631,
            36.5869224
          ],
          [
            -121.7506728,
            36.5869182
          ],
          [
            -121.7506815,
            36.5869128
          ],
          [
            -121.7507449,
            36.5868951
          ],
          [
            -121.7508948,
            36.5868591
          ],
          [
            -121.7510024,
            36.586835
          ],
          [
            -121.7510892,
            36.5868177
          ],
          [
            -121.7511212,
            36.5868096
          ],
          [
            -121.7512991,
            36.5867561
          ],
          [
            -121.7513718,
            36.5867328
          ],
          [
            -121.7514231,
            36.5867149
          ],
          [
            -121.7514335,
            36.5867121
          ],
          [
            -121.7514446,
            36.5867119
          ],
          [
            -121.7515086,
            36.5866959
          ],
          [
            -121.7515303,
            36.5866916
          ],
          [
            -121.7515523,
            36.5866885
          ],
          [
            -121.7515858,
            36.5866865
          ],
          [
            -121.7516416,
            36.5866871
          ],
          [
            -121.751675,
            36.5866852
          ],
          [
            -121.7517081,
            36.5866808
          ],
          [
            -121.7517515,
            36.5866721
          ],
          [
            -121.7517733,
            36.5866683
          ],
          [
            -121.751922,
            36.5866292
          ],
          [
            -121.7519862,
            36.5866138
          ],
          [
            -121.7520821,
            36.5865893
          ],
          [
            -121.7521894,
            36.5865642
          ],
          [
            -121.7523391,
            36.5865276
          ],
          [
            -121.7524888,
            36.586491
          ],
          [
            -121.7525212,
            36.5864841
          ],
          [
            -121.752565,
            36.5864769
          ],
          [
            -121.7526421,
            36.5864667
          ],
          [
            -121.7526644,
            36.5864649
          ],
          [
            -121.7526867,
            36.5864644
          ],
          [
            -121.7527202,
            36.5864657
          ],
          [
            -121.7527424,
            36.5864678
          ],
          [
            -121.7527644,
            36.5864709
          ],
          [
            -121.7528077,
            36.5864796
          ],
          [
            -121.7528718,
            36.5864956
          ],
          [
            -121.7528925,
            36.5865023
          ],
          [
            -121.7529126,
            36.5865102
          ],
          [
            -121.7529512,
            36.5865283
          ],
          [
            -121.7529973,
            36.5865537
          ],
          [
            -121.7530232,
            36.5865709
          ],
          [
            -121.753047,
            36.5865899
          ],
          [
            -121.7530683,
            36.5866107
          ],
          [
            -121.7530879,
            36.5866327
          ],
          [
            -121.7531378,
            36.5866925
          ],
          [
            -121.7531611,
            36.5867233
          ],
          [
            -121.7532085,
            36.5867947
          ],
          [
            -121.7532627,
            36.5868787
          ],
          [
            -121.7533169,
            36.5869626
          ],
          [
            -121.7533856,
            36.5870658
          ],
          [
            -121.7534543,
            36.587169
          ],
          [
            -121.7535056,
            36.587249
          ],
          [
            -121.7535609,
            36.5873325
          ],
          [
            -121.7536161,
            36.5874159
          ],
          [
            -121.7536669,
            36.5874859
          ],
          [
            -121.7537048,
            36.5875411
          ],
          [
            -121.7537628,
            36.5876181
          ],
          [
            -121.7538639,
            36.5877583
          ],
          [
            -121.7538896,
            36.5877983
          ],
          [
            -121.7538942,
            36.5878064
          ],
          [
            -121.7538951,
            36.5878154
          ],
          [
            -121.7539124,
            36.5878486
          ],
          [
            -121.753937,
            36.5878989
          ],
          [
            -121.753941,
            36.5879073
          ],
          [
            -121.753944,
            36.587916
          ],
          [
            -121.7539637,
            36.5879483
          ],
          [
            -121.7539831,
            36.5879906
          ],
          [
            -121.7539966,
            36.5880153
          ],
          [
            -121.7540342,
            36.5880706
          ],
          [
            -121.7541225,
            36.5882062
          ],
          [
            -121.7541579,
            36.5882624
          ],
          [
            -121.7542532,
            36.5884053
          ],
          [
            -121.7542584,
            36.5884132
          ],
          [
            -121.754263,
            36.5884214
          ],
          [
            -121.7542907,
            36.5884606
          ],
          [
            -121.7543263,
            36.5885167
          ],
          [
            -121.7543323,
            36.5885243
          ],
          [
            -121.7543479,
            36.5885483
          ],
          [
            -121.7543518,
            36.5885567
          ],
          [
            -121.7543737,
            36.5885881
          ],
          [
            -121.7543994,
            36.5886176
          ],
          [
            -121.7544135,
            36.5886315
          ],
          [
            -121.7544292,
            36.5886444
          ],
          [
            -121.7544376,
            36.5886503
          ],
          [
            -121.7544559,
            36.5886606
          ],
          [
            -121.7544761,
            36.5886684
          ],
          [
            -121.7544975,
            36.5886737
          ],
          [
            -121.7545084,
            36.5886754
          ],
          [
            -121.7545306,
            36.5886773
          ],
          [
            -121.754553,
            36.588677
          ],
          [
            -121.7545751,
            36.5886744
          ],
          [
            -121.7545966,
            36.5886694
          ],
          [
            -121.754617,
            36.5886622
          ],
          [
            -121.7546364,
            36.5886532
          ],
          [
            -121.7546456,
            36.5886481
          ],
          [
            -121.7546544,
            36.5886425
          ],
          [
            -121.7546709,
            36.5886303
          ],
          [
            -121.7547308,
            36.5885768
          ],
          [
            -121.7547499,
            36.5885547
          ],
          [
            -121.7548106,
            36.5884685
          ],
          [
            -121.7548295,
            36.5884462
          ],
          [
            -121.7548945,
            36.5883729
          ],
          [
            -121.754993,
            36.5882635
          ],
          [
            -121.7550915,
            36.5881542
          ],
          [
            -121.7551509,
            36.5880887
          ],
          [
            -121.7551982,
            36.5880386
          ],
          [
            -121.7552618,
            36.5879644
          ],
          [
            -121.7553532,
            36.5878621
          ],
          [
            -121.7553671,
            36.5878479
          ],
          [
            -121.7553819,
            36.5878344
          ],
          [
            -121.7555069,
            36.5877315
          ],
          [
            -121.7555214,
            36.5877177
          ],
          [
            -121.7555618,
            36.5876746
          ],
          [
            -121.7556076,
            36.5876235
          ],
          [
            -121.7556943,
            36.5875295
          ],
          [
            -121.7557647,
            36.5874538
          ],
          [
            -121.7558352,
            36.5873782
          ],
          [
            -121.7558878,
            36.5873199
          ],
          [
            -121.7559486,
            36.5872553
          ],
          [
            -121.7559765,
            36.5872272
          ],
          [
            -121.7560364,
            36.5871736
          ],
          [
            -121.7560713,
            36.5871385
          ],
          [
            -121.7561643,
            36.587037
          ],
          [
            -121.756243,
            36.5869496
          ],
          [
            -121.7562968,
            36.586892
          ],
          [
            -121.7563154,
            36.5868695
          ],
          [
            -121.7563553,
            36.5868152
          ],
          [
            -121.7563735,
            36.5867925
          ],
          [
            -121.7564005,
            36.5867638
          ],
          [
            -121.756439,
            36.5867196
          ],
          [
            -121.7565448,
            36.5866034
          ],
          [
            -121.7565851,
            36.5865602
          ],
          [
            -121.756657,
            36.5864796
          ]
        ]
      }
    },
    {
      "type": "Feature",
      "properties": {
        "role": "start_finish",
        "name": "Start / Finish",
        "marker": 0.0
      },
      "geometry": {
        "type": "Point",
        "coordinates": [
          -121.7566569,
          36.5864797
        ]
      }
    },
    {
      "type": "Feature",
      "properties": {
        "role": "pit_entry",
        "name": "Pit Entry",
        "marker": 0.87004
      },
      "geometry": {
        "type": "Point",
        "coordinates": [
          -121.7536669,
          36.5874859
        ]
      }
    },
    {
      "type": "Feature",
      "properties": {
        "role": "pit_exit",
        "name": "Pit Exit",
        "marker": 0.15394
      },
      "geometry": {
        "type": "Point",
        "coordinates": [
          -121.7568666,
          36.5828643
        ]
      }
    },
    {
      "type": "Feature",
      "properties": {
        "role": "corner",
        "id": "t1",
        "number": 1,
        "code": "1",
        "display": "Turn 1",
        "labels": {
          "numbered": "Turn 1"
        },
        "direction": "left",
        "scale": 6,
        "marker": 0.0679
      },
      "geometry": {
        "type": "Point",
        "coordinates": [
          -121.7577546,
          36.5844684
        ]
      }
    },
    {
      "type": "Feature",
      "properties": {
        "role": "corner",
        "id": "t2",
        "number": 2,
        "code": "2",
        "display": "Andretti Hairpin",
        "labels": {
          "numbered": "Turn 2",
          "driver": "Andretti Hairpin",
          "official": "Andretti Hairpin"
        },
        "direction": "left",
        "scale": 1,
        "marker": 0.14678
      },
      "geometry": {
        "type": "Point",
        "coordinates": [
          -121.7569203,
          36.5826387
        ]
      }
    },
    {
      "type": "Feature",
      "properties": {
        "role": "corner",
        "id": "t3",
        "number": 3,
        "code": "3",
        "display": "Turn 3",
        "labels": {
          "numbered": "Turn 3"
        },
        "direction": "right",
        "scale": 3,
        "marker": 0.22011
      },
      "geometry": {
        "type": "Point",
        "coordinates": [
          -121.7567542,
          36.5849103
        ]
      }
    },
    {
      "type": "Feature",
      "properties": {
        "role": "corner",
        "id": "t4",
        "number": 4,
        "code": "4",
        "display": "Turn 4",
        "labels": {
          "numbered": "Turn 4"
        },
        "direction": "right",
        "scale": 4,
        "marker": 0.29426
      },
      "geometry": {
        "type": "Point",
        "coordinates": [
          -121.7539212,
          36.5843672
        ]
      }
    },
    {
      "type": "Feature",
      "properties": {
        "role": "corner",
        "id": "t5",
        "number": 5,
        "code": "5",
        "display": "Turn 5",
        "labels": {
          "numbered": "Turn 5"
        },
        "direction": "left",
        "scale": 3,
        "marker": 0.4273
      },
      "geometry": {
        "type": "Point",
        "coordinates": [
          -121.7543253,
          36.5801655
        ]
      }
    },
    {
      "type": "Feature",
      "properties": {
        "role": "corner",
        "id": "t6",
        "number": 6,
        "code": "6",
        "display": "Turn 6",
        "labels": {
          "numbered": "Turn 6"
        },
        "direction": "left",
        "scale": 4,
        "marker": 0.54173
      },
      "geometry": {
        "type": "Point",
        "coordinates": [
          -121.7499056,
          36.5803935
        ]
      }
    },
    {
      "type": "Feature",
      "properties": {
        "role": "corner",
        "id": "t7",
        "number": 7,
        "code": "7",
        "display": "The Corkscrew",
        "labels": {
          "numbered": "Turn 7",
          "driver": "The Corkscrew",
          "official": "The Corkscrew (Turn 8/8a)"
        },
        "direction": "left",
        "scale": 2,
        "marker": 0.68643
      },
      "geometry": {
        "type": "Point",
        "coordinates": [
          -121.7490717,
          36.5849083
        ]
      }
    },
    {
      "type": "Feature",
      "properties": {
        "role": "corner",
        "id": "t8",
        "number": 8,
        "code": "8",
        "display": "Rainey Curve",
        "labels": {
          "numbered": "Turn 8",
          "driver": "Rainey Curve",
          "official": "Rainey Curve (Turn 9)"
        },
        "direction": "left",
        "scale": 4,
        "marker": 0.7717
      },
      "geometry": {
        "type": "Point",
        "coordinates": [
          -121.7505074,
          36.5869709
        ]
      }
    },
    {
      "type": "Feature",
      "properties": {
        "role": "corner",
        "id": "t9",
        "number": 9,
        "code": "9",
        "display": "Turn 10",
        "labels": {
          "numbered": "Turn 9",
          "driver": "Turn 10",
          "official": "Turn 10"
        },
        "direction": "right",
        "scale": 3,
        "marker": 0.8378
      },
      "geometry": {
        "type": "Point",
        "coordinates": [
          -121.7530312,
          36.5865772
        ]
      }
    },
    {
      "type": "Feature",
      "properties": {
        "role": "corner",
        "id": "t10",
        "number": 10,
        "code": "10",
        "display": "Turn 11",
        "labels": {
          "numbered": "Turn 10",
          "driver": "Turn 11",
          "official": "Turn 11"
        },
        "direction": "left",
        "scale": 2,
        "marker": 0.91195
      },
      "geometry": {
        "type": "Point",
        "coordinates": [
          -121.7544761,
          36.5886684
        ]
      }
    }
  ]
}