{"type":"FeatureCollection","features":[{"type":"Feature","properties":{"role":"edge_left","orientation":"driving direction, from the lap origin","unseen_spans":[[0.00778,0.00945],[0.15782,0.15949],[0.25479,0.25813],[0.25868,0.26035],[0.39122,0.39289],[0.50653,0.5132],[0.55071,0.55265],[0.55293,0.55571],[0.55793,0.5646],[0.56488,0.56655],[0.56682,0.5721],[0.57321,0.57627],[0.57683,0.57877],[0.58488,0.58683],[0.59044,0.59239],[0.59433,0.60295],[0.60822,0.61239],[0.61267,0.61489],[0.64018,0.64935],[0.65296,0.6549],[0.69714,0.69881],[0.73826,0.74076],[0.74104,0.74326],[0.77299,0.77494],[0.79744,0.80356],[0.88219,0.88469],[0.90358,0.90581],[0.90692,0.90831],[0.91914,0.92303]],"quality":{"source":"naip","accuracy_m":4.0,"relative_accuracy_m":0.25,"measured":true,"date":"2022-05-19","measured_fraction":0.881}},"geometry":{"type":"LineString","coordinates":[[-121.7565952,36.5864357],[-121.7566516,36.5863694],[-121.7566836,36.5863335],[-121.7567197,36.5862897],[-121.7567572,36.5862481],[-121.756798,36.5861956],[-121.7568069,36.5861888],[-121.7568551,36.5861253],[-121.7568707,36.5861026],[-121.7568949,36.586065],[-121.7569326,36.5860013],[-121.7569412,36.5859852],[-121.756954,36.585951],[-121.7569619,36.585934],[-121.7570164,36.5858341],[-121.7570461,36.585776],[-121.7573186,36.5852819],[-121.7574151,36.5851092],[-121.7574916,36.5849778],[-121.7575175,36.5849291],[-121.7575363,36.5848977],[-121.7575493,36.5848738],[-121.7575651,36.5848413],[-121.7575837,36.5848002],[-121.757618,36.5847164],[-121.7576488,36.5846318],[-121.7576596,36.5845982],[-121.7576692,36.5845647],[-121.7576882,36.5844882],[-121.7576961,36.5844449],[-121.7577057,36.5843315],[-121.7577084,36.5842701],[-121.7577077,36.5842071],[-121.7577089,36.5841003],[-121.7577073,36.5839205],[-121.7577066,36.5838939],[-121.7577035,36.5838484],[-121.7577035,36.5837582],[-121.7577022,36.5836664],[-121.7577003,36.5836009],[-121.7576969,36.5835411],[-121.7576955,36.5834896],[-121.7576917,36.5834461],[-121.7576902,36.5834015],[-121.757686,36.5833567],[-121.7576797,36.5832125],[-121.7576792,36.5831675],[-121.7576731,36.5830622],[-121.7576659,36.5828967],[-121.7576548,36.5827928],[-121.7576478,36.5827527],[-121.7576401,36.5827225],[-121.7576352,36.5827081],[-121.7576244,36.5826878],[-121.7576074,36.5826622],[-121.7575923,36.582644],[-121.7575806,36.5826327],[-121.7575615,36.5826169],[-121.7575417,36.5826022],[-121.7575274,36.5825936],[-121.7575123,36.5825859],[-121.7574886,36.5825759],[-121.7574562,36.5825641],[-121.7574397,36.5825594],[-121.7574226,36.5825564],[-121.7573966,36.5825548],[-121.7573619,36.582555],[-121.7573444,36.5825559],[-121.7573179,36.5825584],[-121.7572907,36.5825616],[-121.7572243,36.582574],[-121.7571674,36.5825824],[-121.75715,36.5825865],[-121.7571092,36.5825979],[-121.7570865,36.5826065],[-121.75705,36.5826247],[-121.7570363,36.5826333],[-121.7570038,36.5826562],[-121.7569925,36.5826667],[-121.7569827,36.5826783],[-121.7569704,36.5826976],[-121.7569552,36.5827334],[-121.7569422,36.5827696],[-121.7569351,36.5827982],[-121.7569333,36.5828199],[-121.756934,36.582842],[-121.7569355,36.582857],[-121.7569405,36.5828798],[-121.7569454,36.5828951],[-121.7569519,36.5829106],[-121.7569782,36.5829573],[-121.7569805,36.5829659],[-121.7570158,36.5830317],[-121.7570326,36.583067],[-121.7570428,36.5830745],[-121.7570508,36.5831135],[-121.7570693,36.5831863],[-121.7570772,36.5832126],[-121.7570925,36.5832559],[-121.7571031,36.5832912],[-121.7571273,36.5833913],[-121.757141,36.5834548],[-121.7571543,36.5835278],[-121.75716,36.5835832],[-121.7571721,36.5836654],[-121.7571748,36.5836932],[-121.7571764,36.5837208],[-121.7571772,36.5837662],[-121.7571808,36.5838027],[-121.7571824,36.5838306],[-121.7571827,36.5839607],[-121.757181,36.5839793],[-121.7571744,36.584016],[-121.7571722,36.5840343],[-121.7571635,36.584135],[-121.757158,36.5841721],[-121.7571494,36.5842183],[-121.7571267,36.5843254],[-121.7571182,36.5843705],[-121.7571032,36.5844231],[-121.7570984,36.5844589],[-121.7570951,36.584477],[-121.7570754,36.5845392],[-121.7570575,36.5846102],[-121.7570472,36.5846562],[-121.7570418,36.5846753],[-121.7570352,36.5846945],[-121.7570187,36.5847329],[-121.7569984,36.58477],[-121.7569691,36.5848149],[-121.7569561,36.5848327],[-121.756942,36.5848501],[-121.7569189,36.5848752],[-121.7568931,36.5848984],[-121.7568746,36.5849128],[-121.7568554,36.5849265],[-121.756825,36.5849459],[-121.7567925,36.5849636],[-121.75677,36.5849743],[-121.7567469,36.5849841],[-121.7567116,36.5849969],[-121.7566756,36.5850077],[-121.756651,36.5850135],[-121.756626,36.585018],[-121.7565883,36.5850236],[-121.7565503,36.5850278],[-121.7565246,36.5850296],[-121.7564988,36.5850304],[-121.7564731,36.58503],[-121.7564353,36.5850269],[-121.7563284,36.5850145],[-121.756283,36.5850071],[-121.7562281,36.5849953],[-121.756151,36.5849824],[-121.7559883,36.5849503],[-121.7557924,36.5849132],[-121.7556838,36.5848885],[-121.7555111,36.5848542],[-121.7550442,36.5847658],[-121.7547718,36.5847156],[-121.7546515,36.5846922],[-121.7545967,36.5846828],[-121.7544884,36.584659],[-121.7542926,36.5846199],[-121.754247,36.5846095],[-121.754201,36.5845971],[-121.7541326,36.5845751],[-121.7540988,36.5845626],[-121.7540554,36.5845428],[-121.7540128,36.5845212],[-121.7539926,36.5845092],[-121.7539642,36.5844899],[-121.7539469,36.5844763],[-121.7539227,36.584455],[-121.7538884,36.5844275],[-121.7538549,36.5843973],[-121.7538309,36.5843733],[-121.7538164,36.5843565],[-121.7537969,36.5843306],[-121.7537799,36.584304],[-121.7537653,36.5842767],[-121.7537426,36.5842305],[-121.753731,36.5842018],[-121.753725,36.5841822],[-121.7537155,36.5841431],[-121.7537044,36.5840862],[-121.7536964,36.584031],[-121.7536866,36.5839492],[-121.7536795,36.5839044],[-121.7536756,36.5838681],[-121.7536711,36.5837866],[-121.7536639,36.5837246],[-121.753635,36.5834096],[-121.7536281,36.5833195],[-121.7536241,36.5832838],[-121.7536214,36.583229],[-121.7536144,36.5831298],[-121.7536123,36.5830852],[-121.7536061,36.5830317],[-121.7536008,36.5829679],[-121.7535968,36.5828939],[-121.7535955,36.5827828],[-121.7535973,36.5827458],[-121.7536029,36.5826996],[-121.7536065,36.582654],[-121.7536144,36.5825809],[-121.7536239,36.5825258],[-121.7536313,36.582471],[-121.7536462,36.5824076],[-121.7536527,36.5823712],[-121.7536587,36.582344],[-121.7536751,36.5822812],[-121.7536927,36.5822189],[-121.753711,36.582166],[-121.7537239,36.5821216],[-121.7537583,36.5820251],[-121.7537771,36.581964],[-121.7538073,36.581877],[-121.7538601,36.5817297],[-121.7538816,36.5816779],[-121.7538977,36.581635],[-121.7539753,36.5814188],[-121.7540166,36.5813066],[-121.7540396,36.5812371],[-121.7540416,36.5812282],[-121.7541321,36.5809679],[-121.7541542,36.5809071],[-121.7541816,36.5808386],[-121.7542536,36.5806311],[-121.7542834,36.5805532],[-121.7542916,36.5805276],[-121.7543084,36.5804618],[-121.7543153,36.5804218],[-121.7543179,36.5803819],[-121.7543175,36.5803663],[-121.7543152,36.5803435],[-121.7543129,36.5803285],[-121.7543093,36.5803134],[-121.754286,36.5802513],[-121.75427,36.5802129],[-121.7542628,36.5801984],[-121.7542585,36.5801914],[-121.7542486,36.5801783],[-121.754203,36.5801294],[-121.7541781,36.5801069],[-121.7541368,36.5800751],[-121.7541131,36.5800603],[-121.7540535,36.5800268],[-121.7540184,36.5800106],[-121.7539829,36.5799962],[-121.7539549,36.5799876],[-121.7539065,36.5799751],[-121.7538669,36.5799666],[-121.7537957,36.5799532],[-121.753764,36.5799491],[-121.7536695,36.5799391],[-121.7535964,36.5799348],[-121.7535749,36.5799344],[-121.7535311,36.5799362],[-121.7534653,36.5799371],[-121.7534004,36.5799411],[-121.7533023,36.5799516],[-121.7532141,36.5799589],[-121.7529944,36.5799851],[-121.7528411,36.5800072],[-121.7527653,36.5800207],[-121.7526992,36.5800309],[-121.7522049,36.5801046],[-121.7520402,36.58013],[-121.7518963,36.5801507],[-121.7517419,36.5801718],[-121.7516309,36.580186],[-121.7515645,36.5801939],[-121.7515202,36.5801979],[-121.751487,36.5802017],[-121.7514096,36.5802131],[-121.7513321,36.5802204],[-121.7512766,36.5802278],[-121.7510328,36.580255],[-121.7509772,36.5802599],[-121.7509227,36.5802679],[-121.7507477,36.5802908],[-121.7504298,36.5803368],[-121.7503522,36.5803465],[-121.7501103,36.5803807],[-121.750059,36.5803899],[-121.7500301,36.5803965],[-121.7500118,36.5804016],[-121.7499943,36.5804073],[-121.7499695,36.5804167],[-121.749954,36.5804237],[-121.7499396,36.580432],[-121.7499269,36.5804418],[-121.749909,36.580458],[-121.7498974,36.5804698],[-121.7498866,36.5804829],[-121.7498247,36.5805741],[-121.7498104,36.5805973],[-121.7498031,36.5806135],[-121.7497929,36.5806472],[-121.7497821,36.5806526],[-121.7497754,36.5806684],[-121.7497699,36.5806842],[-121.7497658,36.5807005],[-121.7497629,36.5807175],[-121.7497582,36.580774],[-121.7497532,36.5808038],[-121.7497445,36.5808328],[-121.7497369,36.5808514],[-121.7497283,36.5808695],[-121.7497141,36.5808958],[-121.7496989,36.5809209],[-121.7496828,36.580945],[-121.749671,36.5809607],[-121.7496515,36.5809836],[-121.7496089,36.5810267],[-121.749596,36.581041],[-121.7495843,36.5810556],[-121.7495686,36.5810782],[-121.7495211,36.5811562],[-121.7494851,36.5812128],[-121.7494711,36.5812372],[-121.7494595,36.5812617],[-121.7494532,36.5812782],[-121.7494482,36.5812948],[-121.7494444,36.5813117],[-121.7494399,36.5813462],[-121.7494355,36.5814362],[-121.7494281,36.5814978],[-121.7494294,36.5815068],[-121.7494252,36.581541],[-121.7494203,36.581549],[-121.7494105,36.5816251],[-121.7493996,36.5817756],[-121.7494008,36.5817846],[-121.7493987,36.5818117],[-121.7493955,36.5818205],[-121.749384,36.5819271],[-121.7493813,36.5819359],[-121.7493768,36.5819805],[-121.7493785,36.5819895],[-121.7493747,36.5820432],[-121.7493696,36.5820892],[-121.7493658,36.5821078],[-121.7493604,36.5821264],[-121.7493429,36.5821721],[-121.749337,36.5821904],[-121.749319,36.5822649],[-121.7493081,36.5823029],[-121.7492848,36.5823662],[-121.7492787,36.5823739],[-121.7492735,36.5823992],[-121.7492666,36.582423],[-121.7492637,36.582439],[-121.7492621,36.582455],[-121.7492619,36.5824711],[-121.7492634,36.5824874],[-121.7492729,36.5825378],[-121.7492765,36.5825644],[-121.7492783,36.5825919],[-121.7492785,36.5826299],[-121.7492777,36.5826495],[-121.7492736,36.5826591],[-121.7492688,36.582751],[-121.7492654,36.5827769],[-121.7492619,36.5828204],[-121.7492593,36.5828745],[-121.7492516,36.5829557],[-121.7492483,36.5830447],[-121.7492417,36.5831588],[-121.7492366,36.5833289],[-121.7492379,36.5833731],[-121.7492378,36.5834698],[-121.7492397,36.5835416],[-121.7492392,36.583579],[-121.7492363,36.5836068],[-121.7492243,36.5836566],[-121.749222,36.5836786],[-121.7492226,36.5836927],[-121.7492246,36.5837066],[-121.7492278,36.5837205],[-121.7492345,36.5837422],[-121.7492468,36.5837746],[-121.7492578,36.5837812],[-121.7492536,36.5837928],[-121.7492658,36.583832],[-121.7492704,36.5838523],[-121.7492739,36.5838729],[-121.7492762,36.5838939],[-121.7492774,36.5839252],[-121.7492773,36.5839355],[-121.7492722,36.5839457],[-121.7492721,36.5839847],[-121.7492733,36.5839943],[-121.7492723,36.5840038],[-121.7492702,36.5840226],[-121.7492642,36.5840595],[-121.7492598,36.5840965],[-121.7492532,36.5841335],[-121.7492303,36.5842342],[-121.7492112,36.5843058],[-121.7491838,36.5843938],[-121.7491735,36.5844297],[-121.7491645,36.5844564],[-121.7491179,36.5845781],[-121.7490798,36.5846699],[-121.7490733,36.5846937],[-121.7490693,36.5847169],[-121.7490676,36.5847318],[-121.7490667,36.5847536],[-121.7490672,36.5847678],[-121.74907,36.584795],[-121.7490725,36.5848078],[-121.7490748,36.5848137],[-121.7490814,36.5848244],[-121.7490992,36.5848476],[-121.749112,36.5848591],[-121.7491226,36.5848656],[-121.7491286,36.5848683],[-121.7491424,36.5848726],[-121.7491747,36.5848789],[-121.7492109,36.5848846],[-121.7492302,36.5848861],[-121.7492506,36.5848848],[-121.7492961,36.5848755],[-121.7493087,36.5848737],[-121.7493352,36.5848723],[-121.749363,36.584874],[-121.7493917,36.5848783],[-121.7494209,36.5848849],[-121.74945,36.5848932],[-121.7494784,36.5849033],[-121.7494871,36.5849153],[-121.7495109,36.5849296],[-121.7495219,36.5849375],[-121.7495423,36.5849544],[-121.7495516,36.5849633],[-121.7495686,36.5849821],[-121.7495901,36.5850116],[-121.7496064,36.585042],[-121.7496202,36.5850717],[-121.7496318,36.5851008],[-121.7496457,36.5851478],[-121.7496828,36.5853034],[-121.749691,36.5853491],[-121.7496992,36.5854043],[-121.7497056,36.5854593],[-121.7497104,36.5855148],[-121.7497128,36.5855711],[-121.7497125,36.585645],[-121.7497112,36.5856824],[-121.7497069,36.585739],[-121.7497052,36.5857766],[-121.7497028,36.5857953],[-121.7496926,36.585841],[-121.7496806,36.5859111],[-121.7496771,36.5859369],[-121.7496751,36.5859623],[-121.7496758,36.5859707],[-121.7496749,36.5860205],[-121.7496799,36.5860291],[-121.7496803,36.5860377],[-121.7496799,36.5860552],[-121.7496758,36.5860903],[-121.7496756,36.5861159],[-121.7496853,36.5861837],[-121.7496984,36.5862611],[-121.7497091,36.5863124],[-121.7497212,36.5863637],[-121.7497305,36.5863976],[-121.7497441,36.5864394],[-121.7497459,36.586448],[-121.7497585,36.586481],[-121.7497841,36.5865349],[-121.749796,36.5865564],[-121.7498096,36.5865776],[-121.7498248,36.586599],[-121.7498467,36.586627],[-121.7498641,36.5866473],[-121.7498824,36.586667],[-121.7499418,36.5867259],[-121.7499634,36.5867444],[-121.7499857,36.5867622],[-121.7500535,36.5868137],[-121.7500685,36.5868242],[-121.7500763,36.5868289],[-121.750093,36.5868367],[-121.750174,36.586867],[-121.7501931,36.5868732],[-121.7502319,36.5868841],[-121.7502697,36.5868964],[-121.7502892,36.5869006],[-121.7503608,36.5869081],[-121.750409,36.5869117],[-121.7504432,36.5869121],[-121.7504852,36.58691],[-121.7505032,36.5869076],[-121.7505096,36.5868985],[-121.7505364,36.5868878],[-121.7506025,36.5868575],[-121.7506331,36.5868447],[-121.7506407,36.5868344],[-121.7506865,36.5868232],[-121.7507552,36.5868088],[-121.7508431,36.5867876],[-121.7509318,36.5867677],[-121.7509964,36.58675],[-121.7510269,36.5867425],[-121.7510862,36.5867318],[-121.7511363,36.5867196],[-121.7511886,36.5867059],[-121.7512094,36.5866995],[-121.75126,36.5866813],[-121.7513303,36.5866536],[-121.7513948,36.5866253],[-121.7514088,36.586628],[-121.7514432,36.5866184],[-121.7514793,36.5866101],[-121.7515054,36.5866058],[-121.7515328,36.5866035],[-121.7515607,36.5866039],[-121.7515744,36.5866053],[-121.7516004,36.5866099],[-121.7516456,36.58662],[-121.7516658,36.5866226],[-121.7516756,36.5866231],[-121.7516948,36.5866227],[-121.7517141,36.5866207],[-121.7517433,36.5866158],[-121.7517538,36.5866157],[-121.7517937,36.5866043],[-121.7518998,36.5865765],[-121.751954,36.5865638],[-121.7520168,36.5865465],[-121.7520914,36.5865277],[-121.7522099,36.5864992],[-121.7522962,36.5864803],[-121.7524245,36.5864489],[-121.7524801,36.5864345],[-121.752503,36.5864295],[-121.7525379,36.5864231],[-121.7525968,36.5864134],[-121.7526213,36.5864102],[-121.7526594,36.5864075],[-121.7526986,36.5864072],[-121.7527377,36.5864095],[-121.7527758,36.5864141],[-121.7528123,36.5864211],[-121.7528718,36.5864361],[-121.7529077,36.5864469],[-121.752943,36.5864599],[-121.7529766,36.5864748],[-121.7530189,36.586497],[-121.7530393,36.5865092],[-121.7530592,36.5865223],[-121.7530878,36.5865437],[-121.7531134,36.5865672],[-121.7531359,36.5865917],[-121.7532035,36.5866699],[-121.7532221,36.586694],[-121.7532669,36.5867592],[-121.7533752,36.5869272],[-121.7535692,36.5872214],[-121.7536189,36.5872914],[-121.7536507,36.5873392],[-121.7536808,36.5873867],[-121.7537356,36.5874536],[-121.7537757,36.5875077],[-121.7538072,36.5875444],[-121.753838,36.5875821],[-121.7538678,36.5876205],[-121.7539444,36.5877127],[-121.753986,36.5877746],[-121.7539825,36.5877863],[-121.7539964,36.5878221],[-121.7540161,36.5878829],[-121.7540166,36.5878922],[-121.7540266,36.5879078],[-121.7540356,36.5879241],[-121.7540422,36.5879413],[-121.7540498,36.5879672],[-121.7540532,36.5879753],[-121.7540615,36.5879908],[-121.7541034,36.588052],[-121.754217,36.5882282],[-121.7543009,36.5883543],[-121.7543215,36.5883864],[-121.7543251,36.588395],[-121.7543463,36.5884268],[-121.7543529,36.5884342],[-121.754389,36.5884906],[-121.7543962,36.5884977],[-121.7544115,36.5885207],[-121.7544138,36.5885295],[-121.7544187,36.5885368],[-121.7544336,36.5885576],[-121.7544399,36.5885634],[-121.7544702,36.5885965],[-121.7544803,36.5886053],[-121.7544857,36.5886089],[-121.7544972,36.5886145],[-121.7545093,36.5886179],[-121.7545218,36.5886196],[-121.7545408,36.5886201],[-121.7545599,36.5886181],[-121.7545725,36.5886148],[-121.7545848,36.5886097],[-121.7546032,36.5885996],[-121.7546209,36.5885857],[-121.754669,36.5885403],[-121.7546885,36.5885131],[-121.7547174,36.5884664],[-121.7547342,36.5884415],[-121.7547385,36.5884324],[-121.7547511,36.5884163],[-121.7548179,36.5883403],[-121.7549169,36.5882304],[-121.7550295,36.5881076],[-121.7551251,36.588008],[-121.7551642,36.587965],[-121.7552265,36.5879007],[-121.7552935,36.5878248],[-121.7553535,36.587763],[-121.7554058,36.5877053],[-121.7554743,36.5876336],[-121.7556137,36.5874821],[-121.755663,36.5874324],[-121.7557163,36.5873752],[-121.7557578,36.5873331],[-121.7558123,36.5872745],[-121.7558778,36.5872063],[-121.7559257,36.5871576],[-121.7559568,36.5871244],[-121.7560035,36.5870773],[-121.7560427,36.587034],[-121.7560837,36.5869913],[-121.756144,36.5869249],[-121.7562881,36.5867695],[-121.7563456,36.5867106],[-121.7564775,36.5865651],[-121.7565175,36.5865231],[-121.7565618,36.5864719],[-121.7565952,36.5864357]]}},{"type":"Feature","properties":{"role":"edge_right","orientation":"driving direction, from the lap origin","unseen_spans":[[0.00722,0.01361],[0.25452,0.25785],[0.25868,0.26035],[0.39122,0.39289],[0.50709,0.51042],[0.5107,0.51375],[0.58544,0.59266],[0.59294,0.60072],[0.60961,0.61156],[0.61406,0.6449],[0.64768,0.65046],[0.65129,0.65351],[0.70631,0.70909],[0.70964,0.7152],[0.71714,0.71881],[0.91192,0.91609],[0.94749,0.94943],[0.94971,0.9511],[0.99111,0.00667]],"quality":{"source":"naip","accuracy_m":4.0,"relative_accuracy_m":0.25,"measured":true,"date":"2022-05-19","measured_fraction":0.879}},"geometry":{"type":"LineString","coordinates":[[-121.7567319,36.5865111],[-121.7567909,36.5864445],[-121.7568298,36.5863989],[-121.7568604,36.5863593],[-121.7568829,36.5863256],[-121.7568929,36.586308],[-121.7569016,36.58629],[-121.756909,36.5862721],[-121.7569271,36.5862206],[-121.7569385,36.5861964],[-121.7569478,36.5861804],[-121.7569909,36.5861135],[-121.7570137,36.5860709],[-121.7570498,36.5860135],[-121.7571381,36.5858586],[-121.7571815,36.5857853],[-121.7574404,36.5853162],[-121.7574914,36.5852258],[-121.7575251,36.5851691],[-121.7575647,36.5850955],[-121.7576413,36.5849641],[-121.7576641,36.5849213],[-121.7576893,36.5848694],[-121.7577088,36.5848258],[-121.7577304,36.5847735],[-121.757754,36.5847122],[-121.7577728,36.584659],[-121.7577872,36.5846137],[-121.7577994,36.5845676],[-121.7578204,36.5844573],[-121.7578282,36.5844018],[-121.7578346,36.5843279],[-121.757838,36.5842455],[-121.7578419,36.5841823],[-121.7578428,36.5840818],[-121.7578404,36.5838475],[-121.757845,36.5837574],[-121.7578446,36.583739],[-121.7578414,36.5836946],[-121.7578412,36.5836691],[-121.7578426,36.5836522],[-121.7578456,36.5836352],[-121.7578596,36.583581],[-121.7578625,36.5835619],[-121.7578637,36.5835427],[-121.757863,36.5834489],[-121.7578571,36.5833853],[-121.757856,36.5833304],[-121.7578542,36.5833115],[-121.7578511,36.5832927],[-121.7578402,36.5832573],[-121.7578362,36.5832403],[-121.7578345,36.5832234],[-121.7578332,36.5831702],[-121.7578296,36.5831332],[-121.7578197,36.5830689],[-121.7578085,36.5830159],[-121.7578056,36.5829988],[-121.7578029,36.5829645],[-121.7578025,36.5828927],[-121.7577979,36.5827999],[-121.7577924,36.5827515],[-121.7577846,36.5827113],[-121.7577787,36.582691],[-121.7577711,36.5826707],[-121.7577568,36.5826408],[-121.7577453,36.5826214],[-121.7577324,36.5826025],[-121.7577106,36.5825756],[-121.7576948,36.5825585],[-121.7576693,36.5825339],[-121.7576415,36.5825106],[-121.7576215,36.5824962],[-121.7576003,36.5824827],[-121.7575781,36.5824705],[-121.7575434,36.5824542],[-121.7575071,36.5824397],[-121.7574692,36.582427],[-121.7574431,36.5824196],[-121.7574165,36.5824135],[-121.7573896,36.5824088],[-121.7573625,36.5824055],[-121.7573218,36.582403],[-121.7572951,36.5824029],[-121.7572688,36.5824043],[-121.7572307,36.5824082],[-121.7571938,36.5824137],[-121.7571573,36.5824203],[-121.7571205,36.5824287],[-121.7570831,36.5824393],[-121.757058,36.5824477],[-121.7570331,36.5824573],[-121.7570089,36.5824687],[-121.7569859,36.5824816],[-121.7569641,36.5824958],[-121.7569437,36.5825108],[-121.7569151,36.5825347],[-121.756889,36.5825605],[-121.7568733,36.5825789],[-121.756859,36.5825981],[-121.7568401,36.5826274],[-121.7568293,36.582647],[-121.7568159,36.5826767],[-121.7568047,36.5827065],[-121.7567983,36.5827268],[-121.756793,36.5827474],[-121.7567891,36.5827686],[-121.7567869,36.5828009],[-121.7567879,36.5828225],[-121.7567908,36.5828438],[-121.7567953,36.5828646],[-121.7568037,36.5828951],[-121.7568161,36.5829341],[-121.7568292,36.5829713],[-121.7568465,36.5830159],[-121.7568839,36.5830999],[-121.7569168,36.5831886],[-121.7569518,36.5833019],[-121.7569725,36.5833615],[-121.7569775,36.5833785],[-121.7569834,36.5834042],[-121.7570171,36.583569],[-121.7570245,36.5836217],[-121.7570311,36.583683],[-121.7570349,36.5837357],[-121.7570394,36.5838332],[-121.7570362,36.5839815],[-121.7570337,36.5840167],[-121.7570287,36.5840609],[-121.7570152,36.584148],[-121.7570041,36.5842082],[-121.7569777,36.5843318],[-121.756927,36.584561],[-121.7569079,36.5846381],[-121.7569009,36.5846617],[-121.7568916,36.5846841],[-121.7568753,36.5847128],[-121.7568519,36.5847474],[-121.7568309,36.5847733],[-121.7568131,36.5847911],[-121.7567933,36.5848077],[-121.7567583,36.5848339],[-121.7567288,36.5848529],[-121.756705,36.5848646],[-121.7566711,36.5848775],[-121.7566087,36.5848963],[-121.7565719,36.5849044],[-121.7565343,36.5849098],[-121.7564967,36.5849128],[-121.7564777,36.584913],[-121.7564584,36.5849122],[-121.7564188,36.5849081],[-121.7563467,36.5848958],[-121.7561109,36.5848493],[-121.7560119,36.5848319],[-121.7559245,36.5848154],[-121.7558487,36.5848004],[-121.7557849,36.5847886],[-121.7556979,36.5847705],[-121.755621,36.5847555],[-121.7554903,36.5847322],[-121.7554141,36.5847169],[-121.7551858,36.5846732],[-121.7551208,36.58466],[-121.7549787,36.5846332],[-121.7548922,36.5846155],[-121.7547732,36.5845931],[-121.7546435,36.5845677],[-121.7545571,36.584552],[-121.7544477,36.58453],[-121.7542988,36.5845014],[-121.7542594,36.5844919],[-121.7542216,36.5844803],[-121.7541941,36.5844702],[-121.7541593,36.5844546],[-121.7541263,36.5844372],[-121.7541029,36.584423],[-121.7540803,36.5844077],[-121.7540111,36.584358],[-121.7539893,36.5843411],[-121.7539766,36.5843292],[-121.7539599,36.5843102],[-121.75393,36.5842696],[-121.7539111,36.5842412],[-121.7538934,36.5842121],[-121.7538818,36.5841898],[-121.7538685,36.5841598],[-121.7538601,36.5841368],[-121.7538537,36.584113],[-121.7538474,36.5840797],[-121.7538355,36.5839746],[-121.7538194,36.5838144],[-121.7538146,36.5837507],[-121.7538055,36.5836607],[-121.7537996,36.5835894],[-121.7537912,36.5835178],[-121.7537683,36.5832839],[-121.7537619,36.5832306],[-121.7537509,36.5830868],[-121.7537402,36.5829614],[-121.7537375,36.5829174],[-121.7537368,36.5828828],[-121.7537392,36.5828217],[-121.7537404,36.5827426],[-121.7537623,36.5825494],[-121.7537797,36.5824535],[-121.7538018,36.5823581],[-121.7538509,36.5821851],[-121.753859,36.5821592],[-121.7538856,36.5820822],[-121.7539107,36.5820132],[-121.7539527,36.5818921],[-121.7539781,36.5818227],[-121.7540158,36.5817103],[-121.7540416,36.5816408],[-121.7540626,36.58158],[-121.7540861,36.5815198],[-121.7541156,36.5814332],[-121.7541459,36.5813558],[-121.7541934,36.5812255],[-121.7542657,36.5810173],[-121.7542996,36.5809226],[-121.7543581,36.5807478],[-121.7544372,36.5805201],[-121.7544459,36.5804917],[-121.7544506,36.5804723],[-121.7544543,36.5804526],[-121.7544582,36.580423],[-121.7544607,36.580393],[-121.7544617,36.5803624],[-121.7544609,36.5803417],[-121.7544586,36.5803209],[-121.7544548,36.5803003],[-121.7544497,36.5802801],[-121.7544368,36.5802416],[-121.7544105,36.5801762],[-121.7544014,36.5801573],[-121.7543645,36.5800907],[-121.7543512,36.5800726],[-121.7543349,36.5800562],[-121.7543171,36.5800407],[-121.7542894,36.5800184],[-121.7542702,36.5800043],[-121.7542501,36.5799912],[-121.754219,36.5799737],[-121.7541369,36.5799328],[-121.7540948,36.5799133],[-121.7540503,36.5798955],[-121.7540045,36.5798803],[-121.7539467,36.5798649],[-121.7538999,36.579855],[-121.7538528,36.5798478],[-121.7537248,36.5798363],[-121.7536775,36.5798336],[-121.7536416,36.5798333],[-121.753606,36.5798344],[-121.7534231,36.5798456],[-121.7533546,36.5798511],[-121.7532652,36.5798602],[-121.7532205,36.5798651],[-121.7531428,36.579876],[-121.7530878,36.5798826],[-121.7529753,36.5798927],[-121.7528433,36.5799146],[-121.7527433,36.5799279],[-121.7518986,36.5800547],[-121.7516022,36.5800947],[-121.7515357,36.5801018],[-121.7514584,36.5801118],[-121.7513924,36.5801191],[-121.7512821,36.5801334],[-121.7509619,36.5801703],[-121.7508612,36.5801804],[-121.7508166,36.5801856],[-121.7506946,36.5802022],[-121.7505845,36.5802185],[-121.7504852,36.5802323],[-121.7502879,36.5802625],[-121.7502113,36.580275],[-121.7501453,36.5802843],[-121.7500663,36.5802944],[-121.750043,36.5802981],[-121.7500074,36.5803051],[-121.7499834,36.5803107],[-121.7499592,36.5803173],[-121.7499233,36.58033],[-121.7498888,36.5803465],[-121.749867,36.5803596],[-121.7498567,36.5803666],[-121.7498468,36.580374],[-121.7498282,36.5803895],[-121.7498116,36.580406],[-121.749797,36.580423],[-121.7497209,36.5805288],[-121.7496766,36.5805847],[-121.7496519,36.580618],[-121.7495368,36.5807918],[-121.7494925,36.5808605],[-121.749433,36.5809566],[-121.7494075,36.5809996],[-121.7493789,36.5810525],[-121.7493572,36.5810971],[-121.7493187,36.5811821],[-121.7492978,36.5812372],[-121.7492898,36.5812561],[-121.7492701,36.581293],[-121.7492615,36.5813114],[-121.7492519,36.5813389],[-121.7492395,36.5813837],[-121.749223,36.5814469],[-121.74921,36.581503],[-121.7491889,36.581608],[-121.7491843,36.5816362],[-121.7491793,36.5816821],[-121.7491745,36.5817639],[-121.7491742,36.5817909],[-121.749176,36.5818182],[-121.7491789,36.5818366],[-121.7491872,36.5818738],[-121.7491901,36.5819013],[-121.7491883,36.5820195],[-121.749187,36.5820463],[-121.7491736,36.5821749],[-121.7491704,36.5821916],[-121.7491623,36.5822241],[-121.7491567,36.5822878],[-121.7491522,36.5823128],[-121.7491401,36.5823685],[-121.7491372,36.5823884],[-121.7491343,36.5824185],[-121.7491286,36.5824579],[-121.7491269,36.5824776],[-121.7491263,36.5825067],[-121.7491292,36.582544],[-121.7491297,36.5825622],[-121.7491246,36.5826064],[-121.7491231,36.5826406],[-121.7491205,36.5826662],[-121.7491073,36.5827558],[-121.749063,36.5830256],[-121.7490496,36.5831262],[-121.7490399,36.583217],[-121.749027,36.5833527],[-121.7490215,36.5834263],[-121.7490188,36.5834817],[-121.7490204,36.5835795],[-121.7490202,36.5836539],[-121.7490217,36.5836752],[-121.7490254,36.5836972],[-121.7490284,36.5837082],[-121.7490365,36.5837299],[-121.7490463,36.5837511],[-121.7490575,36.5837713],[-121.749077,36.5837989],[-121.7491208,36.583851],[-121.7491347,36.5838722],[-121.7491502,36.583901],[-121.7491529,36.5839084],[-121.7491557,36.5839235],[-121.7491558,36.583947],[-121.7491538,36.5839799],[-121.749145,36.5840574],[-121.7491393,36.5840919],[-121.7491335,36.5841175],[-121.749113,36.5841942],[-121.7490871,36.5842709],[-121.7490533,36.5843655],[-121.7490016,36.5845012],[-121.748954,36.5846222],[-121.748933,36.5846787],[-121.7489271,36.5846988],[-121.748923,36.5847196],[-121.7489206,36.5847409],[-121.74892,36.5847625],[-121.7489218,36.5847955],[-121.7489274,36.5848293],[-121.7489342,36.5848522],[-121.7489444,36.5848749],[-121.7489583,36.584897],[-121.7489758,36.584918],[-121.7489969,36.5849372],[-121.7490087,36.5849459],[-121.7490212,36.5849539],[-121.7490343,36.5849612],[-121.7490617,36.5849731],[-121.7490898,36.5849817],[-121.7491174,36.5849877],[-121.7491574,36.5849939],[-121.749196,36.5849985],[-121.7492335,36.5850022],[-121.7492993,36.585007],[-121.7493263,36.58501],[-121.7493423,36.5850126],[-121.7493569,36.585016],[-121.7493832,36.5850244],[-121.7494028,36.5850323],[-121.7494158,36.5850389],[-121.7494344,36.5850505],[-121.7494517,36.5850642],[-121.7494622,36.5850747],[-121.7494758,36.5850927],[-121.7494836,36.5851061],[-121.7494938,36.5851276],[-121.7495028,36.5851508],[-121.7495198,36.5852],[-121.749527,36.5852251],[-121.7495324,36.5852506],[-121.7495487,36.5853378],[-121.7495581,36.5853987],[-121.7495678,36.5854774],[-121.7495728,36.5855382],[-121.7495745,36.5856166],[-121.7495737,36.5856777],[-121.7495721,36.5857033],[-121.7495601,36.5857803],[-121.7495414,36.5858683],[-121.7495216,36.585981],[-121.7495189,36.5860004],[-121.7495177,36.5860197],[-121.7495178,36.5860385],[-121.7495213,36.5861129],[-121.749524,36.5861512],[-121.74953,36.5861981],[-121.7495408,36.5862628],[-121.7495567,36.5863366],[-121.7495686,36.5863822],[-121.7495792,36.5864185],[-121.7495884,36.5864456],[-121.7496084,36.5864996],[-121.7496372,36.5865732],[-121.7496459,36.5865922],[-121.7496564,36.5866108],[-121.7496684,36.5866285],[-121.7496879,36.5866536],[-121.7497277,36.5867024],[-121.7497636,36.5867419],[-121.7497862,36.5867645],[-121.7498094,36.5867861],[-121.7498418,36.5868138],[-121.7498848,36.5868469],[-121.7499288,36.586879],[-121.7499661,36.586904],[-121.7499963,36.5869221],[-121.7500385,36.5869447],[-121.7500708,36.5869603],[-121.7501035,36.5869742],[-121.7501257,36.5869823],[-121.7501481,36.5869894],[-121.7502058,36.5870045],[-121.750253,36.587015],[-121.7503236,36.587028],[-121.7503715,36.5870377],[-121.7503972,36.5870419],[-121.7504106,36.5870431],[-121.7504382,36.5870436],[-121.7504663,36.5870421],[-121.7504943,36.587039],[-121.7505348,36.5870329],[-121.7505854,36.587024],[-121.7506322,36.5870145],[-121.750718,36.5869946],[-121.7507375,36.5869886],[-121.7507757,36.5869752],[-121.7507954,36.5869692],[-121.7508364,36.5869585],[-121.750899,36.5869434],[-121.7509616,36.5869294],[-121.7510038,36.5869208],[-121.7510252,36.5869172],[-121.751082,36.5869092],[-121.7511055,36.5869044],[-121.7511288,36.5868981],[-121.7511517,36.586891],[-121.7512589,36.5868545],[-121.7513013,36.5868426],[-121.7515763,36.5867738],[-121.7517301,36.5867388],[-121.7519516,36.5866823],[-121.7521018,36.5866457],[-121.7522086,36.5866213],[-121.7523147,36.5865937],[-121.7524644,36.5865569],[-121.7525259,36.5865432],[-121.7525668,36.5865364],[-121.7526567,36.5865255],[-121.7526848,36.5865236],[-121.7527033,36.586524],[-121.7527311,36.5865265],[-121.7527692,36.5865326],[-121.7528359,36.5865469],[-121.752854,36.5865517],[-121.7528713,36.5865577],[-121.7528962,36.5865688],[-121.7529531,36.5865986],[-121.7529754,36.5866128],[-121.7529955,36.5866286],[-121.7530139,36.5866461],[-121.7530312,36.5866657],[-121.7530714,36.5867154],[-121.7530936,36.5867448],[-121.7531088,36.5867674],[-121.7532573,36.5869979],[-121.7533469,36.587133],[-121.7533958,36.5872038],[-121.7534865,36.5873491],[-121.7535607,36.5874613],[-121.7536481,36.5875987],[-121.7536968,36.5876697],[-121.7537533,36.5877577],[-121.7537977,36.5878307],[-121.7538763,36.5879491],[-121.7539015,36.5879899],[-121.7539314,36.588041],[-121.7539649,36.5880904],[-121.7540212,36.5881783],[-121.7540585,36.5882335],[-121.7541037,36.5883064],[-121.7541786,36.5884178],[-121.7542284,36.5884882],[-121.7542841,36.5885771],[-121.7543073,36.5886114],[-121.7543204,36.5886291],[-121.7543433,36.5886559],[-121.7543616,36.5886733],[-121.7543831,36.5886897],[-121.7543949,36.5886973],[-121.7544208,36.5887113],[-121.7544347,36.5887173],[-121.7544494,36.5887225],[-121.7544799,36.5887305],[-121.7545113,36.5887353],[-121.7545273,36.5887365],[-121.7545591,36.5887363],[-121.7545905,36.5887328],[-121.7546208,36.5887261],[-121.7546495,36.5887167],[-121.754663,36.5887111],[-121.7546882,36.5886986],[-121.7547107,36.5886844],[-121.7547307,36.5886693],[-121.7547755,36.5886309],[-121.7548009,36.5886076],[-121.7548232,36.5885829],[-121.7548532,36.5885424],[-121.7548708,36.5885204],[-121.7550627,36.588306],[-121.7551736,36.5881808],[-121.7552116,36.5881363],[-121.7552652,36.5880782],[-121.755284,36.5880553],[-121.7553192,36.5880091],[-121.7553434,36.5879791],[-121.7553753,36.5879426],[-121.7554132,36.5879013],[-121.755426,36.5878887],[-121.7554404,36.5878774],[-121.7555738,36.5877922],[-121.755592,36.5877787],[-121.7556,36.5877711],[-121.7556434,36.5877244],[-121.7556886,36.5876728],[-121.7557882,36.5875643],[-121.7558398,36.5875057],[-121.7559066,36.5874326],[-121.7559572,36.5873743],[-121.7560263,36.5872992],[-121.7560403,36.5872853],[-121.7560557,36.5872717],[-121.7560724,36.5872583],[-121.7560993,36.5872388],[-121.7561162,36.5872249],[-121.7561315,36.5872102],[-121.7561527,36.5871878],[-121.7563218,36.5869984],[-121.756378,36.5869386],[-121.7563911,36.5869218],[-121.7563969,36.5869131],[-121.7564161,36.5868788],[-121.7564391,36.5868402],[-121.7564444,36.5868329],[-121.7564693,36.5868046],[-121.7564996,36.5867673],[-121.7565398,36.5867244],[-121.7567319,36.5865111]]}},{"type":"Feature","properties":{"role":"midline","derived_from":["edge_left","edge_right"],"quality":{"source":"derived","accuracy_m":4.0,"relative_accuracy_m":0.25,"measured":true,"date":"2022-05-19"}},"geometry":{"type":"LineString","coordinates":[[-121.7566635,36.5864734],[-121.7567598,36.5863625],[-121.756802,36.5863092],[-121.756825,36.586278],[-121.7568399,36.5862536],[-121.7568581,36.5862206],[-121.756864,36.586213],[-121.7568777,36.5861884],[-121.7569356,36.5861012],[-121.7569636,36.5860521],[-121.7569885,36.5860117],[-121.7570175,36.5859531],[-121.7571412,36.5857313],[-121.7573726,36.5853114],[-121.7574654,36.5851474],[-121.7575018,36.5850816],[-121.7575544,36.584992],[-121.7576046,36.5849016],[-121.7576212,36.5848681],[-121.7576406,36.5848259],[-121.7576588,36.5847833],[-121.7576793,36.5847318],[-121.7576987,36.5846801],[-121.7577137,36.5846367],[-121.7577247,36.5846018],[-121.7577342,36.5845666],[-121.7577516,36.5844867],[-121.7577596,36.5844421],[-121.7577685,36.5843523],[-121.7577718,36.5842984],[-121.7577754,36.5841632],[-121.7577758,36.5840912],[-121.7577742,36.583911],[-121.7577719,36.5838479],[-121.7577742,36.5837578],[-121.7577717,36.5836678],[-121.7577733,36.5836318],[-121.7577785,36.5835869],[-121.7577802,36.5835599],[-121.7577783,36.5834608],[-121.7577719,36.5833709],[-121.7577695,36.5833169],[-121.7577675,36.5832989],[-121.7577611,36.5832632],[-121.7577587,36.5832453],[-121.7577571,36.5832183],[-121.7577553,36.5831553],[-121.757748,36.5830834],[-121.7577382,36.5830027],[-121.7577359,36.5829668],[-121.7577345,36.5829037],[-121.7577332,36.5828767],[-121.7577265,36.5827958],[-121.7577201,36.582751],[-121.7577144,36.5827244],[-121.7577065,36.582698],[-121.7576993,36.5826809],[-121.7576906,36.5826643],[-121.7576754,36.5826402],[-121.7576579,36.5826172],[-121.7576447,36.5826026],[-121.757623,36.582582],[-121.7575998,36.5825626],[-121.7575832,36.5825505],[-121.7575655,36.5825395],[-121.7575374,36.5825248],[-121.7575079,36.582512],[-121.7574775,36.5825006],[-121.7574566,36.5824943],[-121.7574242,36.5824873],[-121.7573912,36.5824829],[-121.7573578,36.5824804],[-121.7573355,36.5824801],[-121.757302,36.5824811],[-121.7572797,36.5824829],[-121.7572577,36.5824858],[-121.7571594,36.5825026],[-121.7571377,36.5825072],[-121.7571061,36.5825161],[-121.7570752,36.5825265],[-121.7570552,36.5825345],[-121.7570362,36.5825441],[-121.7570091,36.5825601],[-121.756992,36.5825716],[-121.7569757,36.582584],[-121.7569528,36.5826037],[-121.7569386,36.5826176],[-121.7569258,36.5826324],[-121.7569144,36.5826479],[-121.7569043,36.582664],[-121.7568958,36.5826807],[-121.7568786,36.5827236],[-121.75687,36.5827497],[-121.7568654,36.5827673],[-121.7568621,36.5827852],[-121.7568605,36.5828032],[-121.7568606,36.5828212],[-121.7568622,36.5828392],[-121.7568649,36.5828571],[-121.7568687,36.5828748],[-121.7568736,36.5828924],[-121.7568823,36.5829185],[-121.7568892,36.5829356],[-121.7569088,36.5829778],[-121.7569117,36.5829865],[-121.7569447,36.5830535],[-121.7569598,36.5830874],[-121.7569664,36.5830951],[-121.7569998,36.5832092],[-121.7570303,36.5833052],[-121.7570455,36.5833578],[-121.7570621,36.5834287],[-121.7570816,36.5835265],[-121.757086,36.5835533],[-121.7571001,36.5836609],[-121.7571049,36.5837148],[-121.7571068,36.5837689],[-121.7571109,36.5838319],[-121.7571094,36.583967],[-121.7570926,36.5841196],[-121.7570873,36.5841554],[-121.7570776,36.5842089],[-121.757046,36.5843599],[-121.7570325,36.5844129],[-121.7570226,36.5844664],[-121.757008,36.5845192],[-121.7569786,36.5846431],[-121.756968,36.5846781],[-121.7569574,36.5847037],[-121.7569395,36.5847368],[-121.7569136,36.5847767],[-121.7568901,36.5848074],[-121.75687,36.5848291],[-121.7568477,36.5848493],[-121.7568153,36.5848742],[-121.7567807,36.5848971],[-121.7567623,36.5849075],[-121.7567431,36.5849168],[-121.7567234,36.5849253],[-121.7567032,36.584933],[-121.7566512,36.5849494],[-121.7566299,36.5849549],[-121.7565973,36.5849613],[-121.7565644,36.5849663],[-121.7565423,36.5849688],[-121.7565089,36.5849713],[-121.7564866,36.5849717],[-121.7564642,36.584971],[-121.756442,36.5849692],[-121.7563868,36.5849624],[-121.7563427,36.5849561],[-121.75631,36.5849504],[-121.756245,36.584937],[-121.7561796,36.5849253],[-121.756071,36.5849041],[-121.755799,36.5848528],[-121.7557019,36.5848317],[-121.7556368,36.5848187],[-121.7546038,36.5846222],[-121.7544631,36.5845934],[-121.7543002,36.5845614],[-121.7542679,36.5845544],[-121.7542359,36.5845462],[-121.7541839,36.5845299],[-121.7541432,36.5845149],[-121.7541139,36.5845017],[-121.7540761,36.5844825],[-121.7540489,36.5844667],[-121.7540147,36.5844435],[-121.7539346,36.5843807],[-121.7539128,36.5843601],[-121.7538928,36.5843384],[-121.7538747,36.5843157],[-121.753858,36.5842922],[-121.753843,36.5842681],[-121.7538204,36.5842269],[-121.7538084,36.5842017],[-121.7537982,36.5841759],[-121.7537926,36.5841585],[-121.7537856,36.5841321],[-121.7537767,36.5840876],[-121.7537706,36.5840428],[-121.7537517,36.5838813],[-121.7537475,36.5838364],[-121.7537424,36.5837644],[-121.7537374,36.5837195],[-121.753694,36.5832614],[-121.7536812,36.5830815],[-121.7536757,36.5830276],[-121.7536705,36.5829646],[-121.7536673,36.5829106],[-121.7536667,36.5828746],[-121.7536686,36.5827485],[-121.7536846,36.5825959],[-121.7536881,36.582569],[-121.7537041,36.5824708],[-121.7537272,36.5823643],[-121.7537359,36.5823289],[-121.753763,36.5822322],[-121.7537929,36.5821361],[-121.7538297,36.5820321],[-121.7538469,36.5819799],[-121.7538801,36.5818844],[-121.7539083,36.5818066],[-121.7539322,36.5817371],[-121.7539712,36.5816337],[-121.7539957,36.5815644],[-121.7540214,36.5814953],[-121.7540455,36.5814259],[-121.7540844,36.5813224],[-121.7541959,36.5810014],[-121.7542433,36.5808718],[-121.7543209,36.580646],[-121.7543493,36.5805682],[-121.7543714,36.5804984],[-121.7543803,36.5804631],[-121.7543836,36.5804453],[-121.7543872,36.5804184],[-121.7543892,36.5803914],[-121.7543896,36.5803644],[-121.7543864,36.5803284],[-121.754383,36.5803106],[-121.7543783,36.580293],[-121.754366,36.5802583],[-121.7543454,36.5802069],[-121.7543381,36.5801898],[-121.7543295,36.5801731],[-121.7543145,36.5801488],[-121.754298,36.5801252],[-121.7542857,36.58011],[-121.7542719,36.5800957],[-121.7542571,36.5800821],[-121.7542338,36.5800626],[-121.7542091,36.5800442],[-121.754192,36.5800327],[-121.7541648,36.5800168],[-121.7540901,36.5799773],[-121.7540511,36.5799596],[-121.754011,36.5799439],[-121.7539692,36.579931],[-121.7539159,36.5799175],[-121.7538725,36.5799088],[-121.7538177,36.5799001],[-121.7537179,36.5798899],[-121.7536735,36.5798863],[-121.7536177,36.5798849],[-121.753573,36.5798853],[-121.7535172,36.5798884],[-121.7534614,36.5798903],[-121.7533946,36.5798946],[-121.7532282,36.5799109],[-121.7531067,36.5799259],[-121.7529848,36.5799389],[-121.7526885,36.5799844],[-121.7524906,36.5800135],[-121.7520075,36.5800867],[-121.7519086,36.5801011],[-121.751611,36.580141],[-121.7515003,36.5801532],[-121.751412,36.5801647],[-121.7513346,36.5801735],[-121.7512905,36.5801793],[-121.7509806,36.5802138],[-121.7508149,36.5802337],[-121.7505177,36.5802756],[-121.750199,36.5803226],[-121.7500888,36.5803375],[-121.750056,36.580343],[-121.7500235,36.5803497],[-121.7499915,36.5803577],[-121.7499707,36.5803642],[-121.7499505,36.5803717],[-121.7499309,36.5803804],[-121.7499122,36.5803902],[-121.7498949,36.5804017],[-121.7498791,36.5804144],[-121.7498643,36.5804279],[-121.7498508,36.5804422],[-121.7498385,36.5804572],[-121.7497564,36.580575],[-121.7497463,36.5805911],[-121.7497285,36.5806242],[-121.7497201,36.580631],[-121.7497062,36.5806558],[-121.7496941,36.5806812],[-121.7496837,36.580707],[-121.7496594,36.5807761],[-121.7496479,36.5808014],[-121.7496301,36.5808343],[-121.7496059,36.5808748],[-121.7495743,36.5809225],[-121.7495573,36.5809458],[-121.7495151,36.5809994],[-121.7494932,36.5810313],[-121.7494642,36.5810808],[-121.7494057,36.5811889],[-121.7493931,36.581214],[-121.7493821,36.58124],[-121.7493559,36.5813109],[-121.7493486,36.5813378],[-121.7493351,36.5814189],[-121.7493233,36.5814816],[-121.7493228,36.5814908],[-121.7493166,36.5815267],[-121.7493132,36.5815355],[-121.7493026,36.5815985],[-121.7492984,36.5816256],[-121.7492944,36.5816616],[-121.7492871,36.5817697],[-121.7492875,36.5817788],[-121.7492866,36.5818058],[-121.7492853,36.5818148],[-121.7492858,36.5818419],[-121.7492882,36.5818872],[-121.7492879,36.5819053],[-121.7492828,36.5819772],[-121.7492836,36.5819863],[-121.7492812,36.5820403],[-121.7492775,36.5820762],[-121.7492699,36.5821208],[-121.7492447,36.5822264],[-121.7492313,36.582296],[-121.7492165,36.5823484],[-121.7492124,36.5823568],[-121.7492029,36.5824017],[-121.7491968,36.5824466],[-121.749195,36.5824735],[-121.7491956,36.5824915],[-121.7492031,36.5825633],[-121.7492004,36.5826451],[-121.749198,36.5826541],[-121.7491895,36.5827442],[-121.7491811,36.5828065],[-121.7491745,36.5828693],[-121.749161,36.5829769],[-121.7491455,36.5831382],[-121.7491335,36.5833181],[-121.7491284,36.5834711],[-121.7491298,36.5835793],[-121.7491283,36.5836063],[-121.7491226,36.5836605],[-121.7491227,36.5836788],[-121.7491237,36.5836879],[-121.74913,36.5837148],[-121.7491397,36.583741],[-121.7491524,36.5837662],[-121.749172,36.5837987],[-121.7491807,36.5838056],[-121.7491817,36.5838149],[-121.7491905,36.5838315],[-121.7491981,36.5838485],[-121.7492103,36.5838833],[-121.7492146,36.5839011],[-121.7492165,36.5839192],[-121.7492167,36.5839373],[-121.749214,36.5839463],[-121.7492131,36.5839913],[-121.7492102,36.5840182],[-121.7491989,36.5840988],[-121.7491891,36.5841432],[-121.749169,36.5842227],[-121.7491449,36.5843014],[-121.7491008,36.5844318],[-121.7490615,36.5845352],[-121.7490166,36.5846466],[-121.7490075,36.5846726],[-121.7490002,36.584699],[-121.7489966,36.5847167],[-121.7489943,36.5847347],[-121.7489934,36.5847616],[-121.7489952,36.5847886],[-121.7489992,36.5848154],[-121.7490045,36.5848329],[-121.7490084,36.5848414],[-121.7490234,36.5848656],[-121.7490356,36.5848806],[-121.7490501,36.5848944],[-121.7490666,36.5849065],[-121.7490852,36.5849166],[-121.7491055,36.5849242],[-121.7491268,36.5849296],[-121.7491595,36.5849355],[-121.7492035,36.5849416],[-121.7492369,36.5849441],[-121.7492592,36.5849434],[-121.749304,36.5849403],[-121.7493376,36.5849414],[-121.7493598,36.5849442],[-121.7493816,36.5849487],[-121.7494029,36.5849544],[-121.7494341,36.5849651],[-121.7494417,36.5849724],[-121.7494601,36.5849826],[-121.7494853,36.5850004],[-121.7495004,36.5850137],[-121.749514,36.585028],[-121.7495261,36.5850432],[-121.7495364,36.5850592],[-121.7495455,36.5850756],[-121.7495575,36.5851008],[-121.7495703,36.5851353],[-121.7495861,36.5851878],[-121.749595,36.5852231],[-121.7496142,36.5853119],[-121.7496234,36.5853654],[-121.749631,36.5854191],[-121.749638,36.5854819],[-121.7496422,36.5855359],[-121.7496436,36.585626],[-121.7496425,36.58568],[-121.7496407,36.585707],[-121.7496329,36.5857789],[-121.7496131,36.5858767],[-121.7496058,36.5859214],[-121.749601,36.5859572],[-121.7495965,36.5860111],[-121.7495963,36.5860201],[-121.7495988,36.5860291],[-121.7495991,36.5860381],[-121.7495981,36.5861012],[-121.7495994,36.5861282],[-121.7496076,36.5861909],[-121.7496196,36.5862623],[-121.7496371,36.5863422],[-121.7496462,36.5863775],[-121.7496564,36.5864126],[-121.7496738,36.5864648],[-121.7496834,36.5864907],[-121.7497088,36.5865504],[-121.7497169,36.5865672],[-121.7497262,36.5865836],[-121.7497422,36.5866073],[-121.7497656,36.586638],[-121.7497901,36.5866681],[-121.7498095,36.5866901],[-121.7498299,36.5867115],[-121.7498801,36.5867598],[-121.7499032,36.5867794],[-121.7499433,36.5868107],[-121.7500014,36.5868529],[-121.7500272,36.5868702],[-121.7500456,36.5868805],[-121.7500648,36.5868897],[-121.7501041,36.5869069],[-121.7501341,36.586919],[-121.7501754,36.5869327],[-121.7502389,36.5869504],[-121.7502603,36.5869556],[-121.7502821,36.5869597],[-121.7504031,36.5869768],[-121.7504366,36.586978],[-121.75047,36.5869761],[-121.7505034,36.5869725],[-121.7505255,36.5869691],[-121.7505351,36.5869635],[-121.7505774,36.5869516],[-121.7506705,36.586921],[-121.7506793,36.5869145],[-121.7507427,36.5868967],[-121.7508925,36.5868606],[-121.7510002,36.5868365],[-121.7510869,36.5868193],[-121.7511189,36.5868114],[-121.7512969,36.5867579],[-121.7513696,36.5867347],[-121.7514312,36.5867132],[-121.7514431,36.5867133],[-121.751507,36.5866972],[-121.7515286,36.5866929],[-121.7515505,36.5866896],[-121.7515838,36.5866875],[-121.7516395,36.5866882],[-121.7516731,36.5866865],[-121.7517063,36.5866822],[-121.7517606,36.5866713],[-121.7517717,36.5866698],[-121.7519204,36.5866307],[-121.7519847,36.5866153],[-121.7520805,36.5865907],[-121.7521878,36.5865656],[-121.7524872,36.5864924],[-121.7525196,36.5864854],[-121.7525633,36.5864781],[-121.7526405,36.5864678],[-121.7526627,36.586466],[-121.7526851,36.5864653],[-121.7527186,36.5864665],[-121.7527409,36.5864686],[-121.7527629,36.5864716],[-121.7528064,36.5864803],[-121.7528704,36.5864961],[-121.7528912,36.5865027],[-121.7529113,36.5865105],[-121.75295,36.5865286],[-121.7529962,36.5865539],[-121.7530222,36.586571],[-121.7530461,36.58659],[-121.7530675,36.5866108],[-121.7530871,36.5866327],[-121.753137,36.5866924],[-121.7531604,36.5867231],[-121.7532079,36.5867946],[-121.7533162,36.5869625],[-121.7534537,36.5871689],[-121.753505,36.5872489],[-121.7536154,36.5874159],[-121.7536662,36.5874859],[-121.7537041,36.587541],[-121.7537621,36.587618],[-121.7538633,36.5877582],[-121.7538942,36.5878063],[-121.7538949,36.5878158],[-121.7539122,36.5878491],[-121.7539409,36.5879077],[-121.7539438,36.5879165],[-121.7539636,36.5879489],[-121.7539829,36.5879912],[-121.7539965,36.5880159],[-121.7540341,36.5880712],[-121.7541223,36.5882069],[-121.7541578,36.5882631],[-121.7542583,36.5884139],[-121.7542629,36.5884221],[-121.7542906,36.5884612],[-121.7543262,36.5885174],[-121.7543322,36.588525],[-121.7543478,36.5885489],[-121.7543517,36.5885575],[-121.7543736,36.5885889],[-121.7543993,36.5886184],[-121.7544135,36.5886324],[-121.7544291,36.5886454],[-121.7544376,36.5886513],[-121.754456,36.5886616],[-121.7544763,36.5886695],[-121.7544977,36.5886747],[-121.7545087,36.5886764],[-121.7545308,36.5886783],[-121.7545531,36.588678],[-121.7545752,36.5886754],[-121.7545967,36.5886705],[-121.7546171,36.5886632],[-121.7546365,36.5886542],[-121.7546457,36.5886491],[-121.7546545,36.5886436],[-121.754671,36.5886313],[-121.7547309,36.5885779],[-121.75475,36.5885557],[-121.7548107,36.5884695],[-121.7548297,36.5884472],[-121.7548947,36.5883739],[-121.7550917,36.5881552],[-121.755151,36.5880897],[-121.7551984,36.5880395],[-121.7552619,36.5879654],[-121.7553534,36.5878631],[-121.7553672,36.5878489],[-121.7553821,36.5878354],[-121.7555071,36.5877325],[-121.7555216,36.5877187],[-121.755562,36.5876756],[-121.7556078,36.5876244],[-121.7556944,36.5875304],[-121.7558355,36.5873792],[-121.755888,36.5873209],[-121.7559488,36.5872562],[-121.7559768,36.5872281],[-121.7560365,36.5871746],[-121.7560714,36.5871395],[-121.7561644,36.5870381],[-121.7562432,36.5869506],[-121.7562969,36.586893],[-121.7563155,36.5868705],[-121.7563554,36.5868163],[-121.7563735,36.5867936],[-121.7564006,36.5867649],[-121.7564391,36.5867206],[-121.7565449,36.5866044],[-121.7565852,36.5865612],[-121.7566635,36.5864734]]}},{"type":"Feature","properties":{"role":"surface","rings":["outer","inner"],"area_m2":null},"geometry":{"type":"Polygon","coordinates":[[[-121.7567319,36.5865111],[-121.7567909,36.5864445],[-121.7568298,36.5863989],[-121.7568604,36.5863593],[-121.7568829,36.5863256],[-121.7568929,36.586308],[-121.7569016,36.58629],[-121.756909,36.5862721],[-121.7569271,36.5862206],[-121.7569385,36.5861964],[-121.7569478,36.5861804],[-121.7569909,36.5861135],[-121.7570137,36.5860709],[-121.7570498,36.5860135],[-121.7571381,36.5858586],[-121.7571815,36.5857853],[-121.7574404,36.5853162],[-121.7574914,36.5852258],[-121.7575251,36.5851691],[-121.7575647,36.5850955],[-121.7576413,36.5849641],[-121.7576641,36.5849213],[-121.7576893,36.5848694],[-121.7577088,36.5848258],[-121.7577304,36.5847735],[-121.757754,36.5847122],[-121.7577728,36.584659],[-121.7577872,36.5846137],[-121.7577994,36.5845676],[-121.7578204,36.5844573],[-121.7578282,36.5844018],[-121.7578346,36.5843279],[-121.757838,36.5842455],[-121.7578419,36.5841823],[-121.7578428,36.5840818],[-121.7578404,36.5838475],[-121.757845,36.5837574],[-121.7578446,36.583739],[-121.7578414,36.5836946],[-121.7578412,36.5836691],[-121.7578426,36.5836522],[-121.7578456,36.5836352],[-121.7578596,36.583581],[-121.7578625,36.5835619],[-121.7578637,36.5835427],[-121.757863,36.5834489],[-121.7578571,36.5833853],[-121.757856,36.5833304],[-121.7578542,36.5833115],[-121.7578511,36.5832927],[-121.7578402,36.5832573],[-121.7578362,36.5832403],[-121.7578345,36.5832234],[-121.7578332,36.5831702],[-121.7578296,36.5831332],[-121.7578197,36.5830689],[-121.7578085,36.5830159],[-121.7578056,36.5829988],[-121.7578029,36.5829645],[-121.7578025,36.5828927],[-121.7577979,36.5827999],[-121.7577924,36.5827515],[-121.7577846,36.5827113],[-121.7577787,36.582691],[-121.7577711,36.5826707],[-121.7577568,36.5826408],[-121.7577453,36.5826214],[-121.7577324,36.5826025],[-121.7577106,36.5825756],[-121.7576948,36.5825585],[-121.7576693,36.5825339],[-121.7576415,36.5825106],[-121.7576215,36.5824962],[-121.7576003,36.5824827],[-121.7575781,36.5824705],[-121.7575434,36.5824542],[-121.7575071,36.5824397],[-121.7574692,36.582427],[-121.7574431,36.5824196],[-121.7574165,36.5824135],[-121.7573896,36.5824088],[-121.7573625,36.5824055],[-121.7573218,36.582403],[-121.7572951,36.5824029],[-121.7572688,36.5824043],[-121.7572307,36.5824082],[-121.7571938,36.5824137],[-121.7571573,36.5824203],[-121.7571205,36.5824287],[-121.7570831,36.5824393],[-121.757058,36.5824477],[-121.7570331,36.5824573],[-121.7570089,36.5824687],[-121.7569859,36.5824816],[-121.7569641,36.5824958],[-121.7569437,36.5825108],[-121.7569151,36.5825347],[-121.756889,36.5825605],[-121.7568733,36.5825789],[-121.756859,36.5825981],[-121.7568401,36.5826274],[-121.7568293,36.582647],[-121.7568159,36.5826767],[-121.7568047,36.5827065],[-121.7567983,36.5827268],[-121.756793,36.5827474],[-121.7567891,36.5827686],[-121.7567869,36.5828009],[-121.7567879,36.5828225],[-121.7567908,36.5828438],[-121.7567953,36.5828646],[-121.7568037,36.5828951],[-121.7568161,36.5829341],[-121.7568292,36.5829713],[-121.7568465,36.5830159],[-121.7568839,36.5830999],[-121.7569168,36.5831886],[-121.7569518,36.5833019],[-121.7569725,36.5833615],[-121.7569775,36.5833785],[-121.7569834,36.5834042],[-121.7570171,36.583569],[-121.7570245,36.5836217],[-121.7570311,36.583683],[-121.7570349,36.5837357],[-121.7570394,36.5838332],[-121.7570362,36.5839815],[-121.7570337,36.5840167],[-121.7570287,36.5840609],[-121.7570152,36.584148],[-121.7570041,36.5842082],[-121.7569777,36.5843318],[-121.756927,36.584561],[-121.7569079,36.5846381],[-121.7569009,36.5846617],[-121.7568916,36.5846841],[-121.7568753,36.5847128],[-121.7568519,36.5847474],[-121.7568309,36.5847733],[-121.7568131,36.5847911],[-121.7567933,36.5848077],[-121.7567583,36.5848339],[-121.7567288,36.5848529],[-121.756705,36.5848646],[-121.7566711,36.5848775],[-121.7566087,36.5848963],[-121.7565719,36.5849044],[-121.7565343,36.5849098],[-121.7564967,36.5849128],[-121.7564777,36.584913],[-121.7564584,36.5849122],[-121.7564188,36.5849081],[-121.7563467,36.5848958],[-121.7561109,36.5848493],[-121.7560119,36.5848319],[-121.7559245,36.5848154],[-121.7558487,36.5848004],[-121.7557849,36.5847886],[-121.7556979,36.5847705],[-121.755621,36.5847555],[-121.7554903,36.5847322],[-121.7554141,36.5847169],[-121.7551858,36.5846732],[-121.7551208,36.58466],[-121.7549787,36.5846332],[-121.7548922,36.5846155],[-121.7547732,36.5845931],[-121.7546435,36.5845677],[-121.7545571,36.584552],[-121.7544477,36.58453],[-121.7542988,36.5845014],[-121.7542594,36.5844919],[-121.7542216,36.5844803],[-121.7541941,36.5844702],[-121.7541593,36.5844546],[-121.7541263,36.5844372],[-121.7541029,36.584423],[-121.7540803,36.5844077],[-121.7540111,36.584358],[-121.7539893,36.5843411],[-121.7539766,36.5843292],[-121.7539599,36.5843102],[-121.75393,36.5842696],[-121.7539111,36.5842412],[-121.7538934,36.5842121],[-121.7538818,36.5841898],[-121.7538685,36.5841598],[-121.7538601,36.5841368],[-121.7538537,36.584113],[-121.7538474,36.5840797],[-121.7538355,36.5839746],[-121.7538194,36.5838144],[-121.7538146,36.5837507],[-121.7538055,36.5836607],[-121.7537996,36.5835894],[-121.7537912,36.5835178],[-121.7537683,36.5832839],[-121.7537619,36.5832306],[-121.7537509,36.5830868],[-121.7537402,36.5829614],[-121.7537375,36.5829174],[-121.7537368,36.5828828],[-121.7537392,36.5828217],[-121.7537404,36.5827426],[-121.7537623,36.5825494],[-121.7537797,36.5824535],[-121.7538018,36.5823581],[-121.7538509,36.5821851],[-121.753859,36.5821592],[-121.7538856,36.5820822],[-121.7539107,36.5820132],[-121.7539527,36.5818921],[-121.7539781,36.5818227],[-121.7540158,36.5817103],[-121.7540416,36.5816408],[-121.7540626,36.58158],[-121.7540861,36.5815198],[-121.7541156,36.5814332],[-121.7541459,36.5813558],[-121.7541934,36.5812255],[-121.7542657,36.5810173],[-121.7542996,36.5809226],[-121.7543581,36.5807478],[-121.7544372,36.5805201],[-121.7544459,36.5804917],[-121.7544506,36.5804723],[-121.7544543,36.5804526],[-121.7544582,36.580423],[-121.7544607,36.580393],[-121.7544617,36.5803624],[-121.7544609,36.5803417],[-121.7544586,36.5803209],[-121.7544548,36.5803003],[-121.7544497,36.5802801],[-121.7544368,36.5802416],[-121.7544105,36.5801762],[-121.7544014,36.5801573],[-121.7543645,36.5800907],[-121.7543512,36.5800726],[-121.7543349,36.5800562],[-121.7543171,36.5800407],[-121.7542894,36.5800184],[-121.7542702,36.5800043],[-121.7542501,36.5799912],[-121.754219,36.5799737],[-121.7541369,36.5799328],[-121.7540948,36.5799133],[-121.7540503,36.5798955],[-121.7540045,36.5798803],[-121.7539467,36.5798649],[-121.7538999,36.579855],[-121.7538528,36.5798478],[-121.7537248,36.5798363],[-121.7536775,36.5798336],[-121.7536416,36.5798333],[-121.753606,36.5798344],[-121.7534231,36.5798456],[-121.7533546,36.5798511],[-121.7532652,36.5798602],[-121.7532205,36.5798651],[-121.7531428,36.579876],[-121.7530878,36.5798826],[-121.7529753,36.5798927],[-121.7528433,36.5799146],[-121.7527433,36.5799279],[-121.7518986,36.5800547],[-121.7516022,36.5800947],[-121.7515357,36.5801018],[-121.7514584,36.5801118],[-121.7513924,36.5801191],[-121.7512821,36.5801334],[-121.7509619,36.5801703],[-121.7508612,36.5801804],[-121.7508166,36.5801856],[-121.7506946,36.5802022],[-121.7505845,36.5802185],[-121.7504852,36.5802323],[-121.7502879,36.5802625],[-121.7502113,36.580275],[-121.7501453,36.5802843],[-121.7500663,36.5802944],[-121.750043,36.5802981],[-121.7500074,36.5803051],[-121.7499834,36.5803107],[-121.7499592,36.5803173],[-121.7499233,36.58033],[-121.7498888,36.5803465],[-121.749867,36.5803596],[-121.7498567,36.5803666],[-121.7498468,36.580374],[-121.7498282,36.5803895],[-121.7498116,36.580406],[-121.749797,36.580423],[-121.7497209,36.5805288],[-121.7496766,36.5805847],[-121.7496519,36.580618],[-121.7495368,36.5807918],[-121.7494925,36.5808605],[-121.749433,36.5809566],[-121.7494075,36.5809996],[-121.7493789,36.5810525],[-121.7493572,36.5810971],[-121.7493187,36.5811821],[-121.7492978,36.5812372],[-121.7492898,36.5812561],[-121.7492701,36.581293],[-121.7492615,36.5813114],[-121.7492519,36.5813389],[-121.7492395,36.5813837],[-121.749223,36.5814469],[-121.74921,36.581503],[-121.7491889,36.581608],[-121.7491843,36.5816362],[-121.7491793,36.5816821],[-121.7491745,36.5817639],[-121.7491742,36.5817909],[-121.749176,36.5818182],[-121.7491789,36.5818366],[-121.7491872,36.5818738],[-121.7491901,36.5819013],[-121.7491883,36.5820195],[-121.749187,36.5820463],[-121.7491736,36.5821749],[-121.7491704,36.5821916],[-121.7491623,36.5822241],[-121.7491567,36.5822878],[-121.7491522,36.5823128],[-121.7491401,36.5823685],[-121.7491372,36.5823884],[-121.7491343,36.5824185],[-121.7491286,36.5824579],[-121.7491269,36.5824776],[-121.7491263,36.5825067],[-121.7491292,36.582544],[-121.7491297,36.5825622],[-121.7491246,36.5826064],[-121.7491231,36.5826406],[-121.7491205,36.5826662],[-121.7491073,36.5827558],[-121.749063,36.5830256],[-121.7490496,36.5831262],[-121.7490399,36.583217],[-121.749027,36.5833527],[-121.7490215,36.5834263],[-121.7490188,36.5834817],[-121.7490204,36.5835795],[-121.7490202,36.5836539],[-121.7490217,36.5836752],[-121.7490254,36.5836972],[-121.7490284,36.5837082],[-121.7490365,36.5837299],[-121.7490463,36.5837511],[-121.7490575,36.5837713],[-121.749077,36.5837989],[-121.7491208,36.583851],[-121.7491347,36.5838722],[-121.7491502,36.583901],[-121.7491529,36.5839084],[-121.7491557,36.5839235],[-121.7491558,36.583947],[-121.7491538,36.5839799],[-121.749145,36.5840574],[-121.7491393,36.5840919],[-121.7491335,36.5841175],[-121.749113,36.5841942],[-121.7490871,36.5842709],[-121.7490533,36.5843655],[-121.7490016,36.5845012],[-121.748954,36.5846222],[-121.748933,36.5846787],[-121.7489271,36.5846988],[-121.748923,36.5847196],[-121.7489206,36.5847409],[-121.74892,36.5847625],[-121.7489218,36.5847955],[-121.7489274,36.5848293],[-121.7489342,36.5848522],[-121.7489444,36.5848749],[-121.7489583,36.584897],[-121.7489758,36.584918],[-121.7489969,36.5849372],[-121.7490087,36.5849459],[-121.7490212,36.5849539],[-121.7490343,36.5849612],[-121.7490617,36.5849731],[-121.7490898,36.5849817],[-121.7491174,36.5849877],[-121.7491574,36.5849939],[-121.749196,36.5849985],[-121.7492335,36.5850022],[-121.7492993,36.585007],[-121.7493263,36.58501],[-121.7493423,36.5850126],[-121.7493569,36.585016],[-121.7493832,36.5850244],[-121.7494028,36.5850323],[-121.7494158,36.5850389],[-121.7494344,36.5850505],[-121.7494517,36.5850642],[-121.7494622,36.5850747],[-121.7494758,36.5850927],[-121.7494836,36.5851061],[-121.7494938,36.5851276],[-121.7495028,36.5851508],[-121.7495198,36.5852],[-121.749527,36.5852251],[-121.7495324,36.5852506],[-121.7495487,36.5853378],[-121.7495581,36.5853987],[-121.7495678,36.5854774],[-121.7495728,36.5855382],[-121.7495745,36.5856166],[-121.7495737,36.5856777],[-121.7495721,36.5857033],[-121.7495601,36.5857803],[-121.7495414,36.5858683],[-121.7495216,36.585981],[-121.7495189,36.5860004],[-121.7495177,36.5860197],[-121.7495178,36.5860385],[-121.7495213,36.5861129],[-121.749524,36.5861512],[-121.74953,36.5861981],[-121.7495408,36.5862628],[-121.7495567,36.5863366],[-121.7495686,36.5863822],[-121.7495792,36.5864185],[-121.7495884,36.5864456],[-121.7496084,36.5864996],[-121.7496372,36.5865732],[-121.7496459,36.5865922],[-121.7496564,36.5866108],[-121.7496684,36.5866285],[-121.7496879,36.5866536],[-121.7497277,36.5867024],[-121.7497636,36.5867419],[-121.7497862,36.5867645],[-121.7498094,36.5867861],[-121.7498418,36.5868138],[-121.7498848,36.5868469],[-121.7499288,36.586879],[-121.7499661,36.586904],[-121.7499963,36.5869221],[-121.7500385,36.5869447],[-121.7500708,36.5869603],[-121.7501035,36.5869742],[-121.7501257,36.5869823],[-121.7501481,36.5869894],[-121.7502058,36.5870045],[-121.750253,36.587015],[-121.7503236,36.587028],[-121.7503715,36.5870377],[-121.7503972,36.5870419],[-121.7504106,36.5870431],[-121.7504382,36.5870436],[-121.7504663,36.5870421],[-121.7504943,36.587039],[-121.7505348,36.5870329],[-121.7505854,36.587024],[-121.7506322,36.5870145],[-121.750718,36.5869946],[-121.7507375,36.5869886],[-121.7507757,36.5869752],[-121.7507954,36.5869692],[-121.7508364,36.5869585],[-121.750899,36.5869434],[-121.7509616,36.5869294],[-121.7510038,36.5869208],[-121.7510252,36.5869172],[-121.751082,36.5869092],[-121.7511055,36.5869044],[-121.7511288,36.5868981],[-121.7511517,36.586891],[-121.7512589,36.5868545],[-121.7513013,36.5868426],[-121.7515763,36.5867738],[-121.7517301,36.5867388],[-121.7519516,36.5866823],[-121.7521018,36.5866457],[-121.7522086,36.5866213],[-121.7523147,36.5865937],[-121.7524644,36.5865569],[-121.7525259,36.5865432],[-121.7525668,36.5865364],[-121.7526567,36.5865255],[-121.7526848,36.5865236],[-121.7527033,36.586524],[-121.7527311,36.5865265],[-121.7527692,36.5865326],[-121.7528359,36.5865469],[-121.752854,36.5865517],[-121.7528713,36.5865577],[-121.7528962,36.5865688],[-121.7529531,36.5865986],[-121.7529754,36.5866128],[-121.7529955,36.5866286],[-121.7530139,36.5866461],[-121.7530312,36.5866657],[-121.7530714,36.5867154],[-121.7530936,36.5867448],[-121.7531088,36.5867674],[-121.7532573,36.5869979],[-121.7533469,36.587133],[-121.7533958,36.5872038],[-121.7534865,36.5873491],[-121.7535607,36.5874613],[-121.7536481,36.5875987],[-121.7536968,36.5876697],[-121.7537533,36.5877577],[-121.7537977,36.5878307],[-121.7538763,36.5879491],[-121.7539015,36.5879899],[-121.7539314,36.588041],[-121.7539649,36.5880904],[-121.7540212,36.5881783],[-121.7540585,36.5882335],[-121.7541037,36.5883064],[-121.7541786,36.5884178],[-121.7542284,36.5884882],[-121.7542841,36.5885771],[-121.7543073,36.5886114],[-121.7543204,36.5886291],[-121.7543433,36.5886559],[-121.7543616,36.5886733],[-121.7543831,36.5886897],[-121.7543949,36.5886973],[-121.7544208,36.5887113],[-121.7544347,36.5887173],[-121.7544494,36.5887225],[-121.7544799,36.5887305],[-121.7545113,36.5887353],[-121.7545273,36.5887365],[-121.7545591,36.5887363],[-121.7545905,36.5887328],[-121.7546208,36.5887261],[-121.7546495,36.5887167],[-121.754663,36.5887111],[-121.7546882,36.5886986],[-121.7547107,36.5886844],[-121.7547307,36.5886693],[-121.7547755,36.5886309],[-121.7548009,36.5886076],[-121.7548232,36.5885829],[-121.7548532,36.5885424],[-121.7548708,36.5885204],[-121.7550627,36.588306],[-121.7551736,36.5881808],[-121.7552116,36.5881363],[-121.7552652,36.5880782],[-121.755284,36.5880553],[-121.7553192,36.5880091],[-121.7553434,36.5879791],[-121.7553753,36.5879426],[-121.7554132,36.5879013],[-121.755426,36.5878887],[-121.7554404,36.5878774],[-121.7555738,36.5877922],[-121.755592,36.5877787],[-121.7556,36.5877711],[-121.7556434,36.5877244],[-121.7556886,36.5876728],[-121.7557882,36.5875643],[-121.7558398,36.5875057],[-121.7559066,36.5874326],[-121.7559572,36.5873743],[-121.7560263,36.5872992],[-121.7560403,36.5872853],[-121.7560557,36.5872717],[-121.7560724,36.5872583],[-121.7560993,36.5872388],[-121.7561162,36.5872249],[-121.7561315,36.5872102],[-121.7561527,36.5871878],[-121.7563218,36.5869984],[-121.756378,36.5869386],[-121.7563911,36.5869218],[-121.7563969,36.5869131],[-121.7564161,36.5868788],[-121.7564391,36.5868402],[-121.7564444,36.5868329],[-121.7564693,36.5868046],[-121.7564996,36.5867673],[-121.7565398,36.5867244],[-121.7567319,36.5865111]],[[-121.7565952,36.5864357],[-121.7566516,36.5863694],[-121.7566836,36.5863335],[-121.7567197,36.5862897],[-121.7567572,36.5862481],[-121.756798,36.5861956],[-121.7568069,36.5861888],[-121.7568551,36.5861253],[-121.7568707,36.5861026],[-121.7568949,36.586065],[-121.7569326,36.5860013],[-121.7569412,36.5859852],[-121.756954,36.585951],[-121.7569619,36.585934],[-121.7570164,36.5858341],[-121.7570461,36.585776],[-121.7573186,36.5852819],[-121.7574151,36.5851092],[-121.7574916,36.5849778],[-121.7575175,36.5849291],[-121.7575363,36.5848977],[-121.7575493,36.5848738],[-121.7575651,36.5848413],[-121.7575837,36.5848002],[-121.757618,36.5847164],[-121.7576488,36.5846318],[-121.7576596,36.5845982],[-121.7576692,36.5845647],[-121.7576882,36.5844882],[-121.7576961,36.5844449],[-121.7577057,36.5843315],[-121.7577084,36.5842701],[-121.7577077,36.5842071],[-121.7577089,36.5841003],[-121.7577073,36.5839205],[-121.7577066,36.5838939],[-121.7577035,36.5838484],[-121.7577035,36.5837582],[-121.7577022,36.5836664],[-121.7577003,36.5836009],[-121.7576969,36.5835411],[-121.7576955,36.5834896],[-121.7576917,36.5834461],[-121.7576902,36.5834015],[-121.757686,36.5833567],[-121.7576797,36.5832125],[-121.7576792,36.5831675],[-121.7576731,36.5830622],[-121.7576659,36.5828967],[-121.7576548,36.5827928],[-121.7576478,36.5827527],[-121.7576401,36.5827225],[-121.7576352,36.5827081],[-121.7576244,36.5826878],[-121.7576074,36.5826622],[-121.7575923,36.582644],[-121.7575806,36.5826327],[-121.7575615,36.5826169],[-121.7575417,36.5826022],[-121.7575274,36.5825936],[-121.7575123,36.5825859],[-121.7574886,36.5825759],[-121.7574562,36.5825641],[-121.7574397,36.5825594],[-121.7574226,36.5825564],[-121.7573966,36.5825548],[-121.7573619,36.582555],[-121.7573444,36.5825559],[-121.7573179,36.5825584],[-121.7572907,36.5825616],[-121.7572243,36.582574],[-121.7571674,36.5825824],[-121.75715,36.5825865],[-121.7571092,36.5825979],[-121.7570865,36.5826065],[-121.75705,36.5826247],[-121.7570363,36.5826333],[-121.7570038,36.5826562],[-121.7569925,36.5826667],[-121.7569827,36.5826783],[-121.7569704,36.5826976],[-121.7569552,36.5827334],[-121.7569422,36.5827696],[-121.7569351,36.5827982],[-121.7569333,36.5828199],[-121.756934,36.582842],[-121.7569355,36.582857],[-121.7569405,36.5828798],[-121.7569454,36.5828951],[-121.7569519,36.5829106],[-121.7569782,36.5829573],[-121.7569805,36.5829659],[-121.7570158,36.5830317],[-121.7570326,36.583067],[-121.7570428,36.5830745],[-121.7570508,36.5831135],[-121.7570693,36.5831863],[-121.7570772,36.5832126],[-121.7570925,36.5832559],[-121.7571031,36.5832912],[-121.7571273,36.5833913],[-121.757141,36.5834548],[-121.7571543,36.5835278],[-121.75716,36.5835832],[-121.7571721,36.5836654],[-121.7571748,36.5836932],[-121.7571764,36.5837208],[-121.7571772,36.5837662],[-121.7571808,36.5838027],[-121.7571824,36.5838306],[-121.7571827,36.5839607],[-121.757181,36.5839793],[-121.7571744,36.584016],[-121.7571722,36.5840343],[-121.7571635,36.584135],[-121.757158,36.5841721],[-121.7571494,36.5842183],[-121.7571267,36.5843254],[-121.7571182,36.5843705],[-121.7571032,36.5844231],[-121.7570984,36.5844589],[-121.7570951,36.584477],[-121.7570754,36.5845392],[-121.7570575,36.5846102],[-121.7570472,36.5846562],[-121.7570418,36.5846753],[-121.7570352,36.5846945],[-121.7570187,36.5847329],[-121.7569984,36.58477],[-121.7569691,36.5848149],[-121.7569561,36.5848327],[-121.756942,36.5848501],[-121.7569189,36.5848752],[-121.7568931,36.5848984],[-121.7568746,36.5849128],[-121.7568554,36.5849265],[-121.756825,36.5849459],[-121.7567925,36.5849636],[-121.75677,36.5849743],[-121.7567469,36.5849841],[-121.7567116,36.5849969],[-121.7566756,36.5850077],[-121.756651,36.5850135],[-121.756626,36.585018],[-121.7565883,36.5850236],[-121.7565503,36.5850278],[-121.7565246,36.5850296],[-121.7564988,36.5850304],[-121.7564731,36.58503],[-121.7564353,36.5850269],[-121.7563284,36.5850145],[-121.756283,36.5850071],[-121.7562281,36.5849953],[-121.756151,36.5849824],[-121.7559883,36.5849503],[-121.7557924,36.5849132],[-121.7556838,36.5848885],[-121.7555111,36.5848542],[-121.7550442,36.5847658],[-121.7547718,36.5847156],[-121.7546515,36.5846922],[-121.7545967,36.5846828],[-121.7544884,36.584659],[-121.7542926,36.5846199],[-121.754247,36.5846095],[-121.754201,36.5845971],[-121.7541326,36.5845751],[-121.7540988,36.5845626],[-121.7540554,36.5845428],[-121.7540128,36.5845212],[-121.7539926,36.5845092],[-121.7539642,36.5844899],[-121.7539469,36.5844763],[-121.7539227,36.584455],[-121.7538884,36.5844275],[-121.7538549,36.5843973],[-121.7538309,36.5843733],[-121.7538164,36.5843565],[-121.7537969,36.5843306],[-121.7537799,36.584304],[-121.7537653,36.5842767],[-121.7537426,36.5842305],[-121.753731,36.5842018],[-121.753725,36.5841822],[-121.7537155,36.5841431],[-121.7537044,36.5840862],[-121.7536964,36.584031],[-121.7536866,36.5839492],[-121.7536795,36.5839044],[-121.7536756,36.5838681],[-121.7536711,36.5837866],[-121.7536639,36.5837246],[-121.753635,36.5834096],[-121.7536281,36.5833195],[-121.7536241,36.5832838],[-121.7536214,36.583229],[-121.7536144,36.5831298],[-121.7536123,36.5830852],[-121.7536061,36.5830317],[-121.7536008,36.5829679],[-121.7535968,36.5828939],[-121.7535955,36.5827828],[-121.7535973,36.5827458],[-121.7536029,36.5826996],[-121.7536065,36.582654],[-121.7536144,36.5825809],[-121.7536239,36.5825258],[-121.7536313,36.582471],[-121.7536462,36.5824076],[-121.7536527,36.5823712],[-121.7536587,36.582344],[-121.7536751,36.5822812],[-121.7536927,36.5822189],[-121.753711,36.582166],[-121.7537239,36.5821216],[-121.7537583,36.5820251],[-121.7537771,36.581964],[-121.7538073,36.581877],[-121.7538601,36.5817297],[-121.7538816,36.5816779],[-121.7538977,36.581635],[-121.7539753,36.5814188],[-121.7540166,36.5813066],[-121.7540396,36.5812371],[-121.7540416,36.5812282],[-121.7541321,36.5809679],[-121.7541542,36.5809071],[-121.7541816,36.5808386],[-121.7542536,36.5806311],[-121.7542834,36.5805532],[-121.7542916,36.5805276],[-121.7543084,36.5804618],[-121.7543153,36.5804218],[-121.7543179,36.5803819],[-121.7543175,36.5803663],[-121.7543152,36.5803435],[-121.7543129,36.5803285],[-121.7543093,36.5803134],[-121.754286,36.5802513],[-121.75427,36.5802129],[-121.7542628,36.5801984],[-121.7542585,36.5801914],[-121.7542486,36.5801783],[-121.754203,36.5801294],[-121.7541781,36.5801069],[-121.7541368,36.5800751],[-121.7541131,36.5800603],[-121.7540535,36.5800268],[-121.7540184,36.5800106],[-121.7539829,36.5799962],[-121.7539549,36.5799876],[-121.7539065,36.5799751],[-121.7538669,36.5799666],[-121.7537957,36.5799532],[-121.753764,36.5799491],[-121.7536695,36.5799391],[-121.7535964,36.5799348],[-121.7535749,36.5799344],[-121.7535311,36.5799362],[-121.7534653,36.5799371],[-121.7534004,36.5799411],[-121.7533023,36.5799516],[-121.7532141,36.5799589],[-121.7529944,36.5799851],[-121.7528411,36.5800072],[-121.7527653,36.5800207],[-121.7526992,36.5800309],[-121.7522049,36.5801046],[-121.7520402,36.58013],[-121.7518963,36.5801507],[-121.7517419,36.5801718],[-121.7516309,36.580186],[-121.7515645,36.5801939],[-121.7515202,36.5801979],[-121.751487,36.5802017],[-121.7514096,36.5802131],[-121.7513321,36.5802204],[-121.7512766,36.5802278],[-121.7510328,36.580255],[-121.7509772,36.5802599],[-121.7509227,36.5802679],[-121.7507477,36.5802908],[-121.7504298,36.5803368],[-121.7503522,36.5803465],[-121.7501103,36.5803807],[-121.750059,36.5803899],[-121.7500301,36.5803965],[-121.7500118,36.5804016],[-121.7499943,36.5804073],[-121.7499695,36.5804167],[-121.749954,36.5804237],[-121.7499396,36.580432],[-121.7499269,36.5804418],[-121.749909,36.580458],[-121.7498974,36.5804698],[-121.7498866,36.5804829],[-121.7498247,36.5805741],[-121.7498104,36.5805973],[-121.7498031,36.5806135],[-121.7497929,36.5806472],[-121.7497821,36.5806526],[-121.7497754,36.5806684],[-121.7497699,36.5806842],[-121.7497658,36.5807005],[-121.7497629,36.5807175],[-121.7497582,36.580774],[-121.7497532,36.5808038],[-121.7497445,36.5808328],[-121.7497369,36.5808514],[-121.7497283,36.5808695],[-121.7497141,36.5808958],[-121.7496989,36.5809209],[-121.7496828,36.580945],[-121.749671,36.5809607],[-121.7496515,36.5809836],[-121.7496089,36.5810267],[-121.749596,36.581041],[-121.7495843,36.5810556],[-121.7495686,36.5810782],[-121.7495211,36.5811562],[-121.7494851,36.5812128],[-121.7494711,36.5812372],[-121.7494595,36.5812617],[-121.7494532,36.5812782],[-121.7494482,36.5812948],[-121.7494444,36.5813117],[-121.7494399,36.5813462],[-121.7494355,36.5814362],[-121.7494281,36.5814978],[-121.7494294,36.5815068],[-121.7494252,36.581541],[-121.7494203,36.581549],[-121.7494105,36.5816251],[-121.7493996,36.5817756],[-121.7494008,36.5817846],[-121.7493987,36.5818117],[-121.7493955,36.5818205],[-121.749384,36.5819271],[-121.7493813,36.5819359],[-121.7493768,36.5819805],[-121.7493785,36.5819895],[-121.7493747,36.5820432],[-121.7493696,36.5820892],[-121.7493658,36.5821078],[-121.7493604,36.5821264],[-121.7493429,36.5821721],[-121.749337,36.5821904],[-121.749319,36.5822649],[-121.7493081,36.5823029],[-121.7492848,36.5823662],[-121.7492787,36.5823739],[-121.7492735,36.5823992],[-121.7492666,36.582423],[-121.7492637,36.582439],[-121.7492621,36.582455],[-121.7492619,36.5824711],[-121.7492634,36.5824874],[-121.7492729,36.5825378],[-121.7492765,36.5825644],[-121.7492783,36.5825919],[-121.7492785,36.5826299],[-121.7492777,36.5826495],[-121.7492736,36.5826591],[-121.7492688,36.582751],[-121.7492654,36.5827769],[-121.7492619,36.5828204],[-121.7492593,36.5828745],[-121.7492516,36.5829557],[-121.7492483,36.5830447],[-121.7492417,36.5831588],[-121.7492366,36.5833289],[-121.7492379,36.5833731],[-121.7492378,36.5834698],[-121.7492397,36.5835416],[-121.7492392,36.583579],[-121.7492363,36.5836068],[-121.7492243,36.5836566],[-121.749222,36.5836786],[-121.7492226,36.5836927],[-121.7492246,36.5837066],[-121.7492278,36.5837205],[-121.7492345,36.5837422],[-121.7492468,36.5837746],[-121.7492578,36.5837812],[-121.7492536,36.5837928],[-121.7492658,36.583832],[-121.7492704,36.5838523],[-121.7492739,36.5838729],[-121.7492762,36.5838939],[-121.7492774,36.5839252],[-121.7492773,36.5839355],[-121.7492722,36.5839457],[-121.7492721,36.5839847],[-121.7492733,36.5839943],[-121.7492723,36.5840038],[-121.7492702,36.5840226],[-121.7492642,36.5840595],[-121.7492598,36.5840965],[-121.7492532,36.5841335],[-121.7492303,36.5842342],[-121.7492112,36.5843058],[-121.7491838,36.5843938],[-121.7491735,36.5844297],[-121.7491645,36.5844564],[-121.7491179,36.5845781],[-121.7490798,36.5846699],[-121.7490733,36.5846937],[-121.7490693,36.5847169],[-121.7490676,36.5847318],[-121.7490667,36.5847536],[-121.7490672,36.5847678],[-121.74907,36.584795],[-121.7490725,36.5848078],[-121.7490748,36.5848137],[-121.7490814,36.5848244],[-121.7490992,36.5848476],[-121.749112,36.5848591],[-121.7491226,36.5848656],[-121.7491286,36.5848683],[-121.7491424,36.5848726],[-121.7491747,36.5848789],[-121.7492109,36.5848846],[-121.7492302,36.5848861],[-121.7492506,36.5848848],[-121.7492961,36.5848755],[-121.7493087,36.5848737],[-121.7493352,36.5848723],[-121.749363,36.584874],[-121.7493917,36.5848783],[-121.7494209,36.5848849],[-121.74945,36.5848932],[-121.7494784,36.5849033],[-121.7494871,36.5849153],[-121.7495109,36.5849296],[-121.7495219,36.5849375],[-121.7495423,36.5849544],[-121.7495516,36.5849633],[-121.7495686,36.5849821],[-121.7495901,36.5850116],[-121.7496064,36.585042],[-121.7496202,36.5850717],[-121.7496318,36.5851008],[-121.7496457,36.5851478],[-121.7496828,36.5853034],[-121.749691,36.5853491],[-121.7496992,36.5854043],[-121.7497056,36.5854593],[-121.7497104,36.5855148],[-121.7497128,36.5855711],[-121.7497125,36.585645],[-121.7497112,36.5856824],[-121.7497069,36.585739],[-121.7497052,36.5857766],[-121.7497028,36.5857953],[-121.7496926,36.585841],[-121.7496806,36.5859111],[-121.7496771,36.5859369],[-121.7496751,36.5859623],[-121.7496758,36.5859707],[-121.7496749,36.5860205],[-121.7496799,36.5860291],[-121.7496803,36.5860377],[-121.7496799,36.5860552],[-121.7496758,36.5860903],[-121.7496756,36.5861159],[-121.7496853,36.5861837],[-121.7496984,36.5862611],[-121.7497091,36.5863124],[-121.7497212,36.5863637],[-121.7497305,36.5863976],[-121.7497441,36.5864394],[-121.7497459,36.586448],[-121.7497585,36.586481],[-121.7497841,36.5865349],[-121.749796,36.5865564],[-121.7498096,36.5865776],[-121.7498248,36.586599],[-121.7498467,36.586627],[-121.7498641,36.5866473],[-121.7498824,36.586667],[-121.7499418,36.5867259],[-121.7499634,36.5867444],[-121.7499857,36.5867622],[-121.7500535,36.5868137],[-121.7500685,36.5868242],[-121.7500763,36.5868289],[-121.750093,36.5868367],[-121.750174,36.586867],[-121.7501931,36.5868732],[-121.7502319,36.5868841],[-121.7502697,36.5868964],[-121.7502892,36.5869006],[-121.7503608,36.5869081],[-121.750409,36.5869117],[-121.7504432,36.5869121],[-121.7504852,36.58691],[-121.7505032,36.5869076],[-121.7505096,36.5868985],[-121.7505364,36.5868878],[-121.7506025,36.5868575],[-121.7506331,36.5868447],[-121.7506407,36.5868344],[-121.7506865,36.5868232],[-121.7507552,36.5868088],[-121.7508431,36.5867876],[-121.7509318,36.5867677],[-121.7509964,36.58675],[-121.7510269,36.5867425],[-121.7510862,36.5867318],[-121.7511363,36.5867196],[-121.7511886,36.5867059],[-121.7512094,36.5866995],[-121.75126,36.5866813],[-121.7513303,36.5866536],[-121.7513948,36.5866253],[-121.7514088,36.586628],[-121.7514432,36.5866184],[-121.7514793,36.5866101],[-121.7515054,36.5866058],[-121.7515328,36.5866035],[-121.7515607,36.5866039],[-121.7515744,36.5866053],[-121.7516004,36.5866099],[-121.7516456,36.58662],[-121.7516658,36.5866226],[-121.7516756,36.5866231],[-121.7516948,36.5866227],[-121.7517141,36.5866207],[-121.7517433,36.5866158],[-121.7517538,36.5866157],[-121.7517937,36.5866043],[-121.7518998,36.5865765],[-121.751954,36.5865638],[-121.7520168,36.5865465],[-121.7520914,36.5865277],[-121.7522099,36.5864992],[-121.7522962,36.5864803],[-121.7524245,36.5864489],[-121.7524801,36.5864345],[-121.752503,36.5864295],[-121.7525379,36.5864231],[-121.7525968,36.5864134],[-121.7526213,36.5864102],[-121.7526594,36.5864075],[-121.7526986,36.5864072],[-121.7527377,36.5864095],[-121.7527758,36.5864141],[-121.7528123,36.5864211],[-121.7528718,36.5864361],[-121.7529077,36.5864469],[-121.752943,36.5864599],[-121.7529766,36.5864748],[-121.7530189,36.586497],[-121.7530393,36.5865092],[-121.7530592,36.5865223],[-121.7530878,36.5865437],[-121.7531134,36.5865672],[-121.7531359,36.5865917],[-121.7532035,36.5866699],[-121.7532221,36.586694],[-121.7532669,36.5867592],[-121.7533752,36.5869272],[-121.7535692,36.5872214],[-121.7536189,36.5872914],[-121.7536507,36.5873392],[-121.7536808,36.5873867],[-121.7537356,36.5874536],[-121.7537757,36.5875077],[-121.7538072,36.5875444],[-121.753838,36.5875821],[-121.7538678,36.5876205],[-121.7539444,36.5877127],[-121.753986,36.5877746],[-121.7539825,36.5877863],[-121.7539964,36.5878221],[-121.7540161,36.5878829],[-121.7540166,36.5878922],[-121.7540266,36.5879078],[-121.7540356,36.5879241],[-121.7540422,36.5879413],[-121.7540498,36.5879672],[-121.7540532,36.5879753],[-121.7540615,36.5879908],[-121.7541034,36.588052],[-121.754217,36.5882282],[-121.7543009,36.5883543],[-121.7543215,36.5883864],[-121.7543251,36.588395],[-121.7543463,36.5884268],[-121.7543529,36.5884342],[-121.754389,36.5884906],[-121.7543962,36.5884977],[-121.7544115,36.5885207],[-121.7544138,36.5885295],[-121.7544187,36.5885368],[-121.7544336,36.5885576],[-121.7544399,36.5885634],[-121.7544702,36.5885965],[-121.7544803,36.5886053],[-121.7544857,36.5886089],[-121.7544972,36.5886145],[-121.7545093,36.5886179],[-121.7545218,36.5886196],[-121.7545408,36.5886201],[-121.7545599,36.5886181],[-121.7545725,36.5886148],[-121.7545848,36.5886097],[-121.7546032,36.5885996],[-121.7546209,36.5885857],[-121.754669,36.5885403],[-121.7546885,36.5885131],[-121.7547174,36.5884664],[-121.7547342,36.5884415],[-121.7547385,36.5884324],[-121.7547511,36.5884163],[-121.7548179,36.5883403],[-121.7549169,36.5882304],[-121.7550295,36.5881076],[-121.7551251,36.588008],[-121.7551642,36.587965],[-121.7552265,36.5879007],[-121.7552935,36.5878248],[-121.7553535,36.587763],[-121.7554058,36.5877053],[-121.7554743,36.5876336],[-121.7556137,36.5874821],[-121.755663,36.5874324],[-121.7557163,36.5873752],[-121.7557578,36.5873331],[-121.7558123,36.5872745],[-121.7558778,36.5872063],[-121.7559257,36.5871576],[-121.7559568,36.5871244],[-121.7560035,36.5870773],[-121.7560427,36.587034],[-121.7560837,36.5869913],[-121.756144,36.5869249],[-121.7562881,36.5867695],[-121.7563456,36.5867106],[-121.7564775,36.5865651],[-121.7565175,36.5865231],[-121.7565618,36.5864719],[-121.7565952,36.5864357]]]}},{"type":"Feature","properties":{"role":"pit_lane","name":"Pit Lane","osm_way":109859349,"quality":{"source":"osm","accuracy_m":5.0,"measured":false,"note":"OSM-traced pit-lane centerline; not measured"}},"geometry":{"type":"LineString","coordinates":[[-121.753438,36.5871462],[-121.7537461,36.5875048],[-121.7539325,36.5877314],[-121.7540483,36.5878686],[-121.7543446,36.5882064],[-121.7543904,36.5882652],[-121.7544143,36.5883123],[-121.7544231,36.5883571],[-121.754426,36.5884007],[-121.7544355,36.588441],[-121.7544523,36.588475],[-121.7544786,36.5884975],[-121.7545215,36.5885068],[-121.7545577,36.5885029],[-121.7545907,36.5884883],[-121.7547158,36.5883425],[-121.7555561,36.5874374],[-121.7564303,36.5864971],[-121.7565237,36.5863937],[-121.7566633,36.5862394],[-121.7567798,36.5861083],[-121.7568427,36.5860244],[-121.7568925,36.5859371],[-121.7570709,36.5856034],[-121.7572033,36.585373],[-121.7572934,36.5852509],[-121.7573284,36.5851976],[-121.7575047,36.5848896],[-121.7575537,36.5847944],[-121.7576133,36.5846464],[-121.7576529,36.5845071],[-121.7576667,36.584425],[-121.7576723,36.5843688],[-121.7576773,36.5842568],[-121.7576788,36.5839971],[-121.7576726,36.5837911],[-121.7576614,36.5835848],[-121.7576543,36.5834883],[-121.7575739,36.582954],[-121.7575563,36.5828574],[-121.7575383,36.5827972],[-121.7575143,36.5827541],[-121.757474,36.5827133],[-121.7574274,36.5826817],[-121.7573702,36.5826644],[-121.757303,36.5826605],[-121.7572394,36.5826756],[-121.757181,36.5826999],[-121.7571268,36.5827403],[-121.7570748,36.5828009],[-121.757043,36.5828627],[-121.7570146,36.5829479],[-121.7570045,36.5830025],[-121.7569945,36.5831604]]}},{"type":"Feature","properties":{"role":"start_finish","id":"start_finish","marker":0.0,"width_m":14.82,"quality":{"source":"naip","accuracy_m":4.4,"relative_accuracy_m":1.75,"measured":false,"date":"2022-05-19"}},"geometry":{"type":"LineString","coordinates":[[-121.756596,36.5864348],[-121.756731,36.5865121]]}},{"type":"Feature","properties":{"role":"pit_entry","id":"pit_entry","marker":0.87,"width_m":14.34,"quality":{"source":"naip","accuracy_m":4.0,"relative_accuracy_m":0.25,"measured":true,"date":"2022-05-19"}},"geometry":{"type":"LineString","coordinates":[[-121.7537366,36.587455],[-121.7535973,36.5875189]]}},{"type":"Feature","properties":{"role":"pit_exit","id":"pit_exit","marker":0.154,"width_m":12.46,"quality":{"source":"naip","accuracy_m":4.0,"relative_accuracy_m":0.25,"measured":true,"date":"2022-05-19"}},"geometry":{"type":"LineString","coordinates":[[-121.7569354,36.582856],[-121.7567981,36.5828748]]}},{"type":"Feature","properties":{"role":"corner_entry","id":"t1-entry","marker":0.05132,"width_m":11.57,"quality":{"source":"naip","accuracy_m":4.0,"relative_accuracy_m":0.25,"measured":true,"date":"2022-05-19"},"corner":"t1"},"geometry":{"type":"LineString","coordinates":[[-121.757504,36.5849545],[-121.7576218,36.5849975]]}},{"type":"Feature","properties":{"role":"corner_exit","id":"t1-exit","marker":0.07467,"width_m":11.63,"quality":{"source":"naip","accuracy_m":4.0,"relative_accuracy_m":0.25,"measured":true,"date":"2022-05-19"},"corner":"t1"},"geometry":{"type":"LineString","coordinates":[[-121.7577081,36.5842437],[-121.757838,36.5842459]]}},{"type":"Feature","properties":{"role":"apex","id":"t1-apex","corner":"t1","edge":"left","marker":0.06772,"quality":{"source":"naip","accuracy_m":4.0,"relative_accuracy_m":0.25,"measured":true,"date":"2022-05-19"}},"geometry":{"type":"Point","coordinates":[-121.757693,36.5844622]}},{"type":"Feature","properties":{"role":"corner_entry","id":"t2-entry","marker":0.11938,"width_m":12.69,"quality":{"source":"naip","accuracy_m":4.0,"relative_accuracy_m":0.25,"measured":true,"date":"2022-05-19"},"corner":"t2"},"geometry":{"type":"LineString","coordinates":[[-121.7576557,36.5828014],[-121.7577969,36.582791]]}},{"type":"Feature","properties":{"role":"corner_exit","id":"t2-exit","marker":0.15655,"width_m":12.68,"quality":{"source":"naip","accuracy_m":4.0,"relative_accuracy_m":0.25,"measured":true,"date":"2022-05-19"},"corner":"t2"},"geometry":{"type":"LineString","coordinates":[[-121.7569598,36.5829246],[-121.7568261,36.5829625]]}},{"type":"Feature","properties":{"role":"apex","id":"t2-apex","corner":"t2","edge":"left","marker":0.1469,"quality":{"source":"naip","accuracy_m":4.0,"relative_accuracy_m":0.25,"measured":true,"date":"2022-05-19"}},"geometry":{"type":"Point","coordinates":[-121.7569878,36.5826723]}},{"type":"Feature","properties":{"role":"corner_entry","id":"t3-entry","marker":0.20939,"width_m":12.57,"quality":{"source":"naip","accuracy_m":4.0,"relative_accuracy_m":0.25,"measured":true,"date":"2022-05-19"},"corner":"t3"},"geometry":{"type":"LineString","coordinates":[[-121.7570519,36.5846353],[-121.7569141,36.5846132]]}},{"type":"Feature","properties":{"role":"corner_exit","id":"t3-exit","marker":0.23095,"width_m":13.22,"quality":{"source":"naip","accuracy_m":4.0,"relative_accuracy_m":0.25,"measured":true,"date":"2022-05-19"},"corner":"t3"},"geometry":{"type":"LineString","coordinates":[[-121.7563303,36.5850147],[-121.7563589,36.5848979]]}},{"type":"Feature","properties":{"role":"apex","id":"t3-apex","corner":"t3","edge":"right","marker":0.22008,"quality":{"source":"naip","accuracy_m":4.0,"relative_accuracy_m":0.25,"measured":true,"date":"2022-05-19"}},"geometry":{"type":"Point","coordinates":[-121.7567223,36.5848561]}},{"type":"Feature","properties":{"role":"corner_entry","id":"t4-entry","marker":0.28289,"width_m":12.92,"quality":{"source":"naip","accuracy_m":4.0,"relative_accuracy_m":0.25,"measured":true,"date":"2022-05-19"},"corner":"t4"},"geometry":{"type":"LineString","coordinates":[[-121.7542953,36.5846204],[-121.7543305,36.5845075]]}},{"type":"Feature","properties":{"role":"corner_exit","id":"t4-exit","marker":0.305,"width_m":12.89,"quality":{"source":"naip","accuracy_m":4.0,"relative_accuracy_m":0.25,"measured":true,"date":"2022-05-19"},"corner":"t4"},"geometry":{"type":"LineString","coordinates":[[-121.7537005,36.5840595],[-121.7538437,36.5840471]]}},{"type":"Feature","properties":{"role":"apex","id":"t4-apex","corner":"t4","edge":"right","marker":0.2945,"quality":{"source":"naip","accuracy_m":4.0,"relative_accuracy_m":0.25,"measured":true,"date":"2022-05-19"}},"geometry":{"type":"Point","coordinates":[-121.7539773,36.5843299]}},{"type":"Feature","properties":{"role":"corner_entry","id":"t5-entry","marker":0.41636,"width_m":12.52,"quality":{"source":"naip","accuracy_m":4.0,"relative_accuracy_m":0.25,"measured":true,"date":"2022-05-19"},"corner":"t5"},"geometry":{"type":"LineString","coordinates":[[-121.7542977,36.5805038],[-121.7544334,36.5805309]]}},{"type":"Feature","properties":{"role":"corner_exit","id":"t5-exit","marker":0.44852,"width_m":11.24,"quality":{"source":"naip","accuracy_m":4.0,"relative_accuracy_m":0.25,"measured":true,"date":"2022-05-19"},"corner":"t5"},"geometry":{"type":"LineString","coordinates":[[-121.7536092,36.5799356],[-121.7536093,36.5798343]]}},{"type":"Feature","properties":{"role":"apex","id":"t5-apex","corner":"t5","edge":"left","marker":0.42755,"quality":{"source":"naip","accuracy_m":4.0,"relative_accuracy_m":0.25,"measured":true,"date":"2022-05-19"}},"geometry":{"type":"Point","coordinates":[-121.7542588,36.5801918]}},{"type":"Feature","properties":{"role":"corner_entry","id":"t6-entry","marker":0.53743,"width_m":10.19,"quality":{"source":"naip","accuracy_m":4.0,"relative_accuracy_m":0.25,"measured":true,"date":"2022-05-19"},"corner":"t6"},"geometry":{"type":"LineString","coordinates":[[-121.7500919,36.580384],[-121.7500696,36.580294]]}},{"type":"Feature","properties":{"role":"corner_exit","id":"t6-exit","marker":0.54647,"width_m":10.41,"quality":{"source":"naip","accuracy_m":4.0,"relative_accuracy_m":0.25,"measured":true,"date":"2022-05-19"},"corner":"t6"},"geometry":{"type":"LineString","coordinates":[[-121.7498577,36.5805255],[-121.7497564,36.5804795]]}},{"type":"Feature","properties":{"role":"apex","id":"t6-apex","corner":"t6","edge":"left","marker":0.54224,"quality":{"source":"naip","accuracy_m":4.0,"relative_accuracy_m":0.25,"measured":true,"date":"2022-05-19"}},"geometry":{"type":"Point","coordinates":[-121.7499415,36.5804309]}},{"type":"Feature","properties":{"role":"corner_entry","id":"t7-entry","marker":0.67918,"width_m":12.62,"quality":{"source":"naip","accuracy_m":4.0,"relative_accuracy_m":0.25,"measured":true,"date":"2022-05-19"},"corner":"t7"},"geometry":{"type":"LineString","coordinates":[[-121.7490725,36.5846984],[-121.7489347,36.584674]]}},{"type":"Feature","properties":{"role":"corner_exit","id":"t7-exit","marker":0.69013,"width_m":12.71,"quality":{"source":"naip","accuracy_m":4.0,"relative_accuracy_m":0.25,"measured":true,"date":"2022-05-19"},"corner":"t7"},"geometry":{"type":"LineString","coordinates":[[-121.7492081,36.5848842],[-121.7491892,36.5849977]]}},{"type":"Feature","properties":{"role":"apex","id":"t7-apex","corner":"t7","edge":"left","marker":0.68677,"quality":{"source":"naip","accuracy_m":4.0,"relative_accuracy_m":0.25,"measured":true,"date":"2022-05-19"}},"geometry":{"type":"Point","coordinates":[-121.7491148,36.5848608]}},{"type":"Feature","properties":{"role":"corner_entry","id":"t8-entry","marker":0.7441,"width_m":13.44,"quality":{"source":"naip","accuracy_m":4.0,"relative_accuracy_m":0.25,"measured":true,"date":"2022-05-19"},"corner":"t8"},"geometry":{"type":"LineString","coordinates":[[-121.7497502,36.5864593],[-121.7496064,36.5864942]]}},{"type":"Feature","properties":{"role":"corner_exit","id":"t8-exit","marker":0.77418,"width_m":16.69,"quality":{"source":"naip","accuracy_m":4.4,"relative_accuracy_m":1.75,"measured":false,"date":"2022-05-19"},"corner":"t8"},"geometry":{"type":"LineString","coordinates":[[-121.7505665,36.586874],[-121.7506357,36.5870137]]}},{"type":"Feature","properties":{"role":"apex","id":"t8-apex","corner":"t8","edge":"left","marker":0.7717,"quality":{"source":"naip","accuracy_m":4.0,"relative_accuracy_m":0.25,"measured":true,"date":"2022-05-19"}},"geometry":{"type":"Point","coordinates":[-121.7504896,36.5869094]}},{"type":"Feature","properties":{"role":"corner_entry","id":"t9-entry","marker":0.82345,"width_m":12.72,"quality":{"source":"naip","accuracy_m":4.0,"relative_accuracy_m":0.25,"measured":true,"date":"2022-05-19"},"corner":"t9"},"geometry":{"type":"LineString","coordinates":[[-121.7524814,36.5864342],[-121.752518,36.586545]]}},{"type":"Feature","properties":{"role":"corner_exit","id":"t9-exit","marker":0.8425,"width_m":12.73,"quality":{"source":"naip","accuracy_m":4.0,"relative_accuracy_m":0.25,"measured":true,"date":"2022-05-19"},"corner":"t9"},"geometry":{"type":"LineString","coordinates":[[-121.7532042,36.5866708],[-121.7530836,36.5867315]]}},{"type":"Feature","properties":{"role":"apex","id":"t9-apex","corner":"t9","edge":"right","marker":0.83774,"quality":{"source":"naip","accuracy_m":4.0,"relative_accuracy_m":0.25,"measured":true,"date":"2022-05-19"}},"geometry":{"type":"Point","coordinates":[-121.7529829,36.5866187]}},{"type":"Feature","properties":{"role":"corner_entry","id":"t10-entry","marker":0.90798,"width_m":12.77,"quality":{"source":"naip","accuracy_m":4.4,"relative_accuracy_m":1.75,"measured":false,"date":"2022-05-19"},"corner":"t10"},"geometry":{"type":"LineString","coordinates":[[-121.7544295,36.5885519],[-121.7543069,36.5886108]]}},{"type":"Feature","properties":{"role":"corner_exit","id":"t10-exit","marker":0.91922,"width_m":13.79,"quality":{"source":"naip","accuracy_m":4.0,"relative_accuracy_m":0.25,"measured":true,"date":"2022-05-19"},"corner":"t10"},"geometry":{"type":"LineString","coordinates":[[-121.7546641,36.5885449],[-121.7547827,36.5886243]]}},{"type":"Feature","properties":{"role":"apex","id":"t10-apex","corner":"t10","edge":"left","marker":0.91185,"quality":{"source":"naip","accuracy_m":4.0,"relative_accuracy_m":0.25,"measured":true,"date":"2022-05-19"}},"geometry":{"type":"Point","coordinates":[-121.7545024,36.588616]}},{"type":"Feature","properties":{"role":"sector_boundary","id":"s1-start","marker":0.0,"width_m":14.82,"quality":{"source":"naip","accuracy_m":4.4,"relative_accuracy_m":1.75,"measured":false,"date":"2022-05-19"},"range":"s1"},"geometry":{"type":"LineString","coordinates":[[-121.756596,36.5864348],[-121.756731,36.5865121]]}},{"type":"Feature","properties":{"role":"sector_boundary","id":"s2-start","marker":0.377,"width_m":12.89,"quality":{"source":"naip","accuracy_m":4.0,"relative_accuracy_m":0.25,"measured":true,"date":"2022-05-19"},"range":"s2"},"geometry":{"type":"LineString","coordinates":[[-121.7538595,36.5817314],[-121.7539981,36.5817632]]}},{"type":"Feature","properties":{"role":"sector_boundary","id":"s3-start","marker":0.643,"width_m":19.68,"quality":{"source":"naip","accuracy_m":4.4,"relative_accuracy_m":1.75,"measured":false,"date":"2022-05-19"},"range":"s3"},"geometry":{"type":"LineString","coordinates":[[-121.7492397,36.583542],[-121.7490198,36.5835436]]}}]}