{
  "type": "FeatureCollection",
  "features": [
    {
      "type": "Feature",
      "properties": {
        "role": "outline",
        "layout": "gp",
        "basis": "midline"
      },
      "geometry": {
        "type": "LineString",
        "coordinates": [
          [
            -73.3806887,
            41.9285004
          ],
          [
            -73.3805051,
            41.9284386
          ],
          [
            -73.3804277,
            41.9284136
          ],
          [
            -73.3802739,
            41.9283615
          ],
          [
            -73.3801524,
            41.9283218
          ],
          [
            -73.379966,
            41.9282581
          ],
          [
            -73.3798336,
            41.9282146
          ],
          [
            -73.3798119,
            41.9282068
          ],
          [
            -73.3798022,
            41.9282014
          ],
          [
            -73.3797701,
            41.928189
          ],
          [
            -73.379761,
            41.9281831
          ],
          [
            -73.3797057,
            41.9281653
          ],
          [
            -73.3796496,
            41.9281487
          ],
          [
            -73.3796399,
            41.9281433
          ],
          [
            -73.3795534,
            41.9281115
          ],
          [
            -73.3794658,
            41.9280814
          ],
          [
            -73.3794568,
            41.9280754
          ],
          [
            -73.3793204,
            41.9280395
          ],
          [
            -73.3792643,
            41.928023
          ],
          [
            -73.3792198,
            41.9280092
          ],
          [
            -73.3791757,
            41.9279944
          ],
          [
            -73.3791104,
            41.9279714
          ],
          [
            -73.3788942,
            41.9278985
          ],
          [
            -73.3786781,
            41.9278256
          ],
          [
            -73.378462,
            41.9277528
          ],
          [
            -73.3783972,
            41.9277288
          ],
          [
            -73.3783551,
            41.9277111
          ],
          [
            -73.3783155,
            41.9276906
          ],
          [
            -73.3782782,
            41.9276678
          ],
          [
            -73.3782518,
            41.9276493
          ],
          [
            -73.3782268,
            41.9276298
          ],
          [
            -73.3782029,
            41.9276095
          ],
          [
            -73.3781804,
            41.9275884
          ],
          [
            -73.3781517,
            41.9275594
          ],
          [
            -73.3781312,
            41.9275371
          ],
          [
            -73.3781056,
            41.9275066
          ],
          [
            -73.3780876,
            41.9274832
          ],
          [
            -73.3780656,
            41.9274511
          ],
          [
            -73.3780397,
            41.9274105
          ],
          [
            -73.3780248,
            41.9273859
          ],
          [
            -73.3780112,
            41.9273609
          ],
          [
            -73.3779991,
            41.9273354
          ],
          [
            -73.3779846,
            41.9273011
          ],
          [
            -73.3779755,
            41.9272749
          ],
          [
            -73.3779657,
            41.9272396
          ],
          [
            -73.3779625,
            41.9272127
          ],
          [
            -73.3779585,
            41.9270597
          ],
          [
            -73.3779594,
            41.9270417
          ],
          [
            -73.3779645,
            41.927015
          ],
          [
            -73.3779866,
            41.9269449
          ],
          [
            -73.3779969,
            41.926919
          ],
          [
            -73.3780083,
            41.9268933
          ],
          [
            -73.3780251,
            41.9268596
          ],
          [
            -73.3780392,
            41.9268347
          ],
          [
            -73.3780597,
            41.9268021
          ],
          [
            -73.3780766,
            41.9267782
          ],
          [
            -73.3781191,
            41.9267238
          ],
          [
            -73.3781762,
            41.9266548
          ],
          [
            -73.3782045,
            41.9266257
          ],
          [
            -73.3782726,
            41.9265626
          ],
          [
            -73.3783041,
            41.9265353
          ],
          [
            -73.3783298,
            41.9265163
          ],
          [
            -73.378394,
            41.9264754
          ],
          [
            -73.3784326,
            41.9264538
          ],
          [
            -73.3784737,
            41.926435
          ],
          [
            -73.3784951,
            41.9264267
          ],
          [
            -73.3785172,
            41.9264194
          ],
          [
            -73.3785843,
            41.9263993
          ],
          [
            -73.3786413,
            41.9263846
          ],
          [
            -73.378676,
            41.9263769
          ],
          [
            -73.378735,
            41.9263677
          ],
          [
            -73.3787709,
            41.9263645
          ],
          [
            -73.3788311,
            41.9263631
          ],
          [
            -73.3788914,
            41.9263651
          ],
          [
            -73.3789633,
            41.9263707
          ],
          [
            -73.3789992,
            41.9263743
          ],
          [
            -73.3790346,
            41.9263799
          ],
          [
            -73.3790577,
            41.9263849
          ],
          [
            -73.3790804,
            41.9263909
          ],
          [
            -73.3791135,
            41.9264018
          ],
          [
            -73.3792109,
            41.9264375
          ],
          [
            -73.3792646,
            41.9264581
          ],
          [
            -73.3793066,
            41.9264758
          ],
          [
            -73.3794184,
            41.926529
          ],
          [
            -73.3795114,
            41.9265708
          ],
          [
            -73.3796234,
            41.9266238
          ],
          [
            -73.3797355,
            41.9266768
          ],
          [
            -73.3798158,
            41.9267167
          ],
          [
            -73.3799399,
            41.9267722
          ],
          [
            -73.3800733,
            41.9268337
          ],
          [
            -73.3802208,
            41.9268951
          ],
          [
            -73.3803708,
            41.9269528
          ],
          [
            -73.3804148,
            41.9269675
          ],
          [
            -73.3804713,
            41.9269834
          ],
          [
            -73.3805169,
            41.926995
          ],
          [
            -73.3805401,
            41.927
          ],
          [
            -73.3805752,
            41.9270064
          ],
          [
            -73.3806108,
            41.9270113
          ],
          [
            -73.3806467,
            41.9270147
          ],
          [
            -73.3806827,
            41.9270168
          ],
          [
            -73.3807189,
            41.9270172
          ],
          [
            -73.380755,
            41.9270158
          ],
          [
            -73.380803,
            41.9270124
          ],
          [
            -73.3808508,
            41.9270076
          ],
          [
            -73.3808863,
            41.9270025
          ],
          [
            -73.3809333,
            41.9269942
          ],
          [
            -73.3809682,
            41.9269872
          ],
          [
            -73.3810028,
            41.9269793
          ],
          [
            -73.3810368,
            41.9269701
          ],
          [
            -73.3811042,
            41.9269505
          ],
          [
            -73.3811371,
            41.9269392
          ],
          [
            -73.3811801,
            41.9269229
          ],
          [
            -73.3812113,
            41.9269093
          ],
          [
            -73.3812314,
            41.9268993
          ],
          [
            -73.3813084,
            41.9268559
          ],
          [
            -73.3813358,
            41.9268383
          ],
          [
            -73.3813706,
            41.9268134
          ],
          [
            -73.3813955,
            41.9267938
          ],
          [
            -73.3814188,
            41.9267731
          ],
          [
            -73.381433,
            41.9267586
          ],
          [
            -73.3814525,
            41.9267358
          ],
          [
            -73.3814643,
            41.9267201
          ],
          [
            -73.3814796,
            41.9266956
          ],
          [
            -73.3814926,
            41.9266704
          ],
          [
            -73.3815002,
            41.9266534
          ],
          [
            -73.3815229,
            41.9265926
          ],
          [
            -73.3815327,
            41.9265574
          ],
          [
            -73.3815374,
            41.9265306
          ],
          [
            -73.3815405,
            41.9265037
          ],
          [
            -73.3815437,
            41.9264587
          ],
          [
            -73.3815446,
            41.9264317
          ],
          [
            -73.3815446,
            41.9263417
          ],
          [
            -73.3815432,
            41.9263057
          ],
          [
            -73.3815331,
            41.9261979
          ],
          [
            -73.3815169,
            41.9260724
          ],
          [
            -73.3815132,
            41.9260275
          ],
          [
            -73.3815092,
            41.9259375
          ],
          [
            -73.3815101,
            41.9259105
          ],
          [
            -73.381512,
            41.9258925
          ],
          [
            -73.3815174,
            41.9258658
          ],
          [
            -73.3815323,
            41.925813
          ],
          [
            -73.3815454,
            41.9257783
          ],
          [
            -73.3815577,
            41.9257529
          ],
          [
            -73.3815678,
            41.9257366
          ],
          [
            -73.3815794,
            41.9257208
          ],
          [
            -73.3816282,
            41.9256587
          ],
          [
            -73.3816482,
            41.9256362
          ],
          [
            -73.3816635,
            41.9256222
          ],
          [
            -73.3816966,
            41.925596
          ],
          [
            -73.3817409,
            41.9255655
          ],
          [
            -73.381788,
            41.9255374
          ],
          [
            -73.3818369,
            41.9255111
          ],
          [
            -73.3818776,
            41.9254917
          ],
          [
            -73.381909,
            41.9254783
          ],
          [
            -73.3820157,
            41.9254365
          ],
          [
            -73.3820482,
            41.9254246
          ],
          [
            -73.3820703,
            41.9254174
          ],
          [
            -73.3822046,
            41.9253771
          ],
          [
            -73.3823388,
            41.9253367
          ],
          [
            -73.3825406,
            41.9252772
          ],
          [
            -73.3826944,
            41.9252374
          ],
          [
            -73.3828482,
            41.9251976
          ],
          [
            -73.3829404,
            41.9251764
          ],
          [
            -73.3830103,
            41.9251624
          ],
          [
            -73.383093,
            41.9251497
          ],
          [
            -73.3831986,
            41.9251313
          ],
          [
            -73.3832223,
            41.9251279
          ],
          [
            -73.3832462,
            41.9251254
          ],
          [
            -73.3832703,
            41.9251243
          ],
          [
            -73.3833667,
            41.9251238
          ],
          [
            -73.383427,
            41.9251242
          ],
          [
            -73.3834993,
            41.9251232
          ],
          [
            -73.3835355,
            41.9251237
          ],
          [
            -73.3835716,
            41.9251255
          ],
          [
            -73.3836075,
            41.9251284
          ],
          [
            -73.3837031,
            41.925138
          ],
          [
            -73.3838223,
            41.9251519
          ],
          [
            -73.3839414,
            41.9251658
          ],
          [
            -73.3841561,
            41.9251896
          ],
          [
            -73.3842877,
            41.9252019
          ],
          [
            -73.3843596,
            41.9252075
          ],
          [
            -73.3844318,
            41.9252113
          ],
          [
            -73.3845161,
            41.9252141
          ],
          [
            -73.3845884,
            41.9252148
          ],
          [
            -73.3847211,
            41.9252135
          ],
          [
            -73.3848536,
            41.9252092
          ],
          [
            -73.3850099,
            41.9252011
          ],
          [
            -73.3851541,
            41.9251918
          ],
          [
            -73.3853819,
            41.9251737
          ],
          [
            -73.3856094,
            41.9251535
          ],
          [
            -73.3858369,
            41.9251333
          ],
          [
            -73.3860274,
            41.9251106
          ],
          [
            -73.3860513,
            41.9251082
          ],
          [
            -73.3860873,
            41.9251059
          ],
          [
            -73.3861355,
            41.9251047
          ],
          [
            -73.3861596,
            41.9251059
          ],
          [
            -73.3861834,
            41.9251085
          ],
          [
            -73.3862068,
            41.9251128
          ],
          [
            -73.3862183,
            41.9251157
          ],
          [
            -73.3862404,
            41.9251228
          ],
          [
            -73.3862508,
            41.9251273
          ],
          [
            -73.3862702,
            41.925138
          ],
          [
            -73.386279,
            41.9251442
          ],
          [
            -73.3862946,
            41.9251579
          ],
          [
            -73.3863138,
            41.9251808
          ],
          [
            -73.3863293,
            41.9252052
          ],
          [
            -73.3863372,
            41.9252222
          ],
          [
            -73.3863426,
            41.9252398
          ],
          [
            -73.386356,
            41.9253111
          ],
          [
            -73.3863652,
            41.9253465
          ],
          [
            -73.3863722,
            41.9253637
          ],
          [
            -73.3863767,
            41.9253721
          ],
          [
            -73.386382,
            41.9253801
          ],
          [
            -73.3863886,
            41.9253877
          ],
          [
            -73.3863962,
            41.9253947
          ],
          [
            -73.3864048,
            41.9254009
          ],
          [
            -73.3864241,
            41.9254118
          ],
          [
            -73.3864351,
            41.9254154
          ],
          [
            -73.386467,
            41.9254282
          ],
          [
            -73.3864782,
            41.9254315
          ],
          [
            -73.3866147,
            41.9254673
          ],
          [
            -73.3867299,
            41.9254939
          ],
          [
            -73.3867639,
            41.9255032
          ],
          [
            -73.3867854,
            41.9255112
          ],
          [
            -73.3868056,
            41.9255211
          ],
          [
            -73.3868242,
            41.9255326
          ],
          [
            -73.3868412,
            41.9255453
          ],
          [
            -73.3868568,
            41.9255591
          ],
          [
            -73.3868706,
            41.9255738
          ],
          [
            -73.3869071,
            41.9256205
          ],
          [
            -73.3869721,
            41.925717
          ],
          [
            -73.386995,
            41.9257487
          ],
          [
            -73.3870272,
            41.9257971
          ],
          [
            -73.3871161,
            41.9259249
          ],
          [
            -73.3871742,
            41.9260038
          ],
          [
            -73.3871932,
            41.9260268
          ],
          [
            -73.3872071,
            41.9260415
          ],
          [
            -73.3873183,
            41.926148
          ],
          [
            -73.3873419,
            41.9261685
          ],
          [
            -73.387466,
            41.9262667
          ],
          [
            -73.3875901,
            41.926365
          ],
          [
            -73.3876159,
            41.9263839
          ],
          [
            -73.3877129,
            41.9264515
          ],
          [
            -73.3877471,
            41.9264769
          ],
          [
            -73.3877963,
            41.9265165
          ],
          [
            -73.3878186,
            41.9265377
          ],
          [
            -73.3878314,
            41.926553
          ],
          [
            -73.3878366,
            41.9265611
          ],
          [
            -73.3878546,
            41.9265846
          ],
          [
            -73.3878674,
            41.9265998
          ],
          [
            -73.3879487,
            41.9267102
          ],
          [
            -73.3879811,
            41.9267585
          ],
          [
            -73.3880368,
            41.9268384
          ],
          [
            -73.3881172,
            41.9269594
          ],
          [
            -73.3881976,
            41.9270804
          ],
          [
            -73.3882779,
            41.9272014
          ],
          [
            -73.3883248,
            41.9272745
          ],
          [
            -73.3883936,
            41.9273796
          ],
          [
            -73.3884624,
            41.9274848
          ],
          [
            -73.3885447,
            41.9276151
          ],
          [
            -73.3885594,
            41.9276398
          ],
          [
            -73.3885677,
            41.9276567
          ],
          [
            -73.3885827,
            41.9276909
          ],
          [
            -73.388609,
            41.9277413
          ],
          [
            -73.3886209,
            41.9277668
          ],
          [
            -73.3886305,
            41.9277928
          ],
          [
            -73.3886343,
            41.9278106
          ],
          [
            -73.3886387,
            41.9278645
          ],
          [
            -73.3886382,
            41.9279005
          ],
          [
            -73.3886327,
            41.9279454
          ],
          [
            -73.3886186,
            41.9280166
          ],
          [
            -73.3886046,
            41.9280696
          ],
          [
            -73.3885829,
            41.9281305
          ],
          [
            -73.3885677,
            41.9281647
          ],
          [
            -73.3885413,
            41.928215
          ],
          [
            -73.3885217,
            41.9282479
          ],
          [
            -73.3884939,
            41.9282878
          ],
          [
            -73.3884693,
            41.9283188
          ],
          [
            -73.38843,
            41.9283642
          ],
          [
            -73.3884085,
            41.9283859
          ],
          [
            -73.3883711,
            41.9284213
          ],
          [
            -73.3883299,
            41.9284656
          ],
          [
            -73.3883142,
            41.9284793
          ],
          [
            -73.3882158,
            41.9285585
          ],
          [
            -73.3881741,
            41.928591
          ],
          [
            -73.3881061,
            41.9286421
          ],
          [
            -73.3880407,
            41.928695
          ],
          [
            -73.3878918,
            41.928813
          ],
          [
            -73.3878082,
            41.9288778
          ],
          [
            -73.387684,
            41.9289761
          ],
          [
            -73.3876187,
            41.929029
          ],
          [
            -73.3875547,
            41.9290829
          ],
          [
            -73.3874122,
            41.9291929
          ],
          [
            -73.38728,
            41.9292979
          ],
          [
            -73.3871984,
            41.9293642
          ],
          [
            -73.3870897,
            41.9294485
          ],
          [
            -73.386953,
            41.9295502
          ],
          [
            -73.3868746,
            41.9296062
          ],
          [
            -73.3867585,
            41.9296848
          ],
          [
            -73.386677,
            41.9297383
          ],
          [
            -73.3866308,
            41.9297673
          ],
          [
            -73.3865933,
            41.9297899
          ],
          [
            -73.3864787,
            41.9298558
          ],
          [
            -73.3864496,
            41.9298719
          ],
          [
            -73.3864101,
            41.9298925
          ],
          [
            -73.3863697,
            41.9299122
          ],
          [
            -73.3862664,
            41.9299587
          ],
          [
            -73.3862351,
            41.9299722
          ],
          [
            -73.3862028,
            41.9299844
          ],
          [
            -73.3861691,
            41.9299941
          ],
          [
            -73.3861345,
            41.930002
          ],
          [
            -73.3860773,
            41.9300163
          ],
          [
            -73.3860424,
            41.9300234
          ],
          [
            -73.3859718,
            41.9300352
          ],
          [
            -73.3859245,
            41.930042
          ],
          [
            -73.385865,
            41.9300492
          ],
          [
            -73.3858052,
            41.930055
          ],
          [
            -73.3857452,
            41.9300595
          ],
          [
            -73.385697,
            41.9300615
          ],
          [
            -73.3855524,
            41.930061
          ],
          [
            -73.3855042,
            41.9300587
          ],
          [
            -73.3854202,
            41.9300526
          ],
          [
            -73.3853963,
            41.9300503
          ],
          [
            -73.3853491,
            41.930043
          ],
          [
            -73.3852795,
            41.9300282
          ],
          [
            -73.385165,
            41.9299999
          ],
          [
            -73.3850635,
            41.9299713
          ],
          [
            -73.3849079,
            41.9299225
          ],
          [
            -73.384792,
            41.9298844
          ],
          [
            -73.3846761,
            41.9298463
          ],
          [
            -73.3845444,
            41.9298016
          ],
          [
            -73.3844126,
            41.929757
          ],
          [
            -73.3842814,
            41.9297115
          ],
          [
            -73.3841607,
            41.9296704
          ],
          [
            -73.38404,
            41.9296294
          ],
          [
            -73.3840182,
            41.9296217
          ],
          [
            -73.3839971,
            41.929613
          ],
          [
            -73.3839167,
            41.9295732
          ],
          [
            -73.3838958,
            41.9295642
          ],
          [
            -73.3838635,
            41.929552
          ],
          [
            -73.3837759,
            41.9295219
          ],
          [
            -73.3836673,
            41.9294827
          ],
          [
            -73.3835236,
            41.929436
          ],
          [
            -73.3834475,
            41.9294088
          ],
          [
            -73.3832609,
            41.9293454
          ],
          [
            -73.3832499,
            41.9293418
          ],
          [
            -73.3832378,
            41.9293417
          ],
          [
            -73.3831117,
            41.9293111
          ],
          [
            -73.3830997,
            41.9293111
          ],
          [
            -73.3830886,
            41.9293076
          ],
          [
            -73.3828863,
            41.9292395
          ],
          [
            -73.3826841,
            41.9291714
          ],
          [
            -73.3824818,
            41.9291034
          ],
          [
            -73.3822795,
            41.9290353
          ],
          [
            -73.3820773,
            41.9289672
          ],
          [
            -73.381879,
            41.9289013
          ],
          [
            -73.3817034,
            41.9288416
          ],
          [
            -73.381553,
            41.9287914
          ],
          [
            -73.3814025,
            41.9287412
          ],
          [
            -73.3812521,
            41.928691
          ],
          [
            -73.3811646,
            41.9286607
          ],
          [
            -73.3810546,
            41.9286237
          ],
          [
            -73.3809447,
            41.9285868
          ],
          [
            -73.3808673,
            41.9285616
          ],
          [
            -73.3806887,
            41.9285004
          ]
        ]
      }
    },
    {
      "type": "Feature",
      "properties": {
        "role": "start_finish",
        "name": "Start / Finish",
        "marker": 0.0
      },
      "geometry": {
        "type": "Point",
        "coordinates": [
          -73.380692,
          41.9285015
        ]
      }
    },
    {
      "type": "Feature",
      "properties": {
        "role": "pit_entry",
        "name": "Pit Entry",
        "marker": 0.89989
      },
      "geometry": {
        "type": "Point",
        "coordinates": [
          -73.3833048,
          41.9293603
        ]
      }
    },
    {
      "type": "Feature",
      "properties": {
        "role": "pit_exit",
        "name": "Pit Exit",
        "marker": 0.04604
      },
      "geometry": {
        "type": "Point",
        "coordinates": [
          -73.3794986,
          41.9280927
        ]
      }
    },
    {
      "type": "Feature",
      "properties": {
        "role": "corner",
        "id": "t1",
        "number": 1,
        "code": "1",
        "display": "Big Bend",
        "labels": {
          "numbered": "Turn 1",
          "driver": "Big Bend",
          "official": "Big Bend"
        },
        "direction": "right",
        "scale": 3,
        "marker": 0.18102
      },
      "geometry": {
        "type": "Point",
        "coordinates": [
          -73.3790461,
          41.9263824
        ]
      }
    },
    {
      "type": "Feature",
      "properties": {
        "role": "corner",
        "id": "t2",
        "number": 2,
        "code": "2",
        "display": "The Left-Hander",
        "labels": {
          "numbered": "Turn 2",
          "driver": "The Left-Hander",
          "official": "Left Hander"
        },
        "direction": "left",
        "scale": 3,
        "marker": 0.27561
      },
      "geometry": {
        "type": "Point",
        "coordinates": [
          -73.3814259,
          41.9267659
        ]
      }
    },
    {
      "type": "Feature",
      "properties": {
        "role": "corner",
        "id": "t3",
        "number": 3,
        "code": "3",
        "display": "The Uphill",
        "labels": {
          "numbered": "Turn 3",
          "driver": "The Uphill",
          "official": "Uphill"
        },
        "direction": "right",
        "scale": 4,
        "marker": 0.52728
      },
      "geometry": {
        "type": "Point",
        "coordinates": [
          -73.3867955,
          41.9255162
        ]
      }
    },
    {
      "type": "Feature",
      "properties": {
        "role": "corner",
        "id": "t4",
        "number": 4,
        "code": "4",
        "display": "West Bend",
        "labels": {
          "numbered": "Turn 4",
          "driver": "West Bend",
          "official": "West Bend"
        },
        "direction": "right",
        "scale": 4,
        "marker": 0.65269
      },
      "geometry": {
        "type": "Point",
        "coordinates": [
          -73.3886274,
          41.9277841
        ]
      }
    },
    {
      "type": "Feature",
      "properties": {
        "role": "corner",
        "id": "t5",
        "number": 5,
        "code": "5",
        "display": "The Downhill",
        "labels": {
          "numbered": "Turn 5",
          "driver": "The Downhill",
          "official": "Diving Turn"
        },
        "direction": "right",
        "scale": 5,
        "marker": 0.79077
      },
      "geometry": {
        "type": "Point",
        "coordinates": [
          -73.3862028,
          41.9299844
        ]
      }
    }
  ]
}