{"type":"FeatureCollection","features":[{"type":"Feature","properties":{"role":"edge_left","orientation":"driving direction, from the lap origin","unseen_spans":[[0.08093,0.08304],[0.38443,0.39414],[0.46759,0.47054],[0.47519,0.47983],[0.4811,0.48954],[0.48996,0.49798],[0.49882,0.50178],[0.57861,0.58198],[0.65923,0.66472],[0.69089,0.69342],[0.72972,0.73437]],"quality":{"source":"ct-2023","accuracy_m":0.35,"relative_accuracy_m":0.13,"measured":true,"date":"2023-04-13","measured_fraction":0.933}},"geometry":{"type":"LineString","coordinates":[[-73.3806594,41.9285547],[-73.3804514,41.9284848],[-73.380375,41.9284573],[-73.380276,41.928424],[-73.3800776,41.928358],[-73.3799995,41.9283335],[-73.3797556,41.928251],[-73.3796923,41.9282287],[-73.379637,41.9282117],[-73.3795689,41.9281892],[-73.3795152,41.9281704],[-73.3794718,41.9281564],[-73.3794015,41.9281314],[-73.3793487,41.9281145],[-73.3792583,41.9280842],[-73.3791443,41.9280476],[-73.3789248,41.9279728],[-73.378507,41.9278324],[-73.3784296,41.9278057],[-73.3783483,41.9277765],[-73.3783132,41.9277611],[-73.3782912,41.9277492],[-73.378249,41.9277242],[-73.3781987,41.9276912],[-73.3781694,41.9276703],[-73.3781509,41.9276558],[-73.3781256,41.9276332],[-73.378102,41.9276102],[-73.3780795,41.9275866],[-73.3780512,41.9275545],[-73.3780246,41.9275217],[-73.3780062,41.9274963],[-73.3779633,41.9274264],[-73.3779397,41.9273822],[-73.3779265,41.9273548],[-73.3779156,41.9273265],[-73.3778974,41.9272683],[-73.3778919,41.9272483],[-73.3778881,41.9272282],[-73.377884,41.9271892],[-73.377886,41.9271798],[-73.3778866,41.9271254],[-73.3778785,41.9271163],[-73.3778971,41.9270289],[-73.3779021,41.9270092],[-73.3779085,41.92699],[-73.377936,41.9269167],[-73.3779473,41.9268895],[-73.37796,41.9268625],[-73.377974,41.9268359],[-73.3779893,41.9268096],[-73.3780234,41.9267589],[-73.3780412,41.9267343],[-73.3780919,41.9266706],[-73.3781191,41.9266392],[-73.3781409,41.926616],[-73.3781643,41.9265937],[-73.3782528,41.9265145],[-73.3782787,41.9264932],[-73.3783342,41.9264528],[-73.3783846,41.9264215],[-73.3784174,41.9264042],[-73.3784516,41.9263881],[-73.3784748,41.9263782],[-73.3785215,41.9263609],[-73.3785452,41.9263537],[-73.3785693,41.9263474],[-73.3786442,41.9263316],[-73.3787095,41.9263222],[-73.3787491,41.9263184],[-73.3787757,41.9263174],[-73.3788285,41.9263167],[-73.3788676,41.9263174],[-73.3788933,41.9263186],[-73.3789564,41.926324],[-73.3790082,41.9263267],[-73.3790344,41.9263307],[-73.3790735,41.9263397],[-73.3790993,41.9263463],[-73.379124,41.9263539],[-73.37918,41.926377],[-73.3792579,41.9264044],[-73.3793152,41.9264236],[-73.3793474,41.9264381],[-73.3794469,41.9264903],[-73.3795397,41.9265331],[-73.3797024,41.9266105],[-73.3798312,41.9266775],[-73.3798512,41.9266867],[-73.3799139,41.926713],[-73.3800782,41.9267876],[-73.3801816,41.9268317],[-73.3802761,41.9268698],[-73.380414,41.9269196],[-73.3804454,41.9269297],[-73.3804772,41.9269386],[-73.3805094,41.9269465],[-73.3805635,41.9269569],[-73.380585,41.9269602],[-73.3806174,41.9269634],[-73.3806498,41.926966],[-73.3806822,41.9269668],[-73.3807367,41.9269654],[-73.3807697,41.9269638],[-73.3808031,41.9269611],[-73.3808366,41.9269574],[-73.3808919,41.9269493],[-73.3809899,41.9269292],[-73.3810649,41.9269102],[-73.3810963,41.9269006],[-73.3811472,41.9268837],[-73.3811759,41.9268715],[-73.3811848,41.9268666],[-73.3812187,41.9268447],[-73.3812798,41.9268078],[-73.3813043,41.9267912],[-73.3813275,41.9267739],[-73.381349,41.926756],[-73.3813622,41.9267439],[-73.3813744,41.9267313],[-73.3813854,41.9267181],[-73.3814225,41.9266617],[-73.3814299,41.9266468],[-73.3814362,41.9266315],[-73.3814639,41.9265596],[-73.3814705,41.9265353],[-73.3814759,41.9264768],[-73.3814802,41.9263985],[-73.3814786,41.9263541],[-73.3814792,41.9263104],[-73.3814748,41.9262222],[-73.3814672,41.9261516],[-73.3814643,41.9261153],[-73.381457,41.9260602],[-73.3814534,41.9259778],[-73.3814527,41.9259495],[-73.3814533,41.925901],[-73.3814555,41.9258716],[-73.3814597,41.9258425],[-73.3814658,41.9258138],[-73.3814751,41.9257852],[-73.3814831,41.9257661],[-73.3814923,41.9257471],[-73.3815082,41.9257193],[-73.3815393,41.9256764],[-73.38158,41.9256269],[-73.3815951,41.9256104],[-73.3816207,41.925587],[-73.381649,41.9255657],[-73.3816884,41.9255401],[-73.381759,41.9254988],[-73.381811,41.9254715],[-73.3818538,41.9254512],[-73.3819083,41.9254278],[-73.3820187,41.9253843],[-73.382064,41.9253688],[-73.382143,41.9253443],[-73.3822889,41.9253006],[-73.3824688,41.9252476],[-73.3825261,41.9252318],[-73.3826534,41.9252005],[-73.3827346,41.9251823],[-73.3827931,41.9251709],[-73.3828032,41.9251651],[-73.3828381,41.9251567],[-73.3828502,41.9251551],[-73.3829795,41.9251233],[-73.3830035,41.9251183],[-73.3830161,41.9251179],[-73.3830751,41.925106],[-73.3831096,41.9250977],[-73.3831682,41.9250819],[-73.3831931,41.9250763],[-73.383219,41.9250719],[-73.3832457,41.9250687],[-73.3832857,41.925066],[-73.3833736,41.9250635],[-73.3834097,41.9250632],[-73.3834954,41.9250663],[-73.3835843,41.9250733],[-73.3836957,41.9250854],[-73.3839807,41.9251264],[-73.3840872,41.9251409],[-73.3841228,41.925145],[-73.384323,41.9251662],[-73.3845004,41.9251769],[-73.3845478,41.9251783],[-73.3847379,41.925175],[-73.3848808,41.9251698],[-73.3850477,41.9251599],[-73.3853109,41.9251409],[-73.3855256,41.9251227],[-73.3855374,41.9251209],[-73.3857284,41.9250998],[-73.3857403,41.9250977],[-73.3857526,41.9250975],[-73.3859563,41.9250813],[-73.3860033,41.925075],[-73.386076,41.9250612],[-73.3861023,41.9250569],[-73.3861302,41.925054],[-73.3861448,41.9250532],[-73.3861751,41.9250533],[-73.3861907,41.9250544],[-73.3862224,41.9250589],[-73.3862539,41.9250666],[-73.3862694,41.9250718],[-73.3862844,41.9250778],[-73.386299,41.9250847],[-73.3863128,41.9250923],[-73.3863259,41.9251006],[-73.3863491,41.9251188],[-73.3863593,41.9251284],[-73.386377,41.9251485],[-73.386388,41.9251575],[-73.386402,41.9251785],[-73.3864123,41.9252001],[-73.3864157,41.925211],[-73.3864181,41.9252218],[-73.3864238,41.9252619],[-73.3864382,41.9253251],[-73.3864458,41.9253416],[-73.386456,41.9253536],[-73.3864697,41.9253634],[-73.3864824,41.9253692],[-73.38649,41.9253717],[-73.386548,41.9253858],[-73.3865909,41.9253989],[-73.3866129,41.9254049],[-73.3867522,41.9254387],[-73.3867785,41.9254458],[-73.3868056,41.9254542],[-73.3868328,41.9254648],[-73.3868594,41.9254774],[-73.3868841,41.9254922],[-73.3869061,41.9255087],[-73.3869159,41.9255173],[-73.3869335,41.925535],[-73.386955,41.9255617],[-73.3869847,41.9256053],[-73.3870266,41.925672],[-73.3870612,41.9257187],[-73.3870974,41.9257757],[-73.387169,41.925879],[-73.3872142,41.9259407],[-73.3872388,41.9259699],[-73.3872615,41.9259986],[-73.3872737,41.9260123],[-73.3872876,41.9260253],[-73.3873282,41.9260564],[-73.3873432,41.9260702],[-73.3873564,41.9260852],[-73.3873738,41.9261083],[-73.3873873,41.926122],[-73.387575,41.9262709],[-73.3876543,41.9263353],[-73.387679,41.9263526],[-73.3876891,41.9263571],[-73.3877549,41.9263981],[-73.3877837,41.926417],[-73.3878204,41.9264443],[-73.3878465,41.9264669],[-73.3878614,41.9264712],[-73.3878888,41.9265075],[-73.3880055,41.9266816],[-73.3880559,41.9267541],[-73.3881021,41.9268176],[-73.3882854,41.9270919],[-73.3883252,41.927148],[-73.388367,41.9272125],[-73.3883966,41.9272614],[-73.3885244,41.9274564],[-73.3885551,41.9275056],[-73.3886185,41.9276155],[-73.388651,41.9276851],[-73.3886936,41.9277646],[-73.388708,41.9277941],[-73.3887169,41.9278144],[-73.3887101,41.9278255],[-73.3887129,41.9278458],[-73.3887146,41.9278758],[-73.3887134,41.9279056],[-73.388711,41.9279253],[-73.3887029,41.9279637],[-73.388684,41.9280368],[-73.3886677,41.9280924],[-73.3886541,41.9281295],[-73.3886344,41.9281746],[-73.3886077,41.9282273],[-73.3885822,41.9282712],[-73.3885588,41.9283059],[-73.3885072,41.9283721],[-73.3884866,41.928396],[-73.3884645,41.9284187],[-73.3883885,41.9284906],[-73.3883539,41.9285191],[-73.3883179,41.9285452],[-73.3883118,41.9285534],[-73.3882016,41.9286388],[-73.3881695,41.9286654],[-73.3881285,41.9286969],[-73.3880644,41.9287508],[-73.3880131,41.928789],[-73.3878546,41.9289131],[-73.3877949,41.928957],[-73.387688,41.9290417],[-73.3876397,41.9290815],[-73.3875533,41.9291462],[-73.3875455,41.9291532],[-73.3874593,41.9292161],[-73.3874501,41.9292218],[-73.3872447,41.929386],[-73.3871694,41.9294452],[-73.3871369,41.9294722],[-73.3871117,41.9294919],[-73.3870088,41.9295686],[-73.3869121,41.929638],[-73.386869,41.92967],[-73.3868133,41.9297053],[-73.3867309,41.9297592],[-73.3866365,41.9298175],[-73.3865874,41.9298443],[-73.3864895,41.9298997],[-73.3863669,41.9299625],[-73.3863145,41.9299866],[-73.3862731,41.9300089],[-73.3862509,41.9300194],[-73.3862148,41.9300322],[-73.3861544,41.9300495],[-73.3861078,41.9300643],[-73.3860839,41.9300711],[-73.3860591,41.9300761],[-73.385985,41.9300877],[-73.385924,41.9300981],[-73.3858745,41.9301044],[-73.3858119,41.9301087],[-73.3857364,41.9301154],[-73.3856855,41.930117],[-73.3856103,41.9301153],[-73.3855353,41.9301161],[-73.38551,41.9301147],[-73.3854347,41.930107],[-73.3853319,41.9300934],[-73.3852818,41.9300841],[-73.3851148,41.9300478],[-73.3850442,41.93003],[-73.3849516,41.9300042],[-73.3846852,41.9299178],[-73.3843874,41.9298176],[-73.3842346,41.9297648],[-73.3841588,41.9297367],[-73.3839547,41.9296665],[-73.3838872,41.9296421],[-73.3837429,41.9295941],[-73.3837212,41.9295859],[-73.383679,41.929568],[-73.3836577,41.92956],[-73.3836033,41.9295428],[-73.383516,41.9295136],[-73.3832757,41.9294323],[-73.3831969,41.9294049],[-73.3830845,41.9293681],[-73.3830139,41.9293438],[-73.3820129,41.9290074],[-73.3819142,41.9289746],[-73.3818582,41.928957],[-73.3817814,41.9289299],[-73.3816282,41.928878],[-73.3811437,41.9287158],[-73.3810661,41.9286916],[-73.3809129,41.9286403],[-73.3808473,41.9286165],[-73.3808031,41.9286013],[-73.3807363,41.9285806],[-73.3806594,41.9285547]]}},{"type":"Feature","properties":{"role":"edge_right","orientation":"driving direction, from the lap origin","unseen_spans":[[0.04167,0.04462],[0.08093,0.08304],[0.57861,0.58874],[0.59211,0.59633],[0.72972,0.73479],[0.73985,0.74408]],"quality":{"source":"ct-2023","accuracy_m":0.35,"relative_accuracy_m":0.13,"measured":true,"date":"2023-04-13","measured_fraction":0.965}},"geometry":{"type":"LineString","coordinates":[[-73.3807231,41.9284502],[-73.3802606,41.9282954],[-73.3801843,41.9282681],[-73.3801086,41.9282423],[-73.3800302,41.9282178],[-73.3798994,41.9281738],[-73.3798346,41.9281529],[-73.3798261,41.9281456],[-73.3797826,41.9281288],[-73.379774,41.9281205],[-73.3797513,41.9281126],[-73.3797287,41.9281057],[-73.3797061,41.9281005],[-73.3796722,41.928094],[-73.3796653,41.9280849],[-73.3795698,41.9280455],[-73.3795369,41.928033],[-73.3795021,41.9280213],[-73.3794934,41.9280117],[-73.3793494,41.9279834],[-73.3792721,41.9279633],[-73.3792288,41.92795],[-73.3791968,41.9279391],[-73.3791433,41.9279188],[-73.3791104,41.9279072],[-73.3785718,41.9277259],[-73.3784751,41.9276922],[-73.378416,41.9276706],[-73.3783976,41.9276629],[-73.3783714,41.9276498],[-73.3783377,41.9276301],[-73.3783137,41.9276141],[-73.3782985,41.927603],[-73.3782843,41.9275913],[-73.3782708,41.9275787],[-73.3782372,41.927546],[-73.378211,41.9275189],[-73.3781863,41.9274909],[-73.3781629,41.927462],[-73.3781312,41.9274179],[-73.3780877,41.927349],[-73.3780755,41.9273256],[-73.3780572,41.9272869],[-73.3780509,41.9272714],[-73.3780439,41.9272481],[-73.3780397,41.9272248],[-73.3780397,41.9271841],[-73.3780367,41.927149],[-73.3780337,41.9270967],[-73.3780305,41.9270802],[-73.3780242,41.9270557],[-73.3780234,41.9270477],[-73.3780245,41.9270318],[-73.3780297,41.9270078],[-73.3780432,41.926958],[-73.3780489,41.9269414],[-73.3780589,41.926917],[-73.3780702,41.926893],[-73.378087,41.9268616],[-73.3781059,41.9268307],[-73.378122,41.926808],[-73.3782234,41.9266812],[-73.3782499,41.9266532],[-73.3783133,41.9265913],[-73.378336,41.9265721],[-73.3783599,41.9265541],[-73.3784304,41.9265128],[-73.3784568,41.9264982],[-73.3784843,41.9264856],[-73.3785131,41.9264752],[-73.3786387,41.9264403],[-73.3786799,41.9264279],[-73.3787006,41.9264228],[-73.3787427,41.9264162],[-73.378807,41.9264103],[-73.3788399,41.9264091],[-73.3788957,41.9264112],[-73.3789412,41.9264148],[-73.3789746,41.9264184],[-73.3790065,41.926423],[-73.3790369,41.926429],[-73.3790567,41.926434],[-73.3790868,41.9264429],[-73.3791282,41.9264573],[-73.3791706,41.926473],[-73.3793438,41.9265464],[-73.3794773,41.9266072],[-73.379529,41.9266297],[-73.3796719,41.9266969],[-73.3797229,41.9267197],[-73.3797955,41.9267539],[-73.3799604,41.9268291],[-73.380032,41.9268637],[-73.3800637,41.9268777],[-73.3800957,41.926891],[-73.380139,41.9269075],[-73.3802129,41.9269393],[-73.3803539,41.9269953],[-73.3804003,41.9270109],[-73.3804839,41.9270351],[-73.3805084,41.9270413],[-73.3805588,41.9270518],[-73.3805845,41.9270564],[-73.3806106,41.9270599],[-73.3806633,41.9270648],[-73.3806898,41.9270665],[-73.3807295,41.9270669],[-73.3807687,41.9270654],[-73.3808714,41.9270575],[-73.3808968,41.9270544],[-73.3809345,41.9270482],[-73.3809592,41.9270429],[-73.3810203,41.9270282],[-73.3810443,41.9270215],[-73.3811153,41.9269998],[-73.3811501,41.9269875],[-73.3812304,41.9269555],[-73.3812533,41.9269459],[-73.3812753,41.9269355],[-73.381318,41.9269139],[-73.3813489,41.9268967],[-73.3813785,41.9268778],[-73.3814072,41.9268578],[-73.3814447,41.9268296],[-73.381463,41.9268147],[-73.3814885,41.9267906],[-73.381512,41.9267653],[-73.381526,41.9267478],[-73.3815378,41.9267295],[-73.381553,41.9267013],[-73.3815668,41.9266729],[-73.3815784,41.9266446],[-73.3815849,41.9266258],[-73.3815922,41.9265975],[-73.3815976,41.9265686],[-73.3816045,41.9265202],[-73.3816084,41.9264822],[-73.3816102,41.9264446],[-73.3816108,41.9263895],[-73.3816092,41.9263159],[-73.3815994,41.9262242],[-73.3815749,41.9260721],[-73.3815656,41.9259753],[-73.3815643,41.9259411],[-73.381566,41.925908],[-73.3815696,41.9258918],[-73.3815857,41.9258519],[-73.3816048,41.9257965],[-73.3816146,41.925774],[-73.3816286,41.9257525],[-73.3816893,41.9256732],[-73.3816952,41.9256665],[-73.3817086,41.9256542],[-73.3817459,41.9256251],[-73.3818033,41.9255853],[-73.3818295,41.9255691],[-73.3818665,41.9255493],[-73.3818953,41.9255353],[-73.3819248,41.9255223],[-73.3820282,41.9254826],[-73.3820806,41.9254643],[-73.3821464,41.9254454],[-73.3823245,41.9253918],[-73.3825589,41.9253228],[-73.3826136,41.925306],[-73.3826812,41.9252878],[-73.3827932,41.9252552],[-73.3828717,41.9252337],[-73.3829512,41.9252172],[-73.3830082,41.9252078],[-73.3831251,41.9251927],[-73.3832177,41.9251832],[-73.3832394,41.9251822],[-73.3832821,41.9251821],[-73.3833737,41.9251843],[-73.3834578,41.9251844],[-73.3834813,41.9251836],[-73.3835387,41.9251787],[-73.3835726,41.9251787],[-73.3837002,41.9251882],[-73.3839752,41.9252131],[-73.3840351,41.9252193],[-73.3840952,41.9252241],[-73.3842155,41.925236],[-73.3843622,41.9252457],[-73.3844477,41.92525],[-73.3845336,41.9252524],[-73.3846314,41.9252531],[-73.3847292,41.9252518],[-73.3848266,41.9252488],[-73.3849238,41.9252443],[-73.3850328,41.9252378],[-73.3852013,41.9252261],[-73.3853337,41.9252161],[-73.3855382,41.925199],[-73.3855985,41.9251951],[-73.3857298,41.9251828],[-73.3858489,41.9251748],[-73.3859694,41.9251654],[-73.386006,41.9251633],[-73.3860541,41.9251617],[-73.3861488,41.9251623],[-73.3861659,41.9251638],[-73.3861891,41.9251673],[-73.386203,41.9251708],[-73.3862155,41.9251758],[-73.3862263,41.9251825],[-73.3862354,41.9251911],[-73.386246,41.9252071],[-73.3862581,41.9252308],[-73.3862654,41.9252507],[-73.3862806,41.9253286],[-73.3862858,41.9253496],[-73.3862929,41.925372],[-73.3863036,41.9253957],[-73.3863112,41.9254075],[-73.3863206,41.9254188],[-73.3863317,41.9254295],[-73.3863439,41.9254395],[-73.3863703,41.925457],[-73.3863842,41.9254644],[-73.3863982,41.9254709],[-73.3864137,41.9254744],[-73.3864262,41.925481],[-73.3864656,41.9254926],[-73.3865384,41.92551],[-73.3865852,41.9255226],[-73.3866883,41.9255443],[-73.3867081,41.9255493],[-73.3867344,41.9255578],[-73.3867572,41.9255666],[-73.3867709,41.9255737],[-73.3867829,41.9255825],[-73.3867985,41.9255991],[-73.3868427,41.9256525],[-73.3868596,41.9256746],[-73.3868915,41.9257223],[-73.3869229,41.9257716],[-73.3869629,41.9258271],[-73.3870126,41.9258996],[-73.3870703,41.9259801],[-73.3871101,41.9260389],[-73.3871377,41.9260719],[-73.3871675,41.9261038],[-73.3871983,41.9261331],[-73.3872719,41.9261956],[-73.3875322,41.9264011],[-73.3875775,41.9264349],[-73.3876315,41.9264709],[-73.3876802,41.9265068],[-73.3877237,41.9265432],[-73.3877424,41.9265611],[-73.3877542,41.9265737],[-73.3877601,41.9265803],[-73.3877639,41.9265881],[-73.3877833,41.9266094],[-73.3878068,41.9266401],[-73.3878152,41.9266466],[-73.3878763,41.9267225],[-73.3878993,41.9267537],[-73.3879269,41.9267933],[-73.3879755,41.9268653],[-73.3880111,41.9269224],[-73.3881609,41.9271478],[-73.3884094,41.9275269],[-73.3884371,41.9275668],[-73.3884632,41.9276069],[-73.3884948,41.9276532],[-73.388504,41.927669],[-73.3885173,41.9277028],[-73.3885386,41.9277445],[-73.3885497,41.9277687],[-73.3885576,41.9277921],[-73.3885623,41.9278145],[-73.3885689,41.9278757],[-73.3885694,41.9278917],[-73.3885685,41.9279079],[-73.3885562,41.9279922],[-73.3885458,41.9280439],[-73.3885389,41.9280687],[-73.3885271,41.9281011],[-73.3885093,41.9281418],[-73.3884891,41.9281822],[-73.3884714,41.9282137],[-73.3884563,41.9282362],[-73.3884341,41.928265],[-73.3884225,41.9282792],[-73.3883972,41.9283074],[-73.3883573,41.9283492],[-73.3883133,41.9283914],[-73.3882894,41.928422],[-73.3882766,41.9284359],[-73.3882069,41.9284933],[-73.3881681,41.928527],[-73.3881268,41.9285586],[-73.3880902,41.928582],[-73.3880725,41.9285946],[-73.3880232,41.9286358],[-73.3879741,41.9286753],[-73.3877758,41.9288316],[-73.3877191,41.928879],[-73.3875706,41.9289985],[-73.3875548,41.9290122],[-73.3875184,41.9290474],[-73.3875026,41.9290606],[-73.3874698,41.9290864],[-73.3874607,41.9290923],[-73.3873709,41.9291654],[-73.3873632,41.9291725],[-73.3871895,41.9293106],[-73.3871656,41.9293306],[-73.3871243,41.9293627],[-73.387081,41.9293937],[-73.3869626,41.9294824],[-73.3868944,41.9295324],[-73.3868163,41.9295874],[-73.3867012,41.9296653],[-73.3866579,41.929696],[-73.3865946,41.929736],[-73.3865013,41.9297915],[-73.3864449,41.9298237],[-73.3863877,41.9298539],[-73.386368,41.9298633],[-73.3862366,41.9299213],[-73.3862068,41.9299331],[-73.3861766,41.9299424],[-73.386145,41.9299492],[-73.3861002,41.9299562],[-73.3860344,41.9299703],[-73.3859789,41.9299804],[-73.3859332,41.9299869],[-73.3858188,41.9299998],[-73.3857273,41.9300056],[-73.3856705,41.9300069],[-73.3856008,41.9300049],[-73.3855313,41.9300048],[-73.3854741,41.9300021],[-73.3854288,41.9300009],[-73.3854177,41.93],[-73.3853855,41.9299949],[-73.3853318,41.9299845],[-73.3852438,41.9299619],[-73.385189,41.9299459],[-73.3851136,41.9299222],[-73.3848292,41.9298298],[-73.3847529,41.9298038],[-73.3846989,41.9297844],[-73.3845782,41.9297437],[-73.3844795,41.9297106],[-73.3844025,41.9296862],[-73.38415,41.9295999],[-73.3840753,41.9295758],[-73.384056,41.9295679],[-73.3840383,41.9295581],[-73.3839853,41.9295227],[-73.3839652,41.9295103],[-73.3839433,41.9294989],[-73.3839202,41.9294888],[-73.3838069,41.9294503],[-73.3837514,41.9294327],[-73.3835415,41.9293618],[-73.3834095,41.9293167],[-73.3833539,41.9292965],[-73.3832943,41.929276],[-73.3832789,41.9292787],[-73.383241,41.9292718],[-73.3831812,41.929263],[-73.3831681,41.9292659],[-73.3831568,41.9292648],[-73.3831354,41.9292607],[-73.3831152,41.9292547],[-73.3823605,41.9290007],[-73.3819096,41.9288499],[-73.3816125,41.9287495],[-73.3815259,41.9287185],[-73.3810867,41.9285702],[-73.3808231,41.9284819],[-73.3807562,41.9284612],[-73.3807231,41.9284502]]}},{"type":"Feature","properties":{"role":"midline","derived_from":["edge_left","edge_right"],"quality":{"source":"derived","accuracy_m":0.35,"relative_accuracy_m":0.13,"measured":true,"date":"2023-04-13"}},"geometry":{"type":"LineString","coordinates":[[-73.3806913,41.9285025],[-73.3804714,41.9284287],[-73.3801313,41.928313],[-73.3800096,41.9282738],[-73.3798006,41.9282038],[-73.3797909,41.9281983],[-73.3797478,41.9281823],[-73.3797384,41.9281763],[-73.3797275,41.9281725],[-73.3796942,41.9281622],[-73.3796374,41.9281471],[-73.3796283,41.9281407],[-73.3795533,41.9281122],[-73.3794665,41.9280816],[-73.3794573,41.9280751],[-73.3793322,41.9280427],[-73.3792089,41.9280062],[-73.3791649,41.9279914],[-73.3791106,41.9279718],[-73.3790449,41.9279493],[-73.3785394,41.9277791],[-73.3784738,41.9277565],[-73.3783977,41.9277293],[-73.3783657,41.9277167],[-73.3783454,41.927707],[-73.3783259,41.9276964],[-73.378279,41.9276681],[-73.3782523,41.9276499],[-73.3782268,41.9276308],[-73.3782109,41.9276173],[-73.3781808,41.9275891],[-73.3781522,41.9275601],[-73.3781318,41.9275378],[-73.378106,41.9275074],[-73.3780878,41.927484],[-73.378071,41.9274601],[-73.3780401,41.9274113],[-73.3780207,41.9273784],[-73.3780073,41.9273533],[-73.3779954,41.9273278],[-73.3779849,41.9273019],[-73.3779759,41.9272758],[-73.3779683,41.9272494],[-73.3779648,41.9272316],[-73.3779631,41.9272136],[-73.3779609,41.9271239],[-73.3779567,41.927115],[-73.3779588,41.9270882],[-73.3779586,41.9270523],[-73.377962,41.9270254],[-73.3779691,41.9269989],[-73.3779862,41.9269465],[-73.3779959,41.9269204],[-73.378007,41.9268947],[-73.3780238,41.926861],[-73.3780378,41.9268361],[-73.3780532,41.9268116],[-73.3780756,41.9267797],[-73.378124,41.9267175],[-73.3781748,41.9266563],[-73.3782031,41.9266271],[-73.3782633,41.9265708],[-73.3783025,41.9265366],[-73.3783281,41.9265175],[-73.3783828,41.9264822],[-73.3784111,41.9264653],[-73.3784305,41.9264546],[-73.3784508,41.9264449],[-73.3784824,41.9264317],[-73.3785261,41.9264166],[-73.3785821,41.9263998],[-73.3786505,41.9263825],[-73.3786736,41.9263773],[-73.3787208,41.9263699],[-73.3787686,41.9263654],[-73.3788287,41.926363],[-73.3788528,41.9263631],[-73.3788889,41.9263646],[-73.3789968,41.9263733],[-73.3790321,41.9263791],[-73.3790666,41.9263872],[-73.3790893,41.9263933],[-73.3791112,41.9264007],[-73.3792728,41.9264612],[-73.3793043,41.9264744],[-73.3794161,41.9265278],[-73.3795701,41.9265984],[-73.379672,41.9266466],[-73.3798131,41.9267156],[-73.3798961,41.9267523],[-73.380081,41.926837],[-73.3802286,41.9268982],[-73.380368,41.9269517],[-73.3804229,41.9269703],[-73.3804793,41.9269862],[-73.3805136,41.9269946],[-73.3805602,41.927004],[-73.3805837,41.9270078],[-73.3806194,41.9270121],[-73.3806553,41.9270151],[-73.3806914,41.9270166],[-73.3807276,41.9270163],[-73.3807637,41.9270149],[-73.3808117,41.9270114],[-73.3808596,41.9270068],[-73.3808952,41.9270019],[-73.3809187,41.9269977],[-73.3810111,41.9269771],[-73.3811012,41.9269515],[-73.3811772,41.9269242],[-73.3811985,41.9269157],[-73.3812191,41.9269063],[-73.3813058,41.9268576],[-73.3813333,41.9268401],[-73.3813683,41.9268153],[-73.3814094,41.9267824],[-73.3814243,41.9267682],[-73.3814449,41.926746],[-73.3814572,41.9267305],[-73.3814734,41.9267063],[-73.3814878,41.9266815],[-73.3814999,41.926656],[-73.3815103,41.9266302],[-73.3815195,41.9266041],[-73.3815276,41.9265777],[-73.381534,41.9265512],[-73.3815379,41.9265243],[-73.3815421,41.9264795],[-73.3815455,41.9263985],[-73.3815438,41.9263085],[-73.3815365,41.9262187],[-73.3815227,41.9261111],[-73.3815159,41.9260664],[-73.3815143,41.9260484],[-73.3815087,41.9259585],[-73.3815088,41.9259225],[-73.3815106,41.9258955],[-73.3815164,41.9258689],[-73.3815312,41.925816],[-73.3815439,41.9257813],[-73.381556,41.9257558],[-73.3815658,41.9257394],[-73.3815833,41.9257158],[-73.3816319,41.9256536],[-73.3816452,41.9256385],[-73.3816602,41.9256244],[-73.3816936,41.9255983],[-73.3817292,41.9255741],[-73.3817847,41.9255394],[-73.3818335,41.925513],[-73.381874,41.9254934],[-73.3819053,41.9254799],[-73.3820227,41.925434],[-73.3820663,41.9254186],[-73.3822899,41.9253512],[-73.3825254,41.925282],[-73.3825819,41.9252664],[-73.3826729,41.9252426],[-73.3827527,41.9252221],[-73.3828101,41.9252084],[-73.3828207,41.925204],[-73.3828434,41.925198],[-73.3829474,41.9251751],[-73.3829938,41.9251656],[-73.3830173,41.9251614],[-73.3830294,41.9251605],[-73.3830882,41.9251508],[-73.3831936,41.9251316],[-73.3832292,41.9251271],[-73.3832653,41.9251248],[-73.3833134,41.925124],[-73.3835303,41.9251243],[-73.3835785,41.925126],[-73.3836981,41.9251371],[-73.3840553,41.925179],[-73.3842105,41.9251951],[-73.3843063,41.9252035],[-73.3843663,41.9252075],[-73.3844986,41.9252142],[-73.3845588,41.9252155],[-73.3847035,41.9252141],[-73.3848119,41.925211],[-73.3849322,41.9252055],[-73.3850763,41.9251964],[-73.3852803,41.9251818],[-73.385472,41.9251661],[-73.3855917,41.9251555],[-73.385747,41.9251395],[-73.3859389,41.9251254],[-73.3860943,41.9251105],[-73.3861302,41.9251079],[-73.3861663,41.9251081],[-73.3861902,41.9251105],[-73.386202,41.9251124],[-73.3862251,41.9251178],[-73.3862362,41.9251213],[-73.3862572,41.9251302],[-73.3862761,41.9251415],[-73.3862923,41.9251549],[-73.3863185,41.9251852],[-73.3863286,41.9252016],[-73.3863366,41.9252186],[-73.3863396,41.9252273],[-73.3863476,41.925272],[-73.3863569,41.9253164],[-73.3863636,41.9253429],[-73.3863703,41.9253602],[-73.3863747,41.9253686],[-73.3863801,41.9253767],[-73.3863938,41.9253915],[-73.3864107,41.9254045],[-73.3864299,41.9254154],[-73.3864403,41.92542],[-73.3864519,41.9254231],[-73.3864623,41.9254275],[-73.3866101,41.9254664],[-73.3867139,41.9254899],[-73.3867479,41.9254989],[-73.3867808,41.9255099],[-73.3868017,41.9255188],[-73.3868215,41.9255291],[-73.3868392,41.9255414],[-73.3868547,41.9255552],[-73.3868685,41.9255701],[-73.3868872,41.9255932],[-73.3869109,41.9256246],[-73.3869222,41.9256405],[-73.3869699,41.9257132],[-73.3870853,41.9258814],[-73.3871654,41.9259923],[-73.387196,41.9260312],[-73.3872164,41.9260535],[-73.3872314,41.9260676],[-73.3872787,41.9261086],[-73.3873143,41.9261449],[-73.3873296,41.9261588],[-73.3875856,41.926362],[-73.3876283,41.9263937],[-73.3876382,41.9263989],[-73.3876835,41.9264285],[-73.387728,41.9264589],[-73.3877616,41.9264847],[-73.3877851,41.9265051],[-73.3877957,41.9265102],[-73.3878025,41.9265177],[-73.3878275,41.9265484],[-73.3878323,41.9265567],[-73.3878563,41.9265878],[-73.3878733,41.9266116],[-73.3878803,41.926619],[-73.3879095,41.9266584],[-73.3879552,41.9267218],[-73.3880334,41.9268334],[-73.3882151,41.9271078],[-73.3882588,41.927172],[-73.3883266,41.9272775],[-73.3884906,41.9275282],[-73.3885518,41.9276261],[-73.3885657,41.9276511],[-73.388584,41.927694],[-73.3886101,41.9277443],[-73.388622,41.9277698],[-73.3886321,41.9277956],[-73.3886405,41.9278218],[-73.3886375,41.9278311],[-73.3886406,41.9278578],[-73.3886419,41.9278847],[-73.3886412,41.9279027],[-73.3886393,41.9279207],[-73.3886256,41.927992],[-73.388611,41.9280541],[-73.3886004,41.9280893],[-73.3885834,41.9281326],[-73.3885594,41.9281836],[-73.388537,41.9282254],[-73.3885165,41.9282581],[-73.3884873,41.9282975],[-73.3884489,41.9283433],[-73.3884218,41.928373],[-73.3883699,41.9284227],[-73.388343,41.9284526],[-73.3883283,41.9284669],[-73.388304,41.9284869],[-73.3882704,41.9285126],[-73.3882633,41.92852],[-73.3882145,41.9285598],[-73.3881812,41.9285859],[-73.3881379,41.9286171],[-73.3881127,41.9286365],[-73.3880152,41.9287163],[-73.3879648,41.928755],[-73.3877488,41.9289246],[-73.3876416,41.92901],[-73.3875537,41.9290841],[-73.3874105,41.9291936],[-73.3871969,41.9293648],[-73.3870796,41.9294554],[-73.38696,41.9295444],[-73.3868382,41.9296316],[-73.3866761,41.9297393],[-73.3866016,41.9297851],[-73.3864965,41.9298454],[-73.386448,41.9298721],[-73.3864082,41.9298925],[-73.3863371,41.9299263],[-73.3862754,41.9299544],[-73.3862449,41.9299691],[-73.3862238,41.9299779],[-73.3862018,41.9299853],[-73.3861791,41.9299916],[-73.3861329,41.9300018],[-73.3860761,41.9300169],[-73.386053,41.9300221],[-73.3859942,41.9300321],[-73.3859351,41.930041],[-73.3858757,41.9300488],[-73.3858399,41.9300525],[-73.3857319,41.9300605],[-73.3856958,41.9300618],[-73.3856716,41.9300619],[-73.3855993,41.9300601],[-73.385527,41.9300602],[-73.385431,41.9300534],[-73.3854071,41.930051],[-73.3853598,41.9300441],[-73.3853246,41.9300379],[-73.3852095,41.9300112],[-73.3851411,41.9299936],[-73.3850736,41.9299743],[-73.3849953,41.9299508],[-73.3848844,41.9299154],[-73.384719,41.9298608],[-73.3845435,41.9298012],[-73.3843784,41.9297461],[-73.384258,41.9297047],[-73.3841817,41.9296776],[-73.384039,41.9296293],[-73.3840174,41.9296213],[-73.3839965,41.9296123],[-73.3839159,41.9295728],[-73.3838737,41.9295554],[-73.3837857,41.9295259],[-73.383699,41.9294945],[-73.3834571,41.9294133],[-73.3832604,41.9293454],[-73.3832478,41.9293452],[-73.3831566,41.9293233],[-73.3831442,41.9293229],[-73.3831326,41.9293204],[-73.3830988,41.9293109],[-73.3820438,41.9289561],[-73.3818783,41.9289016],[-73.3817799,41.9288675],[-73.3815711,41.9287973],[-73.3815055,41.9287746],[-73.3811648,41.9286599],[-73.3809445,41.9285868],[-73.380835,41.9285491],[-73.3806913,41.9285025]]}},{"type":"Feature","properties":{"role":"surface","rings":["outer","inner"],"area_m2":null},"geometry":{"type":"Polygon","coordinates":[[[-73.3806594,41.9285547],[-73.3804514,41.9284848],[-73.380375,41.9284573],[-73.380276,41.928424],[-73.3800776,41.928358],[-73.3799995,41.9283335],[-73.3797556,41.928251],[-73.3796923,41.9282287],[-73.379637,41.9282117],[-73.3795689,41.9281892],[-73.3795152,41.9281704],[-73.3794718,41.9281564],[-73.3794015,41.9281314],[-73.3793487,41.9281145],[-73.3792583,41.9280842],[-73.3791443,41.9280476],[-73.3789248,41.9279728],[-73.378507,41.9278324],[-73.3784296,41.9278057],[-73.3783483,41.9277765],[-73.3783132,41.9277611],[-73.3782912,41.9277492],[-73.378249,41.9277242],[-73.3781987,41.9276912],[-73.3781694,41.9276703],[-73.3781509,41.9276558],[-73.3781256,41.9276332],[-73.378102,41.9276102],[-73.3780795,41.9275866],[-73.3780512,41.9275545],[-73.3780246,41.9275217],[-73.3780062,41.9274963],[-73.3779633,41.9274264],[-73.3779397,41.9273822],[-73.3779265,41.9273548],[-73.3779156,41.9273265],[-73.3778974,41.9272683],[-73.3778919,41.9272483],[-73.3778881,41.9272282],[-73.377884,41.9271892],[-73.377886,41.9271798],[-73.3778866,41.9271254],[-73.3778785,41.9271163],[-73.3778971,41.9270289],[-73.3779021,41.9270092],[-73.3779085,41.92699],[-73.377936,41.9269167],[-73.3779473,41.9268895],[-73.37796,41.9268625],[-73.377974,41.9268359],[-73.3779893,41.9268096],[-73.3780234,41.9267589],[-73.3780412,41.9267343],[-73.3780919,41.9266706],[-73.3781191,41.9266392],[-73.3781409,41.926616],[-73.3781643,41.9265937],[-73.3782528,41.9265145],[-73.3782787,41.9264932],[-73.3783342,41.9264528],[-73.3783846,41.9264215],[-73.3784174,41.9264042],[-73.3784516,41.9263881],[-73.3784748,41.9263782],[-73.3785215,41.9263609],[-73.3785452,41.9263537],[-73.3785693,41.9263474],[-73.3786442,41.9263316],[-73.3787095,41.9263222],[-73.3787491,41.9263184],[-73.3787757,41.9263174],[-73.3788285,41.9263167],[-73.3788676,41.9263174],[-73.3788933,41.9263186],[-73.3789564,41.926324],[-73.3790082,41.9263267],[-73.3790344,41.9263307],[-73.3790735,41.9263397],[-73.3790993,41.9263463],[-73.379124,41.9263539],[-73.37918,41.926377],[-73.3792579,41.9264044],[-73.3793152,41.9264236],[-73.3793474,41.9264381],[-73.3794469,41.9264903],[-73.3795397,41.9265331],[-73.3797024,41.9266105],[-73.3798312,41.9266775],[-73.3798512,41.9266867],[-73.3799139,41.926713],[-73.3800782,41.9267876],[-73.3801816,41.9268317],[-73.3802761,41.9268698],[-73.380414,41.9269196],[-73.3804454,41.9269297],[-73.3804772,41.9269386],[-73.3805094,41.9269465],[-73.3805635,41.9269569],[-73.380585,41.9269602],[-73.3806174,41.9269634],[-73.3806498,41.926966],[-73.3806822,41.9269668],[-73.3807367,41.9269654],[-73.3807697,41.9269638],[-73.3808031,41.9269611],[-73.3808366,41.9269574],[-73.3808919,41.9269493],[-73.3809899,41.9269292],[-73.3810649,41.9269102],[-73.3810963,41.9269006],[-73.3811472,41.9268837],[-73.3811759,41.9268715],[-73.3811848,41.9268666],[-73.3812187,41.9268447],[-73.3812798,41.9268078],[-73.3813043,41.9267912],[-73.3813275,41.9267739],[-73.381349,41.926756],[-73.3813622,41.9267439],[-73.3813744,41.9267313],[-73.3813854,41.9267181],[-73.3814225,41.9266617],[-73.3814299,41.9266468],[-73.3814362,41.9266315],[-73.3814639,41.9265596],[-73.3814705,41.9265353],[-73.3814759,41.9264768],[-73.3814802,41.9263985],[-73.3814786,41.9263541],[-73.3814792,41.9263104],[-73.3814748,41.9262222],[-73.3814672,41.9261516],[-73.3814643,41.9261153],[-73.381457,41.9260602],[-73.3814534,41.9259778],[-73.3814527,41.9259495],[-73.3814533,41.925901],[-73.3814555,41.9258716],[-73.3814597,41.9258425],[-73.3814658,41.9258138],[-73.3814751,41.9257852],[-73.3814831,41.9257661],[-73.3814923,41.9257471],[-73.3815082,41.9257193],[-73.3815393,41.9256764],[-73.38158,41.9256269],[-73.3815951,41.9256104],[-73.3816207,41.925587],[-73.381649,41.9255657],[-73.3816884,41.9255401],[-73.381759,41.9254988],[-73.381811,41.9254715],[-73.3818538,41.9254512],[-73.3819083,41.9254278],[-73.3820187,41.9253843],[-73.382064,41.9253688],[-73.382143,41.9253443],[-73.3822889,41.9253006],[-73.3824688,41.9252476],[-73.3825261,41.9252318],[-73.3826534,41.9252005],[-73.3827346,41.9251823],[-73.3827931,41.9251709],[-73.3828032,41.9251651],[-73.3828381,41.9251567],[-73.3828502,41.9251551],[-73.3829795,41.9251233],[-73.3830035,41.9251183],[-73.3830161,41.9251179],[-73.3830751,41.925106],[-73.3831096,41.9250977],[-73.3831682,41.9250819],[-73.3831931,41.9250763],[-73.383219,41.9250719],[-73.3832457,41.9250687],[-73.3832857,41.925066],[-73.3833736,41.9250635],[-73.3834097,41.9250632],[-73.3834954,41.9250663],[-73.3835843,41.9250733],[-73.3836957,41.9250854],[-73.3839807,41.9251264],[-73.3840872,41.9251409],[-73.3841228,41.925145],[-73.384323,41.9251662],[-73.3845004,41.9251769],[-73.3845478,41.9251783],[-73.3847379,41.925175],[-73.3848808,41.9251698],[-73.3850477,41.9251599],[-73.3853109,41.9251409],[-73.3855256,41.9251227],[-73.3855374,41.9251209],[-73.3857284,41.9250998],[-73.3857403,41.9250977],[-73.3857526,41.9250975],[-73.3859563,41.9250813],[-73.3860033,41.925075],[-73.386076,41.9250612],[-73.3861023,41.9250569],[-73.3861302,41.925054],[-73.3861448,41.9250532],[-73.3861751,41.9250533],[-73.3861907,41.9250544],[-73.3862224,41.9250589],[-73.3862539,41.9250666],[-73.3862694,41.9250718],[-73.3862844,41.9250778],[-73.386299,41.9250847],[-73.3863128,41.9250923],[-73.3863259,41.9251006],[-73.3863491,41.9251188],[-73.3863593,41.9251284],[-73.386377,41.9251485],[-73.386388,41.9251575],[-73.386402,41.9251785],[-73.3864123,41.9252001],[-73.3864157,41.925211],[-73.3864181,41.9252218],[-73.3864238,41.9252619],[-73.3864382,41.9253251],[-73.3864458,41.9253416],[-73.386456,41.9253536],[-73.3864697,41.9253634],[-73.3864824,41.9253692],[-73.38649,41.9253717],[-73.386548,41.9253858],[-73.3865909,41.9253989],[-73.3866129,41.9254049],[-73.3867522,41.9254387],[-73.3867785,41.9254458],[-73.3868056,41.9254542],[-73.3868328,41.9254648],[-73.3868594,41.9254774],[-73.3868841,41.9254922],[-73.3869061,41.9255087],[-73.3869159,41.9255173],[-73.3869335,41.925535],[-73.386955,41.9255617],[-73.3869847,41.9256053],[-73.3870266,41.925672],[-73.3870612,41.9257187],[-73.3870974,41.9257757],[-73.387169,41.925879],[-73.3872142,41.9259407],[-73.3872388,41.9259699],[-73.3872615,41.9259986],[-73.3872737,41.9260123],[-73.3872876,41.9260253],[-73.3873282,41.9260564],[-73.3873432,41.9260702],[-73.3873564,41.9260852],[-73.3873738,41.9261083],[-73.3873873,41.926122],[-73.387575,41.9262709],[-73.3876543,41.9263353],[-73.387679,41.9263526],[-73.3876891,41.9263571],[-73.3877549,41.9263981],[-73.3877837,41.926417],[-73.3878204,41.9264443],[-73.3878465,41.9264669],[-73.3878614,41.9264712],[-73.3878888,41.9265075],[-73.3880055,41.9266816],[-73.3880559,41.9267541],[-73.3881021,41.9268176],[-73.3882854,41.9270919],[-73.3883252,41.927148],[-73.388367,41.9272125],[-73.3883966,41.9272614],[-73.3885244,41.9274564],[-73.3885551,41.9275056],[-73.3886185,41.9276155],[-73.388651,41.9276851],[-73.3886936,41.9277646],[-73.388708,41.9277941],[-73.3887169,41.9278144],[-73.3887101,41.9278255],[-73.3887129,41.9278458],[-73.3887146,41.9278758],[-73.3887134,41.9279056],[-73.388711,41.9279253],[-73.3887029,41.9279637],[-73.388684,41.9280368],[-73.3886677,41.9280924],[-73.3886541,41.9281295],[-73.3886344,41.9281746],[-73.3886077,41.9282273],[-73.3885822,41.9282712],[-73.3885588,41.9283059],[-73.3885072,41.9283721],[-73.3884866,41.928396],[-73.3884645,41.9284187],[-73.3883885,41.9284906],[-73.3883539,41.9285191],[-73.3883179,41.9285452],[-73.3883118,41.9285534],[-73.3882016,41.9286388],[-73.3881695,41.9286654],[-73.3881285,41.9286969],[-73.3880644,41.9287508],[-73.3880131,41.928789],[-73.3878546,41.9289131],[-73.3877949,41.928957],[-73.387688,41.9290417],[-73.3876397,41.9290815],[-73.3875533,41.9291462],[-73.3875455,41.9291532],[-73.3874593,41.9292161],[-73.3874501,41.9292218],[-73.3872447,41.929386],[-73.3871694,41.9294452],[-73.3871369,41.9294722],[-73.3871117,41.9294919],[-73.3870088,41.9295686],[-73.3869121,41.929638],[-73.386869,41.92967],[-73.3868133,41.9297053],[-73.3867309,41.9297592],[-73.3866365,41.9298175],[-73.3865874,41.9298443],[-73.3864895,41.9298997],[-73.3863669,41.9299625],[-73.3863145,41.9299866],[-73.3862731,41.9300089],[-73.3862509,41.9300194],[-73.3862148,41.9300322],[-73.3861544,41.9300495],[-73.3861078,41.9300643],[-73.3860839,41.9300711],[-73.3860591,41.9300761],[-73.385985,41.9300877],[-73.385924,41.9300981],[-73.3858745,41.9301044],[-73.3858119,41.9301087],[-73.3857364,41.9301154],[-73.3856855,41.930117],[-73.3856103,41.9301153],[-73.3855353,41.9301161],[-73.38551,41.9301147],[-73.3854347,41.930107],[-73.3853319,41.9300934],[-73.3852818,41.9300841],[-73.3851148,41.9300478],[-73.3850442,41.93003],[-73.3849516,41.9300042],[-73.3846852,41.9299178],[-73.3843874,41.9298176],[-73.3842346,41.9297648],[-73.3841588,41.9297367],[-73.3839547,41.9296665],[-73.3838872,41.9296421],[-73.3837429,41.9295941],[-73.3837212,41.9295859],[-73.383679,41.929568],[-73.3836577,41.92956],[-73.3836033,41.9295428],[-73.383516,41.9295136],[-73.3832757,41.9294323],[-73.3831969,41.9294049],[-73.3830845,41.9293681],[-73.3830139,41.9293438],[-73.3820129,41.9290074],[-73.3819142,41.9289746],[-73.3818582,41.928957],[-73.3817814,41.9289299],[-73.3816282,41.928878],[-73.3811437,41.9287158],[-73.3810661,41.9286916],[-73.3809129,41.9286403],[-73.3808473,41.9286165],[-73.3808031,41.9286013],[-73.3807363,41.9285806],[-73.3806594,41.9285547]],[[-73.3807231,41.9284502],[-73.3802606,41.9282954],[-73.3801843,41.9282681],[-73.3801086,41.9282423],[-73.3800302,41.9282178],[-73.3798994,41.9281738],[-73.3798346,41.9281529],[-73.3798261,41.9281456],[-73.3797826,41.9281288],[-73.379774,41.9281205],[-73.3797513,41.9281126],[-73.3797287,41.9281057],[-73.3797061,41.9281005],[-73.3796722,41.928094],[-73.3796653,41.9280849],[-73.3795698,41.9280455],[-73.3795369,41.928033],[-73.3795021,41.9280213],[-73.3794934,41.9280117],[-73.3793494,41.9279834],[-73.3792721,41.9279633],[-73.3792288,41.92795],[-73.3791968,41.9279391],[-73.3791433,41.9279188],[-73.3791104,41.9279072],[-73.3785718,41.9277259],[-73.3784751,41.9276922],[-73.378416,41.9276706],[-73.3783976,41.9276629],[-73.3783714,41.9276498],[-73.3783377,41.9276301],[-73.3783137,41.9276141],[-73.3782985,41.927603],[-73.3782843,41.9275913],[-73.3782708,41.9275787],[-73.3782372,41.927546],[-73.378211,41.9275189],[-73.3781863,41.9274909],[-73.3781629,41.927462],[-73.3781312,41.9274179],[-73.3780877,41.927349],[-73.3780755,41.9273256],[-73.3780572,41.9272869],[-73.3780509,41.9272714],[-73.3780439,41.9272481],[-73.3780397,41.9272248],[-73.3780397,41.9271841],[-73.3780367,41.927149],[-73.3780337,41.9270967],[-73.3780305,41.9270802],[-73.3780242,41.9270557],[-73.3780234,41.9270477],[-73.3780245,41.9270318],[-73.3780297,41.9270078],[-73.3780432,41.926958],[-73.3780489,41.9269414],[-73.3780589,41.926917],[-73.3780702,41.926893],[-73.378087,41.9268616],[-73.3781059,41.9268307],[-73.378122,41.926808],[-73.3782234,41.9266812],[-73.3782499,41.9266532],[-73.3783133,41.9265913],[-73.378336,41.9265721],[-73.3783599,41.9265541],[-73.3784304,41.9265128],[-73.3784568,41.9264982],[-73.3784843,41.9264856],[-73.3785131,41.9264752],[-73.3786387,41.9264403],[-73.3786799,41.9264279],[-73.3787006,41.9264228],[-73.3787427,41.9264162],[-73.378807,41.9264103],[-73.3788399,41.9264091],[-73.3788957,41.9264112],[-73.3789412,41.9264148],[-73.3789746,41.9264184],[-73.3790065,41.926423],[-73.3790369,41.926429],[-73.3790567,41.926434],[-73.3790868,41.9264429],[-73.3791282,41.9264573],[-73.3791706,41.926473],[-73.3793438,41.9265464],[-73.3794773,41.9266072],[-73.379529,41.9266297],[-73.3796719,41.9266969],[-73.3797229,41.9267197],[-73.3797955,41.9267539],[-73.3799604,41.9268291],[-73.380032,41.9268637],[-73.3800637,41.9268777],[-73.3800957,41.926891],[-73.380139,41.9269075],[-73.3802129,41.9269393],[-73.3803539,41.9269953],[-73.3804003,41.9270109],[-73.3804839,41.9270351],[-73.3805084,41.9270413],[-73.3805588,41.9270518],[-73.3805845,41.9270564],[-73.3806106,41.9270599],[-73.3806633,41.9270648],[-73.3806898,41.9270665],[-73.3807295,41.9270669],[-73.3807687,41.9270654],[-73.3808714,41.9270575],[-73.3808968,41.9270544],[-73.3809345,41.9270482],[-73.3809592,41.9270429],[-73.3810203,41.9270282],[-73.3810443,41.9270215],[-73.3811153,41.9269998],[-73.3811501,41.9269875],[-73.3812304,41.9269555],[-73.3812533,41.9269459],[-73.3812753,41.9269355],[-73.381318,41.9269139],[-73.3813489,41.9268967],[-73.3813785,41.9268778],[-73.3814072,41.9268578],[-73.3814447,41.9268296],[-73.381463,41.9268147],[-73.3814885,41.9267906],[-73.381512,41.9267653],[-73.381526,41.9267478],[-73.3815378,41.9267295],[-73.381553,41.9267013],[-73.3815668,41.9266729],[-73.3815784,41.9266446],[-73.3815849,41.9266258],[-73.3815922,41.9265975],[-73.3815976,41.9265686],[-73.3816045,41.9265202],[-73.3816084,41.9264822],[-73.3816102,41.9264446],[-73.3816108,41.9263895],[-73.3816092,41.9263159],[-73.3815994,41.9262242],[-73.3815749,41.9260721],[-73.3815656,41.9259753],[-73.3815643,41.9259411],[-73.381566,41.925908],[-73.3815696,41.9258918],[-73.3815857,41.9258519],[-73.3816048,41.9257965],[-73.3816146,41.925774],[-73.3816286,41.9257525],[-73.3816893,41.9256732],[-73.3816952,41.9256665],[-73.3817086,41.9256542],[-73.3817459,41.9256251],[-73.3818033,41.9255853],[-73.3818295,41.9255691],[-73.3818665,41.9255493],[-73.3818953,41.9255353],[-73.3819248,41.9255223],[-73.3820282,41.9254826],[-73.3820806,41.9254643],[-73.3821464,41.9254454],[-73.3823245,41.9253918],[-73.3825589,41.9253228],[-73.3826136,41.925306],[-73.3826812,41.9252878],[-73.3827932,41.9252552],[-73.3828717,41.9252337],[-73.3829512,41.9252172],[-73.3830082,41.9252078],[-73.3831251,41.9251927],[-73.3832177,41.9251832],[-73.3832394,41.9251822],[-73.3832821,41.9251821],[-73.3833737,41.9251843],[-73.3834578,41.9251844],[-73.3834813,41.9251836],[-73.3835387,41.9251787],[-73.3835726,41.9251787],[-73.3837002,41.9251882],[-73.3839752,41.9252131],[-73.3840351,41.9252193],[-73.3840952,41.9252241],[-73.3842155,41.925236],[-73.3843622,41.9252457],[-73.3844477,41.92525],[-73.3845336,41.9252524],[-73.3846314,41.9252531],[-73.3847292,41.9252518],[-73.3848266,41.9252488],[-73.3849238,41.9252443],[-73.3850328,41.9252378],[-73.3852013,41.9252261],[-73.3853337,41.9252161],[-73.3855382,41.925199],[-73.3855985,41.9251951],[-73.3857298,41.9251828],[-73.3858489,41.9251748],[-73.3859694,41.9251654],[-73.386006,41.9251633],[-73.3860541,41.9251617],[-73.3861488,41.9251623],[-73.3861659,41.9251638],[-73.3861891,41.9251673],[-73.386203,41.9251708],[-73.3862155,41.9251758],[-73.3862263,41.9251825],[-73.3862354,41.9251911],[-73.386246,41.9252071],[-73.3862581,41.9252308],[-73.3862654,41.9252507],[-73.3862806,41.9253286],[-73.3862858,41.9253496],[-73.3862929,41.925372],[-73.3863036,41.9253957],[-73.3863112,41.9254075],[-73.3863206,41.9254188],[-73.3863317,41.9254295],[-73.3863439,41.9254395],[-73.3863703,41.925457],[-73.3863842,41.9254644],[-73.3863982,41.9254709],[-73.3864137,41.9254744],[-73.3864262,41.925481],[-73.3864656,41.9254926],[-73.3865384,41.92551],[-73.3865852,41.9255226],[-73.3866883,41.9255443],[-73.3867081,41.9255493],[-73.3867344,41.9255578],[-73.3867572,41.9255666],[-73.3867709,41.9255737],[-73.3867829,41.9255825],[-73.3867985,41.9255991],[-73.3868427,41.9256525],[-73.3868596,41.9256746],[-73.3868915,41.9257223],[-73.3869229,41.9257716],[-73.3869629,41.9258271],[-73.3870126,41.9258996],[-73.3870703,41.9259801],[-73.3871101,41.9260389],[-73.3871377,41.9260719],[-73.3871675,41.9261038],[-73.3871983,41.9261331],[-73.3872719,41.9261956],[-73.3875322,41.9264011],[-73.3875775,41.9264349],[-73.3876315,41.9264709],[-73.3876802,41.9265068],[-73.3877237,41.9265432],[-73.3877424,41.9265611],[-73.3877542,41.9265737],[-73.3877601,41.9265803],[-73.3877639,41.9265881],[-73.3877833,41.9266094],[-73.3878068,41.9266401],[-73.3878152,41.9266466],[-73.3878763,41.9267225],[-73.3878993,41.9267537],[-73.3879269,41.9267933],[-73.3879755,41.9268653],[-73.3880111,41.9269224],[-73.3881609,41.9271478],[-73.3884094,41.9275269],[-73.3884371,41.9275668],[-73.3884632,41.9276069],[-73.3884948,41.9276532],[-73.388504,41.927669],[-73.3885173,41.9277028],[-73.3885386,41.9277445],[-73.3885497,41.9277687],[-73.3885576,41.9277921],[-73.3885623,41.9278145],[-73.3885689,41.9278757],[-73.3885694,41.9278917],[-73.3885685,41.9279079],[-73.3885562,41.9279922],[-73.3885458,41.9280439],[-73.3885389,41.9280687],[-73.3885271,41.9281011],[-73.3885093,41.9281418],[-73.3884891,41.9281822],[-73.3884714,41.9282137],[-73.3884563,41.9282362],[-73.3884341,41.928265],[-73.3884225,41.9282792],[-73.3883972,41.9283074],[-73.3883573,41.9283492],[-73.3883133,41.9283914],[-73.3882894,41.928422],[-73.3882766,41.9284359],[-73.3882069,41.9284933],[-73.3881681,41.928527],[-73.3881268,41.9285586],[-73.3880902,41.928582],[-73.3880725,41.9285946],[-73.3880232,41.9286358],[-73.3879741,41.9286753],[-73.3877758,41.9288316],[-73.3877191,41.928879],[-73.3875706,41.9289985],[-73.3875548,41.9290122],[-73.3875184,41.9290474],[-73.3875026,41.9290606],[-73.3874698,41.9290864],[-73.3874607,41.9290923],[-73.3873709,41.9291654],[-73.3873632,41.9291725],[-73.3871895,41.9293106],[-73.3871656,41.9293306],[-73.3871243,41.9293627],[-73.387081,41.9293937],[-73.3869626,41.9294824],[-73.3868944,41.9295324],[-73.3868163,41.9295874],[-73.3867012,41.9296653],[-73.3866579,41.929696],[-73.3865946,41.929736],[-73.3865013,41.9297915],[-73.3864449,41.9298237],[-73.3863877,41.9298539],[-73.386368,41.9298633],[-73.3862366,41.9299213],[-73.3862068,41.9299331],[-73.3861766,41.9299424],[-73.386145,41.9299492],[-73.3861002,41.9299562],[-73.3860344,41.9299703],[-73.3859789,41.9299804],[-73.3859332,41.9299869],[-73.3858188,41.9299998],[-73.3857273,41.9300056],[-73.3856705,41.9300069],[-73.3856008,41.9300049],[-73.3855313,41.9300048],[-73.3854741,41.9300021],[-73.3854288,41.9300009],[-73.3854177,41.93],[-73.3853855,41.9299949],[-73.3853318,41.9299845],[-73.3852438,41.9299619],[-73.385189,41.9299459],[-73.3851136,41.9299222],[-73.3848292,41.9298298],[-73.3847529,41.9298038],[-73.3846989,41.9297844],[-73.3845782,41.9297437],[-73.3844795,41.9297106],[-73.3844025,41.9296862],[-73.38415,41.9295999],[-73.3840753,41.9295758],[-73.384056,41.9295679],[-73.3840383,41.9295581],[-73.3839853,41.9295227],[-73.3839652,41.9295103],[-73.3839433,41.9294989],[-73.3839202,41.9294888],[-73.3838069,41.9294503],[-73.3837514,41.9294327],[-73.3835415,41.9293618],[-73.3834095,41.9293167],[-73.3833539,41.9292965],[-73.3832943,41.929276],[-73.3832789,41.9292787],[-73.383241,41.9292718],[-73.3831812,41.929263],[-73.3831681,41.9292659],[-73.3831568,41.9292648],[-73.3831354,41.9292607],[-73.3831152,41.9292547],[-73.3823605,41.9290007],[-73.3819096,41.9288499],[-73.3816125,41.9287495],[-73.3815259,41.9287185],[-73.3810867,41.9285702],[-73.3808231,41.9284819],[-73.3807562,41.9284612],[-73.3807231,41.9284502]]]}},{"type":"Feature","properties":{"role":"pit_lane","name":"Pit Lane","osm_way":35341695,"quality":{"source":"osm","accuracy_m":5.0,"measured":false,"note":"OSM-traced pit-lane centerline; not measured"}},"geometry":{"type":"LineString","coordinates":[[-73.3839532,41.9295768],[-73.3839538,41.9295416],[-73.3839111,41.9295063],[-73.3832275,41.9292712],[-73.3831573,41.9292115],[-73.3831089,41.9291474],[-73.3830633,41.9290909],[-73.3829623,41.9290387],[-73.3802484,41.9281183],[-73.3800505,41.9280992],[-73.3796795,41.9280752],[-73.3794245,41.9280787]]}},{"type":"Feature","properties":{"role":"edge_unseen","side":"left","note":"bridged: the edge was not seen in the imagery here"},"geometry":{"type":"MultiLineString","coordinates":[[[-73.3785404,41.9278436],[-73.3785294,41.9278399],[-73.3785183,41.9278362],[-73.3785072,41.9278325],[-73.3784961,41.9278287]],[[-73.3830179,41.9251175],[-73.3830295,41.9251152],[-73.3830408,41.9251129],[-73.3830521,41.9251106],[-73.3830634,41.9251084],[-73.3830747,41.9251061],[-73.383086,41.9251034],[-73.3830973,41.9251007],[-73.3831087,41.9250979],[-73.3831201,41.9250949],[-73.3831315,41.9250918],[-73.3831431,41.9250887],[-73.383155,41.9250855],[-73.3831673,41.9250822],[-73.38318,41.9250792],[-73.3831931,41.9250763],[-73.3832066,41.925074],[-73.3832203,41.9250717],[-73.383234,41.9250701],[-73.3832477,41.9250686],[-73.3832612,41.9250677],[-73.3832745,41.9250668],[-73.3832875,41.9250659],[-73.3833004,41.9250656]],[[-73.3853953,41.9251337],[-73.3854073,41.9251327],[-73.3854193,41.9251317],[-73.3854312,41.9251307],[-73.3854432,41.9251297],[-73.3854551,41.9251287]],[[-73.3856092,41.925113],[-73.385621,41.9251117],[-73.3856329,41.9251103],[-73.3856448,41.925109],[-73.3856567,41.9251077],[-73.3856687,41.9251064],[-73.3856806,41.9251051],[-73.3856926,41.9251038],[-73.3857046,41.9251024],[-73.3857167,41.9251011],[-73.385729,41.9250997]],[[-73.3857782,41.9250955],[-73.3857903,41.9250945],[-73.3858023,41.9250935],[-73.3858143,41.9250926],[-73.3858263,41.9250916],[-73.3858383,41.9250907],[-73.3858503,41.9250897],[-73.3858622,41.9250888],[-73.3858742,41.9250878],[-73.3858862,41.9250869],[-73.3858981,41.9250859],[-73.3859099,41.925085],[-73.3859216,41.9250841],[-73.3859333,41.9250831],[-73.385945,41.9250822],[-73.3859567,41.9250812],[-73.3859685,41.9250797],[-73.3859803,41.9250781],[-73.3859921,41.9250765],[-73.386004,41.9250749],[-73.3860158,41.9250726],[-73.3860275,41.9250704],[-73.3860394,41.9250682],[-73.3860512,41.9250659],[-73.3860632,41.9250636],[-73.3860755,41.9250613],[-73.3860881,41.9250592],[-73.3861011,41.9250571],[-73.3861146,41.9250556],[-73.3861287,41.9250542],[-73.3861433,41.9250533],[-73.3861583,41.9250532],[-73.3861738,41.9250533],[-73.3861896,41.9250543],[-73.3862055,41.9250565],[-73.3862217,41.9250588],[-73.3862377,41.9250626],[-73.3862538,41.9250666],[-73.3862696,41.9250719]],[[-73.3863141,41.9250932],[-73.3863275,41.9251018],[-73.3863394,41.9251112],[-73.3863509,41.9251205],[-73.3863607,41.92513],[-73.3863693,41.9251397],[-73.3863779,41.9251492],[-73.3863885,41.9251582]],[[-73.3876972,41.9263622],[-73.3877065,41.926368],[-73.387716,41.9263739],[-73.3877256,41.9263798],[-73.3877352,41.9263858],[-73.3877448,41.9263918],[-73.3877544,41.9263978]],[[-73.3887088,41.927936],[-73.3887067,41.9279455],[-73.3887048,41.9279548],[-73.3887029,41.9279639],[-73.3887005,41.9279728],[-73.3886982,41.9279819],[-73.3886959,41.9279909],[-73.3886935,41.9280001],[-73.3886911,41.9280092],[-73.3886888,41.9280183],[-73.3886864,41.9280273],[-73.3886841,41.9280364],[-73.3886815,41.9280454]],[[-73.3883045,41.928559],[-73.388296,41.9285657],[-73.3882874,41.9285723],[-73.3882788,41.928579],[-73.3882702,41.9285856]],[[-73.3875455,41.9291532],[-73.3875368,41.9291595],[-73.3875282,41.9291658],[-73.3875196,41.9291721],[-73.387511,41.9291784],[-73.3875023,41.9291847],[-73.3874937,41.929191],[-73.3874851,41.9291973],[-73.3874765,41.9292035],[-73.387468,41.9292098],[-73.3874595,41.9292159],[-73.3874504,41.9292216]]]}},{"type":"Feature","properties":{"role":"edge_unseen","side":"right","note":"bridged: the edge was not seen in the imagery here"},"geometry":{"type":"MultiLineString","coordinates":[[[-73.3796357,41.9280727],[-73.3796246,41.9280681],[-73.3796136,41.9280636],[-73.3796026,41.928059],[-73.3795916,41.9280545],[-73.3795806,41.92805]],[[-73.3786049,41.927737],[-73.378594,41.9277334],[-73.3785831,41.9277297],[-73.3785722,41.927726],[-73.3785614,41.9277223]],[[-73.3875974,41.9264482],[-73.3876063,41.9264541],[-73.3876151,41.92646],[-73.3876238,41.9264658],[-73.3876324,41.9264716],[-73.3876407,41.9264777],[-73.3876489,41.9264838],[-73.3876571,41.9264898],[-73.3876651,41.9264957],[-73.387673,41.9265015],[-73.3876808,41.9265073],[-73.3876881,41.9265134],[-73.3876955,41.9265196],[-73.3877032,41.926526],[-73.3877109,41.9265325],[-73.3877187,41.926539],[-73.3877257,41.9265451],[-73.3877311,41.9265503],[-73.3877361,41.9265551],[-73.3877411,41.9265599],[-73.3877463,41.9265652],[-73.3877519,41.9265713],[-73.3877579,41.9265779],[-73.3877627,41.9265856]],[[-73.3878155,41.9266469],[-73.3878216,41.9266545],[-73.3878276,41.926662],[-73.3878336,41.9266694],[-73.3878396,41.9266769],[-73.3878457,41.9266845],[-73.3878518,41.9266921],[-73.387858,41.9266997],[-73.3878641,41.9267074],[-73.3878703,41.9267151]],[[-73.3874613,41.9290919],[-73.3874531,41.9290985],[-73.387445,41.9291051],[-73.3874368,41.9291117],[-73.3874287,41.9291184],[-73.3874205,41.929125],[-73.3874124,41.9291317],[-73.3874042,41.9291383],[-73.387396,41.929145],[-73.3873878,41.9291517],[-73.3873795,41.9291584],[-73.3873712,41.9291652],[-73.3873634,41.9291723]],[[-73.3872641,41.9292513],[-73.3872558,41.9292579],[-73.3872476,41.9292644],[-73.3872393,41.929271],[-73.3872311,41.9292775],[-73.3872228,41.9292841],[-73.3872146,41.9292907],[-73.3872063,41.9292972],[-73.3871981,41.9293038],[-73.3871898,41.9293103],[-73.3871818,41.929317]]]}},{"type":"Feature","properties":{"role":"start_finish","id":"start_finish","marker":0.0,"width_m":12.75,"quality":{"source":"ct-2023","accuracy_m":0.35,"relative_accuracy_m":0.13,"measured":true,"date":"2023-04-13"}},"geometry":{"type":"LineString","coordinates":[[-73.3806602,41.928555],[-73.3807224,41.92845]]}},{"type":"Feature","properties":{"role":"pit_entry","id":"pit_entry","marker":0.89992,"width_m":16.41,"quality":{"source":"ct-2023","accuracy_m":0.35,"relative_accuracy_m":0.13,"measured":true,"date":"2023-04-13"}},"geometry":{"type":"LineString","coordinates":[[-73.3832634,41.929428],[-73.3833449,41.9292934]]}},{"type":"Feature","properties":{"role":"pit_exit","id":"pit_exit","marker":0.04604,"width_m":14.69,"quality":{"source":"ct-2023","accuracy_m":0.35,"relative_accuracy_m":0.13,"measured":true,"date":"2023-04-13"}},"geometry":{"type":"LineString","coordinates":[[-73.3794605,41.9281524],[-73.3795381,41.9280334]]}},{"type":"Feature","properties":{"role":"corner_entry","id":"t1-entry","marker":0.08515,"width_m":13.02,"quality":{"source":"ct-2023","accuracy_m":0.35,"relative_accuracy_m":0.13,"measured":true,"date":"2023-04-13"},"corner":"t1"},"geometry":{"type":"LineString","coordinates":[[-73.3784407,41.9278095],[-73.3785075,41.9277035]]}},{"type":"Feature","properties":{"role":"corner_exit","id":"t1-exit","marker":0.14215,"width_m":9.96,"quality":{"source":"ct-2023","accuracy_m":0.35,"relative_accuracy_m":0.13,"measured":true,"date":"2023-04-13"},"corner":"t1"},"geometry":{"type":"LineString","coordinates":[[-73.3780728,41.9266945],[-73.3781758,41.9267407]]}},{"type":"Feature","properties":{"role":"corner_entry","id":"t2-entry","marker":0.14215,"width_m":9.96,"quality":{"source":"ct-2023","accuracy_m":0.35,"relative_accuracy_m":0.13,"measured":true,"date":"2023-04-13"},"corner":"t2"},"geometry":{"type":"LineString","coordinates":[[-73.3780728,41.9266945],[-73.3781758,41.9267407]]}},{"type":"Feature","properties":{"role":"corner_exit","id":"t2-exit","marker":0.189,"width_m":10.4,"quality":{"source":"ct-2023","accuracy_m":0.35,"relative_accuracy_m":0.13,"measured":true,"date":"2023-04-13"},"corner":"t2"},"geometry":{"type":"LineString","coordinates":[[-73.3792798,41.9264117],[-73.3792227,41.9264951]]}},{"type":"Feature","properties":{"role":"corner_entry","id":"t3-entry","marker":0.2346,"width_m":9.7,"quality":{"source":"ct-2023","accuracy_m":0.35,"relative_accuracy_m":0.13,"measured":true,"date":"2023-04-13"},"corner":"t3"},"geometry":{"type":"LineString","coordinates":[[-73.3803938,41.9269123],[-73.380343,41.926991]]}},{"type":"Feature","properties":{"role":"corner_exit","id":"t3-exit","marker":0.29074,"width_m":10.99,"quality":{"source":"ct-2023","accuracy_m":0.35,"relative_accuracy_m":0.13,"measured":true,"date":"2023-04-13"},"corner":"t3"},"geometry":{"type":"LineString","coordinates":[[-73.3814769,41.9264595],[-73.3816093,41.9264632]]}},{"type":"Feature","properties":{"role":"corner_entry","id":"t4-entry","marker":0.31143,"width_m":9.5,"quality":{"source":"ct-2023","accuracy_m":0.35,"relative_accuracy_m":0.13,"measured":true,"date":"2023-04-13"},"corner":"t4"},"geometry":{"type":"LineString","coordinates":[[-73.3814554,41.9260233],[-73.3815698,41.9260192]]}},{"type":"Feature","properties":{"role":"corner_exit","id":"t4-exit","marker":0.34605,"width_m":10.03,"quality":{"source":"ct-2023","accuracy_m":0.35,"relative_accuracy_m":0.13,"measured":true,"date":"2023-04-13"},"corner":"t4"},"geometry":{"type":"LineString","coordinates":[[-73.3819738,41.925402],[-73.3820291,41.9254823]]}},{"type":"Feature","properties":{"role":"corner_entry","id":"t5-entry","marker":0.49211,"width_m":11.25,"quality":{"source":"ct-2023","accuracy_m":1.66,"relative_accuracy_m":1.63,"measured":false,"date":"2023-04-13"},"corner":"t5"},"geometry":{"type":"LineString","coordinates":[[-73.3860755,41.9250613],[-73.386091,41.9251619]]}},{"type":"Feature","properties":{"role":"corner_exit","id":"t5-exit","marker":0.50436,"width_m":13.04,"quality":{"source":"ct-2023","accuracy_m":0.35,"relative_accuracy_m":0.13,"measured":true,"date":"2023-04-13"},"corner":"t5"},"geometry":{"type":"LineString","coordinates":[[-73.3864187,41.9252258],[-73.3862642,41.9252475]]}},{"type":"Feature","properties":{"role":"corner_entry","id":"t6-entry","marker":0.64789,"width_m":11.11,"quality":{"source":"ct-2023","accuracy_m":0.35,"relative_accuracy_m":0.13,"measured":true,"date":"2023-04-13"},"corner":"t6"},"geometry":{"type":"LineString","coordinates":[[-73.3886436,41.9276693],[-73.3885169,41.9277017]]}},{"type":"Feature","properties":{"role":"corner_exit","id":"t6-exit","marker":0.68208,"width_m":11.74,"quality":{"source":"ct-2023","accuracy_m":0.35,"relative_accuracy_m":0.13,"measured":true,"date":"2023-04-13"},"corner":"t6"},"geometry":{"type":"LineString","coordinates":[[-73.3884791,41.9284037],[-73.3883646,41.9283415]]}},{"type":"Feature","properties":{"role":"corner_entry","id":"t7-entry","marker":0.78002,"width_m":8.99,"quality":{"source":"ct-2023","accuracy_m":0.35,"relative_accuracy_m":0.13,"measured":true,"date":"2023-04-13"},"corner":"t7"},"geometry":{"type":"LineString","coordinates":[[-73.3864996,41.929894],[-73.3864356,41.9298286]]}},{"type":"Feature","properties":{"role":"corner_exit","id":"t7-exit","marker":0.81211,"width_m":12.22,"quality":{"source":"ct-2023","accuracy_m":0.35,"relative_accuracy_m":0.13,"measured":true,"date":"2023-04-13"},"corner":"t7"},"geometry":{"type":"LineString","coordinates":[[-73.3856103,41.9301153],[-73.3856136,41.9300053]]}},{"type":"Feature","properties":{"role":"brake_point","id":"t1-brake","marker":0.05411,"width_m":13.07,"quality":{"source":"ct-2023","accuracy_m":0.35,"relative_accuracy_m":0.13,"measured":true,"date":"2023-04-13"},"corner":"t1","speed_kmh":257.0},"geometry":{"type":"LineString","coordinates":[[-73.3792587,41.9280843],[-73.3793166,41.9279749]]}},{"type":"Feature","properties":{"role":"brake_point","id":"t2-brake","marker":0.15309,"width_m":9.5,"quality":{"source":"ct-2023","accuracy_m":0.35,"relative_accuracy_m":0.13,"measured":true,"date":"2023-04-13"},"corner":"t2","speed_kmh":128.6},"geometry":{"type":"LineString","coordinates":[[-73.37827,41.9265004],[-73.3783519,41.9265601]]}},{"type":"Feature","properties":{"role":"brake_point","id":"t3-brake","marker":0.2242,"width_m":9.28,"quality":{"source":"ct-2023","accuracy_m":0.35,"relative_accuracy_m":0.13,"measured":true,"date":"2023-04-13"},"corner":"t3","speed_kmh":170.6},"geometry":{"type":"LineString","coordinates":[[-73.3801298,41.9268096],[-73.3800748,41.9268823]]}},{"type":"Feature","properties":{"role":"brake_point","id":"t4-brake","marker":0.3102,"width_m":9.62,"quality":{"source":"ct-2023","accuracy_m":0.35,"relative_accuracy_m":0.13,"measured":true,"date":"2023-04-13"},"corner":"t4","speed_kmh":149.9},"geometry":{"type":"LineString","coordinates":[[-73.3814566,41.926051],[-73.3815723,41.9260455]]}},{"type":"Feature","properties":{"role":"brake_point","id":"t5-brake","marker":0.45535,"width_m":8.51,"quality":{"source":"ct-2023","accuracy_m":0.35,"relative_accuracy_m":0.13,"measured":true,"date":"2023-04-13"},"corner":"t5","speed_kmh":211.5},"geometry":{"type":"LineString","coordinates":[[-73.3850367,41.9251606],[-73.3850454,41.9252369]]}},{"type":"Feature","properties":{"role":"brake_point","id":"t6-brake","marker":0.62941,"width_m":12.01,"quality":{"source":"ct-2023","accuracy_m":0.35,"relative_accuracy_m":0.13,"measured":true,"date":"2023-04-13"},"corner":"t6","speed_kmh":206.7},"geometry":{"type":"LineString","coordinates":[[-73.3884235,41.9273024],[-73.3882933,41.9273499]]}},{"type":"Feature","properties":{"role":"racing_line","model":"gt3","lap_time_s":49.43,"speed_kmh":[249,249,249,249,250,250,250,251,251,251,251,252,252,252,252,253,253,253,254,254,254,254,255,255,255,255,256,256,256,256,257,257,257,252,247,242,236,231,226,222,217,212,208,203,199,195,191,187,184,180,177,174,171,168,164,161,157,153,150,147,144,141,138,136,135,134,134,133,131,129,128,128,129,130,131,133,134,134,135,135,133,132,132,131,131,130,129,129,129,129,128,127,125,123,120,119,118,118,118,118,119,120,121,123,125,127,129,131,133,136,138,140,142,144,146,148,150,151,153,155,156,158,160,161,162,164,165,167,168,169,171,167,163,159,155,152,149,146,143,140,138,135,133,131,130,128,126,124,122,121,120,118,117,114,112,110,109,108,108,108,109,110,112,114,116,118,121,124,126,129,131,134,136,138,140,142,144,146,148,150,147,142,138,134,130,128,125,124,123,123,124,126,128,129,131,132,134,136,138,140,142,144,146,148,149,151,153,154,156,158,159,161,162,164,165,166,168,169,170,172,173,174,175,176,178,179,180,181,182,183,184,185,186,187,188,189,190,191,192,193,193,194,195,196,197,198,199,199,200,201,202,202,203,204,205,205,206,207,207,208,209,210,210,211,211,207,202,196,191,185,179,174,168,162,155,149,143,136,129,122,115,109,102,96,91,87,84,84,85,88,91,94,97,101,105,109,113,116,119,121,124,127,129,132,134,136,138,141,143,145,146,148,150,152,153,155,157,158,160,161,163,164,166,167,168,170,171,172,173,175,176,177,178,179,180,181,182,183,184,185,186,187,188,189,190,191,192,193,194,195,196,196,197,198,199,200,200,201,202,203,203,204,205,206,206,206,202,198,194,190,187,183,180,178,175,173,172,171,170,167,164,162,160,159,158,158,159,160,161,163,164,165,167,168,169,171,172,173,174,176,177,178,179,180,181,182,183,184,185,186,187,188,189,190,191,192,193,194,195,195,196,197,198,199,200,200,201,202,203,203,204,205,206,206,207,208,208,209,210,210,211,212,212,213,214,214,215,211,208,204,201,198,195,192,190,188,186,185,185,185,184,184,183,184,184,185,186,187,188,189,190,191,192,193,194,194,195,196,197,198,199,199,200,201,202,202,203,204,205,205,206,207,208,208,209,210,210,211,212,212,213,213,214,215,215,216,216,217,218,218,219,219,220,220,221,222,222,223,223,224,224,225,225,226,226,227,227,228,228,229,229,229,230,230,231,231,232,232,233,233,233,234,234,235,235,236,236,236,237,237,237,238,238,239,239,239,240,240,240,241,241,242,242,242,243,243,243,244,244,244,245,245,245,246,246,246,247,247,247,247,248,248,248],"quality":{"source":"model","measured":false,"note":"minimum-curvature line inside the measured edges; not driven, no elevation"}},"geometry":{"type":"LineString","coordinates":[[-73.3806701,41.9285384],[-73.3806259,41.9285239],[-73.3805818,41.9285094],[-73.3805377,41.9284949],[-73.3804935,41.9284804],[-73.3804494,41.9284659],[-73.3804053,41.9284514],[-73.3803611,41.9284369],[-73.380317,41.9284225],[-73.3802728,41.928408],[-73.3802287,41.9283935],[-73.3801846,41.928379],[-73.3801404,41.9283645],[-73.3800963,41.92835],[-73.3800522,41.9283355],[-73.380008,41.928321],[-73.3799639,41.9283066],[-73.3799198,41.9282921],[-73.3798756,41.9282776],[-73.3798315,41.9282631],[-73.3797874,41.9282486],[-73.3797432,41.9282341],[-73.3796991,41.9282195],[-73.379655,41.928205],[-73.3796109,41.9281905],[-73.3795668,41.928176],[-73.3795226,41.9281615],[-73.3794785,41.9281469],[-73.3794344,41.9281324],[-73.3793903,41.9281178],[-73.3793462,41.9281033],[-73.3793021,41.9280887],[-73.3792581,41.9280741],[-73.379214,41.9280595],[-73.37917,41.9280447],[-73.3791262,41.9280298],[-73.3790824,41.9280147],[-73.3790388,41.9279994],[-73.3789953,41.9279838],[-73.378952,41.9279679],[-73.378909,41.9279516],[-73.3788663,41.927935],[-73.3788238,41.9279179],[-73.3787818,41.9279003],[-73.3787401,41.9278822],[-73.3786988,41.9278636],[-73.3786581,41.9278443],[-73.3786179,41.9278244],[-73.3785783,41.9278039],[-73.3785395,41.9277825],[-73.3785014,41.9277605],[-73.3784641,41.9277377],[-73.3784278,41.927714],[-73.3783924,41.9276895],[-73.3783579,41.9276644],[-73.3783245,41.9276384],[-73.3782921,41.9276118],[-73.3782609,41.9275844],[-73.3782308,41.9275562],[-73.3782021,41.9275273],[-73.3781749,41.9274975],[-73.3781493,41.927467],[-73.3781256,41.9274357],[-73.3781036,41.9274037],[-73.3780838,41.9273708],[-73.3780662,41.9273373],[-73.3780507,41.9273033],[-73.3780377,41.9272686],[-73.3780268,41.9272335],[-73.3780184,41.9271981],[-73.3780123,41.9271624],[-73.378009,41.9271264],[-73.3780084,41.9270905],[-73.3780099,41.9270545],[-73.3780139,41.9270186],[-73.3780199,41.9269829],[-73.3780284,41.9269474],[-73.3780393,41.9269124],[-73.3780522,41.9268777],[-73.3780677,41.9268436],[-73.3780852,41.9268101],[-73.3781049,41.9267772],[-73.378127,41.9267452],[-73.378151,41.926714],[-73.3781773,41.9266838],[-73.3782057,41.9266547],[-73.3782359,41.9266267],[-73.3782682,41.9266],[-73.3783024,41.9265746],[-73.3783382,41.9265505],[-73.3783758,41.926528],[-73.3784149,41.9265069],[-73.3784555,41.9264875],[-73.3784975,41.9264698],[-73.3785406,41.9264537],[-73.3785849,41.9264396],[-73.3786303,41.9264274],[-73.3786767,41.9264175],[-73.3787237,41.9264097],[-73.3787713,41.9264042],[-73.3788193,41.9264008],[-73.3788675,41.9263995],[-73.3789157,41.9264004],[-73.3789637,41.9264032],[-73.3790115,41.9264079],[-73.379059,41.9264142],[-73.3791061,41.926422],[-73.3791526,41.9264313],[-73.3791987,41.926442],[-73.3792441,41.9264541],[-73.3792888,41.9264675],[-73.379333,41.9264819],[-73.3793765,41.9264974],[-73.3794195,41.9265137],[-73.3794619,41.9265309],[-73.3795038,41.9265487],[-73.3795452,41.9265671],[-73.3795862,41.926586],[-73.3796269,41.9266054],[-73.3796672,41.9266251],[-73.3797074,41.926645],[-73.3797474,41.9266651],[-73.3797873,41.9266853],[-73.3798272,41.9267055],[-73.3798672,41.9267256],[-73.3799073,41.9267456],[-73.3799476,41.9267653],[-73.3799882,41.9267847],[-73.3800292,41.9268037],[-73.3800705,41.9268222],[-73.3801123,41.9268402],[-73.3801547,41.9268574],[-73.3801975,41.926874],[-73.3802409,41.9268896],[-73.3802849,41.9269043],[-73.3803295,41.9269179],[-73.3803748,41.9269304],[-73.3804206,41.9269415],[-73.380467,41.9269514],[-73.3805139,41.9269597],[-73.3805612,41.9269666],[-73.3806089,41.9269719],[-73.3806568,41.9269754],[-73.380705,41.9269774],[-73.3807532,41.9269773],[-73.3808013,41.9269756],[-73.3808493,41.9269718],[-73.3808969,41.9269662],[-73.380944,41.9269587],[-73.3809905,41.9269491],[-73.3810361,41.9269375],[-73.3810807,41.9269239],[-73.3811241,41.9269082],[-73.3811662,41.9268907],[-73.3812066,41.926871],[-73.3812454,41.9268496],[-73.381282,41.9268262],[-73.3813162,41.9268008],[-73.381348,41.9267738],[-73.3813767,41.9267449],[-73.3814029,41.9267147],[-73.381426,41.9266831],[-73.3814465,41.9266505],[-73.3814641,41.926617],[-73.3814792,41.9265828],[-73.3814917,41.926548],[-73.381502,41.9265129],[-73.3815104,41.9264774],[-73.3815167,41.9264417],[-73.3815215,41.9264059],[-73.3815248,41.92637],[-73.3815269,41.926334],[-73.3815282,41.926298],[-73.3815288,41.926262],[-73.3815289,41.926226],[-73.3815289,41.92619],[-73.381529,41.926154],[-73.3815295,41.926118],[-73.3815306,41.926082],[-73.3815325,41.9260461],[-73.3815356,41.9260101],[-73.38154,41.9259743],[-73.381546,41.9259386],[-73.3815539,41.925903],[-73.3815634,41.9258677],[-73.3815754,41.9258329],[-73.3815896,41.9257985],[-73.3816064,41.9257647],[-73.3816257,41.9257317],[-73.3816475,41.9256996],[-73.3816719,41.9256686],[-73.3816982,41.9256384],[-73.3817265,41.9256093],[-73.3817567,41.9255812],[-73.3817885,41.9255542],[-73.3818222,41.9255284],[-73.3818573,41.9255037],[-73.3818937,41.9254802],[-73.3819316,41.9254579],[-73.3819705,41.9254367],[-73.3820105,41.9254165],[-73.3820514,41.9253975],[-73.3820933,41.9253796],[-73.3821358,41.9253626],[-73.382179,41.9253467],[-73.3822227,41.9253316],[-73.382267,41.9253173],[-73.3823117,41.9253039],[-73.3823569,41.9252912],[-73.3824023,41.9252792],[-73.3824481,41.925268],[-73.3824943,41.9252575],[-73.3825407,41.9252477],[-73.3825873,41.9252386],[-73.3826342,41.9252302],[-73.3826813,41.9252224],[-73.3827285,41.9252153],[-73.3827759,41.9252088],[-73.3828235,41.9252029],[-73.3828712,41.9251975],[-73.3829189,41.9251927],[-73.3829668,41.9251885],[-73.3830148,41.9251847],[-73.3830628,41.9251814],[-73.3831108,41.9251786],[-73.3831589,41.9251762],[-73.3832071,41.9251743],[-73.3832552,41.9251727],[-73.3833034,41.9251714],[-73.3833516,41.9251704],[-73.3833998,41.9251697],[-73.383448,41.9251693],[-73.3834963,41.9251692],[-73.3835445,41.9251694],[-73.3835927,41.9251697],[-73.3836409,41.9251702],[-73.3836891,41.9251709],[-73.3837373,41.9251718],[-73.3837855,41.9251728],[-73.3838337,41.9251739],[-73.3838819,41.9251751],[-73.38393,41.9251763],[-73.3839782,41.9251776],[-73.3840264,41.9251789],[-73.3840746,41.9251802],[-73.3841228,41.9251815],[-73.384171,41.9251827],[-73.3842191,41.9251838],[-73.3842673,41.9251848],[-73.3843155,41.9251857],[-73.3843637,41.9251865],[-73.3844119,41.925187],[-73.3844602,41.9251874],[-73.3845084,41.9251876],[-73.3845566,41.9251875],[-73.3846048,41.9251871],[-73.384653,41.9251865],[-73.3847012,41.9251857],[-73.3847494,41.9251845],[-73.3847976,41.9251832],[-73.3848457,41.9251815],[-73.3848939,41.9251797],[-73.384942,41.9251775],[-73.3849901,41.9251751],[-73.3850382,41.9251725],[-73.3850863,41.9251696],[-73.3851343,41.9251665],[-73.3851823,41.9251631],[-73.3852303,41.9251595],[-73.3852782,41.9251556],[-73.3853261,41.9251515],[-73.3853739,41.9251471],[-73.3854218,41.9251425],[-73.3854695,41.9251377],[-73.3855173,41.9251327],[-73.385565,41.9251274],[-73.3856126,41.925122],[-73.3856603,41.9251167],[-73.385708,41.9251115],[-73.3857558,41.9251068],[-73.3858037,41.9251027],[-73.3858518,41.9250997],[-73.3858999,41.9250981],[-73.3859481,41.9250981],[-73.3859962,41.9251007],[-73.3860438,41.9251062],[-73.3860905,41.9251151],[-73.3861354,41.9251282],[-73.3861777,41.9251454],[-73.3862175,41.9251657],[-73.3862549,41.9251884],[-73.3862898,41.9252132],[-73.3863217,41.9252402],[-73.3863516,41.9252684],[-73.3863805,41.9252972],[-73.3864099,41.9253258],[-73.3864407,41.9253535],[-73.3864729,41.9253803],[-73.3865066,41.925406],[-73.3865422,41.9254302],[-73.3865794,41.9254532],[-73.3866176,41.9254751],[-73.3866563,41.9254966],[-73.3866951,41.925518],[-73.3867334,41.9255399],[-73.386771,41.9255623],[-73.3868078,41.9255856],[-73.3868438,41.9256096],[-73.3868786,41.9256345],[-73.3869122,41.9256603],[-73.3869446,41.925687],[-73.3869758,41.9257144],[-73.3870061,41.9257424],[-73.3870356,41.9257709],[-73.3870643,41.9257999],[-73.3870923,41.9258291],[-73.3871199,41.9258586],[-73.3871471,41.9258884],[-73.3871741,41.9259182],[-73.387201,41.9259481],[-73.3872278,41.925978],[-73.3872548,41.9260078],[-73.3872821,41.9260375],[-73.3873095,41.9260672],[-73.3873371,41.9260967],[-73.387365,41.926126],[-73.3873931,41.9261553],[-73.3874213,41.9261845],[-73.3874497,41.9262136],[-73.3874783,41.9262426],[-73.3875069,41.9262715],[-73.3875357,41.9263005],[-73.3875645,41.9263293],[-73.3875934,41.9263582],[-73.3876223,41.926387],[-73.3876512,41.9264158],[-73.3876801,41.9264446],[-73.387709,41.9264734],[-73.3877378,41.9265023],[-73.3877666,41.9265311],[-73.3877953,41.9265601],[-73.387824,41.926589],[-73.3878525,41.9266181],[-73.3878808,41.9266472],[-73.387909,41.9266764],[-73.3879369,41.9267057],[-73.3879647,41.9267352],[-73.3879922,41.9267647],[-73.3880195,41.9267944],[-73.3880465,41.9268243],[-73.3880732,41.9268542],[-73.3880996,41.9268844],[-73.3881256,41.9269147],[-73.3881513,41.9269452],[-73.3881765,41.9269758],[-73.3882014,41.9270067],[-73.3882258,41.9270377],[-73.3882498,41.9270689],[-73.3882733,41.9271004],[-73.3882963,41.927132],[-73.3883188,41.9271639],[-73.3883406,41.927196],[-73.388362,41.9272283],[-73.3883827,41.9272608],[-73.3884028,41.9272935],[-73.3884222,41.9273265],[-73.3884408,41.9273597],[-73.3884586,41.9273931],[-73.3884755,41.9274268],[-73.3884915,41.9274608],[-73.3885064,41.927495],[-73.3885203,41.9275295],[-73.388533,41.9275643],[-73.3885443,41.9275993],[-73.3885543,41.9276345],[-73.388563,41.9276699],[-73.38857,41.9277055],[-73.3885755,41.9277413],[-73.3885794,41.9277771],[-73.3885817,41.9278131],[-73.3885826,41.9278491],[-73.388582,41.9278851],[-73.3885797,41.9279211],[-73.3885757,41.9279569],[-73.3885699,41.9279927],[-73.3885623,41.9280282],[-73.3885528,41.9280635],[-73.3885417,41.9280986],[-73.3885291,41.9281333],[-73.3885149,41.9281677],[-73.3884993,41.9282018],[-73.3884823,41.9282355],[-73.388464,41.9282688],[-73.3884446,41.9283017],[-73.3884238,41.9283342],[-73.388402,41.9283663],[-73.3883791,41.928398],[-73.3883551,41.9284292],[-73.3883302,41.9284601],[-73.3883044,41.9284905],[-73.3882777,41.9285204],[-73.3882502,41.92855],[-73.388222,41.9285792],[-73.3881931,41.928608],[-73.3881635,41.9286365],[-73.3881334,41.9286646],[-73.3881027,41.9286924],[-73.3880716,41.9287199],[-73.3880401,41.9287471],[-73.3880081,41.9287741],[-73.3879758,41.9288008],[-73.3879432,41.9288273],[-73.3879104,41.9288537],[-73.3878773,41.9288799],[-73.387844,41.9289059],[-73.3878106,41.9289319],[-73.3877771,41.9289578],[-73.3877435,41.9289836],[-73.3877099,41.9290094],[-73.3876762,41.9290351],[-73.3876425,41.9290609],[-73.3876088,41.9290866],[-73.3875751,41.9291124],[-73.3875414,41.9291381],[-73.3875078,41.929164],[-73.3874743,41.9291898],[-73.3874408,41.9292158],[-73.3874075,41.9292418],[-73.3873742,41.9292678],[-73.3873409,41.9292939],[-73.3873077,41.9293199],[-73.3872744,41.929346],[-73.387241,41.929372],[-73.3872076,41.9293979],[-73.3871739,41.9294237],[-73.3871402,41.9294494],[-73.3871062,41.9294749],[-73.3870719,41.9295003],[-73.3870374,41.9295254],[-73.3870026,41.9295503],[-73.3869674,41.9295749],[-73.3869319,41.9295993],[-73.3868959,41.9296232],[-73.3868595,41.9296469],[-73.3868227,41.9296701],[-73.3867854,41.9296929],[-73.3867475,41.9297152],[-73.3867092,41.9297371],[-73.3866703,41.9297583],[-73.3866309,41.929779],[-73.3865909,41.9297992],[-73.3865503,41.9298186],[-73.3865091,41.9298373],[-73.3864673,41.9298553],[-73.386425,41.9298724],[-73.386382,41.9298887],[-73.3863385,41.9299042],[-73.3862943,41.9299187],[-73.3862496,41.9299322],[-73.3862044,41.9299447],[-73.3861587,41.9299562],[-73.3861126,41.9299667],[-73.3860661,41.9299762],[-73.3860192,41.9299846],[-73.3859721,41.9299921],[-73.3859246,41.9299985],[-73.385877,41.9300039],[-73.3858291,41.9300084],[-73.3857812,41.9300119],[-73.3857331,41.9300146],[-73.3856849,41.9300163],[-73.3856367,41.9300172],[-73.3855885,41.9300173],[-73.3855403,41.9300164],[-73.3854922,41.9300148],[-73.385444,41.9300125],[-73.385396,41.9300094],[-73.385348,41.9300057],[-73.3853002,41.9300012],[-73.3852525,41.9299962],[-73.3852049,41.9299904],[-73.3851574,41.929984],[-73.3851102,41.9299769],[-73.385063,41.9299693],[-73.3850161,41.9299611],[-73.3849694,41.9299523],[-73.3849228,41.929943],[-73.3848764,41.9299331],[-73.3848302,41.9299228],[-73.3847842,41.929912],[-73.3847384,41.9299008],[-73.3846928,41.9298892],[-73.3846473,41.9298772],[-73.384602,41.9298648],[-73.3845569,41.9298521],[-73.384512,41.9298391],[-73.3844672,41.9298257],[-73.3844226,41.9298121],[-73.3843781,41.9297983],[-73.3843337,41.9297842],[-73.3842895,41.9297699],[-73.3842453,41.9297554],[-73.3842013,41.9297407],[-73.3841574,41.9297259],[-73.3841135,41.929711],[-73.3840697,41.9296959],[-73.384026,41.9296807],[-73.3839823,41.9296655],[-73.3839387,41.9296501],[-73.3838951,41.9296347],[-73.3838516,41.9296192],[-73.3838081,41.9296038],[-73.3837645,41.9295883],[-73.383721,41.9295727],[-73.3836775,41.9295572],[-73.383634,41.9295417],[-73.3835905,41.9295263],[-73.3835469,41.9295108],[-73.3835033,41.9294954],[-73.3834598,41.92948],[-73.3834162,41.9294647],[-73.3833725,41.9294493],[-73.3833289,41.929434],[-73.3832853,41.9294187],[-73.3832416,41.9294034],[-73.383198,41.9293881],[-73.3831543,41.9293729],[-73.3831106,41.9293577],[-73.3830669,41.9293425],[-73.3830231,41.9293274],[-73.3829794,41.9293122],[-73.3829356,41.9292971],[-73.3828919,41.929282],[-73.3828481,41.9292669],[-73.3828043,41.9292518],[-73.3827605,41.9292368],[-73.3827167,41.9292218],[-73.3826728,41.9292068],[-73.382629,41.9291918],[-73.3825852,41.9291768],[-73.3825413,41.9291619],[-73.3824974,41.9291469],[-73.3824535,41.929132],[-73.3824097,41.9291171],[-73.3823658,41.9291022],[-73.3823218,41.9290874],[-73.3822779,41.9290725],[-73.382234,41.9290577],[-73.3821901,41.9290428],[-73.3821461,41.929028],[-73.3821022,41.9290132],[-73.3820582,41.9289985],[-73.3820142,41.9289837],[-73.3819702,41.928969],[-73.3819263,41.9289542],[-73.3818823,41.9289395],[-73.3818383,41.9289248],[-73.3817942,41.9289101],[-73.3817502,41.9288954],[-73.3817062,41.9288807],[-73.3816622,41.9288661],[-73.3816181,41.9288514],[-73.3815741,41.9288368],[-73.38153,41.9288221],[-73.381486,41.9288075],[-73.3814419,41.9287929],[-73.3813978,41.9287783],[-73.3813538,41.9287637],[-73.3813097,41.9287491],[-73.3812656,41.9287345],[-73.3812215,41.92872],[-73.3811774,41.9287054],[-73.3811333,41.9286908],[-73.3810892,41.9286763],[-73.3810451,41.9286618],[-73.381001,41.9286472],[-73.3809569,41.9286327],[-73.3809128,41.9286182],[-73.3808686,41.9286037],[-73.3808245,41.9285891],[-73.3807804,41.9285746],[-73.3807363,41.9285601],[-73.3806921,41.9285456]]}},{"type":"Feature","properties":{"role":"apex","id":"t1-apex","corner":"t1","edge":"right","marker":0.09751,"quality":{"source":"ct-2023","accuracy_m":0.35,"relative_accuracy_m":0.13,"measured":true,"date":"2023-04-13"}},"geometry":{"type":"Point","coordinates":[-73.3782579,41.9275662]}},{"type":"Feature","properties":{"role":"geometric_apex","id":"t1-geometric-apex","corner":"t1","edge":"right","marker":0.09064,"quality":{"source":"ct-2023","accuracy_m":0.35,"relative_accuracy_m":0.13,"measured":true,"date":"2023-04-13"}},"geometry":{"type":"Point","coordinates":[-73.378381,41.9276546]}},{"type":"Feature","properties":{"role":"apex","id":"t2-apex","corner":"t2","edge":"right","marker":0.17118,"quality":{"source":"ct-2023","accuracy_m":0.35,"relative_accuracy_m":0.13,"measured":true,"date":"2023-04-13"}},"geometry":{"type":"Point","coordinates":[-73.3787744,41.9264133]}},{"type":"Feature","properties":{"role":"geometric_apex","id":"t2-geometric-apex","corner":"t2","edge":"right","marker":0.18141,"quality":{"source":"ct-2023","accuracy_m":0.35,"relative_accuracy_m":0.13,"measured":true,"date":"2023-04-13"}},"geometry":{"type":"Point","coordinates":[-73.3790363,41.9264289]}},{"type":"Feature","properties":{"role":"apex","id":"t3-apex","corner":"t3","edge":"left","marker":0.24409,"quality":{"source":"ct-2023","accuracy_m":0.35,"relative_accuracy_m":0.13,"measured":true,"date":"2023-04-13"}},"geometry":{"type":"Point","coordinates":[-73.3806393,41.9269652]}},{"type":"Feature","properties":{"role":"geometric_apex","id":"t3-geometric-apex","corner":"t3","edge":"left","marker":0.27555,"quality":{"source":"ct-2023","accuracy_m":0.35,"relative_accuracy_m":0.13,"measured":true,"date":"2023-04-13"}},"geometry":{"type":"Point","coordinates":[-73.3813689,41.926737]}},{"type":"Feature","properties":{"role":"apex","id":"t4-apex","corner":"t4","edge":"right","marker":0.31802,"quality":{"source":"ct-2023","accuracy_m":0.35,"relative_accuracy_m":0.13,"measured":true,"date":"2023-04-13"}},"geometry":{"type":"Point","coordinates":[-73.3815726,41.9258844]}},{"type":"Feature","properties":{"role":"geometric_apex","id":"t4-geometric-apex","corner":"t4","edge":"right","marker":0.33085,"quality":{"source":"ct-2023","accuracy_m":0.35,"relative_accuracy_m":0.13,"measured":true,"date":"2023-04-13"}},"geometry":{"type":"Point","coordinates":[-73.381702,41.9256603]}},{"type":"Feature","properties":{"role":"apex","id":"t5-apex","corner":"t5","edge":"right","marker":0.49938,"quality":{"source":"ct-2023","accuracy_m":0.35,"relative_accuracy_m":0.13,"measured":true,"date":"2023-04-13"}},"geometry":{"type":"Point","coordinates":[-73.3862257,41.9251821]}},{"type":"Feature","properties":{"role":"geometric_apex","id":"t5-geometric-apex","corner":"t5","edge":"right","marker":0.49887,"quality":{"source":"ct-2023","accuracy_m":0.35,"relative_accuracy_m":0.13,"measured":true,"date":"2023-04-13"}},"geometry":{"type":"Point","coordinates":[-73.3862208,41.9251791]}},{"type":"Feature","properties":{"role":"apex","id":"t6-apex","corner":"t6","edge":"right","marker":0.66556,"quality":{"source":"ct-2023","accuracy_m":0.35,"relative_accuracy_m":0.13,"measured":true,"date":"2023-04-13"}},"geometry":{"type":"Point","coordinates":[-73.3885457,41.9280442]}},{"type":"Feature","properties":{"role":"geometric_apex","id":"t6-geometric-apex","corner":"t6","edge":"right","marker":0.65253,"quality":{"source":"ct-2023","accuracy_m":0.35,"relative_accuracy_m":0.13,"measured":true,"date":"2023-04-13"}},"geometry":{"type":"Point","coordinates":[-73.3885579,41.9277936]}},{"type":"Feature","properties":{"role":"apex","id":"t7-apex","corner":"t7","edge":"right","marker":0.79097,"quality":{"source":"ct-2023","accuracy_m":0.35,"relative_accuracy_m":0.13,"measured":true,"date":"2023-04-13"}},"geometry":{"type":"Point","coordinates":[-73.386178,41.929942]}},{"type":"Feature","properties":{"role":"geometric_apex","id":"t7-geometric-apex","corner":"t7","edge":"right","marker":0.79058,"quality":{"source":"ct-2023","accuracy_m":0.35,"relative_accuracy_m":0.13,"measured":true,"date":"2023-04-13"}},"geometry":{"type":"Point","coordinates":[-73.3861871,41.9299392]}},{"type":"Feature","properties":{"role":"sector_boundary","id":"s1-start","marker":0.0,"width_m":12.75,"quality":{"source":"ct-2023","accuracy_m":0.35,"relative_accuracy_m":0.13,"measured":true,"date":"2023-04-13"},"range":"s1"},"geometry":{"type":"LineString","coordinates":[[-73.3806602,41.928555],[-73.3807224,41.92845]]}},{"type":"Feature","properties":{"role":"sector_boundary","id":"s2-start","marker":0.22939,"width_m":9.28,"quality":{"source":"ct-2023","accuracy_m":0.35,"relative_accuracy_m":0.13,"measured":true,"date":"2023-04-13"},"range":"s2"},"geometry":{"type":"LineString","coordinates":[[-73.3802656,41.9268656],[-73.3802134,41.9269395]]}},{"type":"Feature","properties":{"role":"sector_boundary","id":"s3-start","marker":0.62938,"width_m":12.01,"quality":{"source":"ct-2023","accuracy_m":0.35,"relative_accuracy_m":0.13,"measured":true,"date":"2023-04-13"},"range":"s3"},"geometry":{"type":"LineString","coordinates":[[-73.3884235,41.9273024],[-73.3882933,41.9273499]]}},{"type":"Feature","properties":{"role":"complex_entry","id":"bigbend-entry","marker":0.08515,"width_m":13.02,"quality":{"source":"ct-2023","accuracy_m":0.35,"relative_accuracy_m":0.13,"measured":true,"date":"2023-04-13"},"complex":"bigbend"},"geometry":{"type":"LineString","coordinates":[[-73.3784407,41.9278095],[-73.3785075,41.9277035]]}},{"type":"Feature","properties":{"role":"complex_exit","id":"bigbend-exit","marker":0.189,"width_m":10.4,"quality":{"source":"ct-2023","accuracy_m":0.35,"relative_accuracy_m":0.13,"measured":true,"date":"2023-04-13"},"complex":"bigbend"},"geometry":{"type":"LineString","coordinates":[[-73.3792798,41.9264117],[-73.3792227,41.9264951]]}}]}