{
  "type": "FeatureCollection",
  "features": [
    {
      "type": "Feature",
      "properties": {
        "role": "outline",
        "layout": "gp",
        "basis": "midline"
      },
      "geometry": {
        "type": "LineString",
        "coordinates": [
          [
            -97.6432535,
            30.134202
          ],
          [
            -97.6430994,
            30.1340962
          ],
          [
            -97.6429454,
            30.1339903
          ],
          [
            -97.6428795,
            30.1339465
          ],
          [
            -97.6427898,
            30.1338851
          ],
          [
            -97.6427035,
            30.1338272
          ],
          [
            -97.6426173,
            30.1337693
          ],
          [
            -97.6425315,
            30.1337109
          ],
          [
            -97.6424457,
            30.1336525
          ],
          [
            -97.6423485,
            30.1335849
          ],
          [
            -97.6421926,
            30.1334799
          ],
          [
            -97.6421826,
            30.1334775
          ],
          [
            -97.6421468,
            30.1334592
          ],
          [
            -97.6420744,
            30.133424
          ],
          [
            -97.6420642,
            30.133422
          ],
          [
            -97.6420469,
            30.1334121
          ],
          [
            -97.6420139,
            30.1333903
          ],
          [
            -97.641876,
            30.1332946
          ],
          [
            -97.641741,
            30.1331958
          ],
          [
            -97.6416427,
            30.1331294
          ],
          [
            -97.6415444,
            30.1330629
          ],
          [
            -97.6414182,
            30.1329762
          ],
          [
            -97.6412919,
            30.1328896
          ],
          [
            -97.6411693,
            30.1328062
          ],
          [
            -97.6410467,
            30.1327229
          ],
          [
            -97.6409416,
            30.1326494
          ],
          [
            -97.6409002,
            30.1326221
          ],
          [
            -97.6407825,
            30.1325481
          ],
          [
            -97.6406913,
            30.1324884
          ],
          [
            -97.6405692,
            30.1324045
          ],
          [
            -97.640447,
            30.1323206
          ],
          [
            -97.6403249,
            30.1322367
          ],
          [
            -97.6402266,
            30.1321702
          ],
          [
            -97.6401284,
            30.1321036
          ],
          [
            -97.6401203,
            30.132098
          ],
          [
            -97.6401126,
            30.1320921
          ],
          [
            -97.6401078,
            30.1320841
          ],
          [
            -97.6400859,
            30.1320649
          ],
          [
            -97.6400364,
            30.1320186
          ],
          [
            -97.6400219,
            30.1320057
          ],
          [
            -97.640015,
            30.1319991
          ],
          [
            -97.6400101,
            30.1319912
          ],
          [
            -97.6400021,
            30.1319854
          ],
          [
            -97.6399079,
            30.1319217
          ],
          [
            -97.6398137,
            30.131858
          ],
          [
            -97.6396759,
            30.1317623
          ],
          [
            -97.6396097,
            30.1317187
          ],
          [
            -97.6395287,
            30.1316624
          ],
          [
            -97.6394221,
            30.1315904
          ],
          [
            -97.6393156,
            30.1315185
          ],
          [
            -97.6392102,
            30.1314452
          ],
          [
            -97.639087,
            30.1313625
          ],
          [
            -97.6389646,
            30.1312789
          ],
          [
            -97.6389323,
            30.1312562
          ],
          [
            -97.6388503,
            30.131201
          ],
          [
            -97.6387283,
            30.1311169
          ],
          [
            -97.6386626,
            30.1310728
          ],
          [
            -97.6385734,
            30.1310109
          ],
          [
            -97.6385486,
            30.1309945
          ],
          [
            -97.6385401,
            30.1309895
          ],
          [
            -97.6385301,
            30.1309872
          ],
          [
            -97.6384314,
            30.1309373
          ],
          [
            -97.6384223,
            30.1309331
          ],
          [
            -97.6384124,
            30.1309306
          ],
          [
            -97.6383468,
            30.1308864
          ],
          [
            -97.6382251,
            30.130802
          ],
          [
            -97.6381143,
            30.1307274
          ],
          [
            -97.6380036,
            30.1306528
          ],
          [
            -97.637947,
            30.1306133
          ],
          [
            -97.6378035,
            30.1305164
          ],
          [
            -97.6376601,
            30.1304196
          ],
          [
            -97.6376091,
            30.1303886
          ],
          [
            -97.6375104,
            30.1303302
          ],
          [
            -97.6374117,
            30.1302718
          ],
          [
            -97.6374033,
            30.1302666
          ],
          [
            -97.6373963,
            30.13026
          ],
          [
            -97.6373367,
            30.1302239
          ],
          [
            -97.6373015,
            30.1302048
          ],
          [
            -97.6372385,
            30.1301734
          ],
          [
            -97.6371531,
            30.130122
          ],
          [
            -97.6371439,
            30.1301179
          ],
          [
            -97.6370814,
            30.1300858
          ],
          [
            -97.6370726,
            30.1300809
          ],
          [
            -97.6370658,
            30.1300742
          ],
          [
            -97.6370555,
            30.1300731
          ],
          [
            -97.6370271,
            30.1300621
          ],
          [
            -97.6370071,
            30.130057
          ],
          [
            -97.6369764,
            30.130053
          ],
          [
            -97.6369557,
            30.1300518
          ],
          [
            -97.6369349,
            30.1300519
          ],
          [
            -97.6369142,
            30.1300532
          ],
          [
            -97.6368936,
            30.1300556
          ],
          [
            -97.6368733,
            30.1300594
          ],
          [
            -97.6368634,
            30.1300621
          ],
          [
            -97.6368443,
            30.130069
          ],
          [
            -97.6368353,
            30.1300736
          ],
          [
            -97.6368187,
            30.1300844
          ],
          [
            -97.6368114,
            30.1300907
          ],
          [
            -97.6368046,
            30.1300975
          ],
          [
            -97.6367981,
            30.1301046
          ],
          [
            -97.6367873,
            30.13012
          ],
          [
            -97.6367829,
            30.1301281
          ],
          [
            -97.6367792,
            30.1301366
          ],
          [
            -97.636776,
            30.1301451
          ],
          [
            -97.6367732,
            30.1301538
          ],
          [
            -97.6367713,
            30.1301627
          ],
          [
            -97.6367698,
            30.1301716
          ],
          [
            -97.6367694,
            30.1301806
          ],
          [
            -97.6367707,
            30.1301986
          ],
          [
            -97.636774,
            30.1302164
          ],
          [
            -97.636776,
            30.1302252
          ],
          [
            -97.6367816,
            30.1302426
          ],
          [
            -97.6368233,
            30.1303589
          ],
          [
            -97.636865,
            30.1304751
          ],
          [
            -97.6368995,
            30.1305602
          ],
          [
            -97.6369217,
            30.1306203
          ],
          [
            -97.6369583,
            30.1307047
          ],
          [
            -97.6369846,
            30.1307732
          ],
          [
            -97.6370396,
            30.1309094
          ],
          [
            -97.6370916,
            30.1310417
          ],
          [
            -97.6371435,
            30.131174
          ],
          [
            -97.6371993,
            30.13131
          ],
          [
            -97.6372251,
            30.1313786
          ],
          [
            -97.6372493,
            30.1314381
          ],
          [
            -97.6372928,
            30.1315491
          ],
          [
            -97.637308,
            30.1315922
          ],
          [
            -97.6373234,
            30.1316447
          ],
          [
            -97.6373299,
            30.1316711
          ],
          [
            -97.6373375,
            30.1317158
          ],
          [
            -97.6373402,
            30.1317427
          ],
          [
            -97.6373426,
            30.1317878
          ],
          [
            -97.6373431,
            30.1318238
          ],
          [
            -97.6373421,
            30.1318599
          ],
          [
            -97.6373388,
            30.1319049
          ],
          [
            -97.6373356,
            30.1319318
          ],
          [
            -97.6373299,
            30.1319676
          ],
          [
            -97.6373208,
            30.132012
          ],
          [
            -97.6373121,
            30.1320473
          ],
          [
            -97.6373021,
            30.1320823
          ],
          [
            -97.6372882,
            30.1321257
          ],
          [
            -97.6372756,
            30.1321601
          ],
          [
            -97.6372612,
            30.1321939
          ],
          [
            -97.6372413,
            30.1322356
          ],
          [
            -97.6372239,
            30.1322684
          ],
          [
            -97.637205,
            30.1323005
          ],
          [
            -97.6371698,
            30.1323557
          ],
          [
            -97.6371421,
            30.1323938
          ],
          [
            -97.6371188,
            30.1324237
          ],
          [
            -97.6370945,
            30.132453
          ],
          [
            -97.6370558,
            30.1324953
          ],
          [
            -97.6370352,
            30.1325157
          ],
          [
            -97.6370139,
            30.1325354
          ],
          [
            -97.6369692,
            30.1325731
          ],
          [
            -97.6369151,
            30.1326152
          ],
          [
            -97.636874,
            30.1326427
          ],
          [
            -97.6368224,
            30.132673
          ],
          [
            -97.636725,
            30.1327248
          ],
          [
            -97.6366728,
            30.1327542
          ],
          [
            -97.6366199,
            30.1327829
          ],
          [
            -97.6365307,
            30.1328289
          ],
          [
            -97.6364603,
            30.1328672
          ],
          [
            -97.636389,
            30.1329041
          ],
          [
            -97.6362473,
            30.1329795
          ],
          [
            -97.6362026,
            30.1330023
          ],
          [
            -97.6361235,
            30.1330455
          ],
          [
            -97.6360703,
            30.1330737
          ],
          [
            -97.6359543,
            30.1331335
          ],
          [
            -97.635813,
            30.1332094
          ],
          [
            -97.6356974,
            30.1332698
          ],
          [
            -97.6356448,
            30.1332988
          ],
          [
            -97.6355555,
            30.1333447
          ],
          [
            -97.6354674,
            30.1333924
          ],
          [
            -97.6354061,
            30.1334263
          ],
          [
            -97.635388,
            30.1334351
          ],
          [
            -97.6353596,
            30.1334462
          ],
          [
            -97.6353503,
            30.1334501
          ],
          [
            -97.6353415,
            30.133455
          ],
          [
            -97.6353247,
            30.1334655
          ],
          [
            -97.6352426,
            30.1335207
          ],
          [
            -97.6351961,
            30.1335566
          ],
          [
            -97.6351662,
            30.1335817
          ],
          [
            -97.6351446,
            30.1336012
          ],
          [
            -97.6351171,
            30.1336282
          ],
          [
            -97.6350913,
            30.1336565
          ],
          [
            -97.6350732,
            30.1336785
          ],
          [
            -97.6350559,
            30.133701
          ],
          [
            -97.6350237,
            30.1337473
          ],
          [
            -97.6349988,
            30.1337869
          ],
          [
            -97.6349771,
            30.1338278
          ],
          [
            -97.6349539,
            30.1338781
          ],
          [
            -97.6349059,
            30.133978
          ],
          [
            -97.6348839,
            30.1340286
          ],
          [
            -97.634826,
            30.1341542
          ],
          [
            -97.6348221,
            30.1341626
          ],
          [
            -97.6347963,
            30.1342118
          ],
          [
            -97.6347722,
            30.1342517
          ],
          [
            -97.6347615,
            30.1342672
          ],
          [
            -97.6347445,
            30.1342899
          ],
          [
            -97.6347143,
            30.1343265
          ],
          [
            -97.6347011,
            30.1343405
          ],
          [
            -97.6346803,
            30.1343606
          ],
          [
            -97.6346438,
            30.1343927
          ],
          [
            -97.6346209,
            30.134411
          ],
          [
            -97.6346049,
            30.1344225
          ],
          [
            -97.6345884,
            30.1344335
          ],
          [
            -97.6345628,
            30.1344489
          ],
          [
            -97.6345186,
            30.1344724
          ],
          [
            -97.6344726,
            30.1344932
          ],
          [
            -97.6344159,
            30.1345157
          ],
          [
            -97.6343774,
            30.1345292
          ],
          [
            -97.6342903,
            30.1345585
          ],
          [
            -97.6342038,
            30.1345892
          ],
          [
            -97.6341457,
            30.1346086
          ],
          [
            -97.6341074,
            30.1346225
          ],
          [
            -97.6340794,
            30.1346344
          ],
          [
            -97.6340613,
            30.1346431
          ],
          [
            -97.6340259,
            30.134662
          ],
          [
            -97.6339748,
            30.1346929
          ],
          [
            -97.6339504,
            30.1347098
          ],
          [
            -97.6339268,
            30.1347273
          ],
          [
            -97.6338899,
            30.134759
          ],
          [
            -97.6338697,
            30.1347796
          ],
          [
            -97.6338506,
            30.134801
          ],
          [
            -97.6338268,
            30.1348306
          ],
          [
            -97.6338162,
            30.1348461
          ],
          [
            -97.6337971,
            30.1348781
          ],
          [
            -97.6337759,
            30.1349193
          ],
          [
            -97.6337718,
            30.1349276
          ],
          [
            -97.6337603,
            30.1349527
          ],
          [
            -97.6337537,
            30.1349698
          ],
          [
            -97.6337402,
            30.1350134
          ],
          [
            -97.6337356,
            30.135031
          ],
          [
            -97.6337255,
            30.1350752
          ],
          [
            -97.6337189,
            30.1351108
          ],
          [
            -97.6337131,
            30.1351374
          ],
          [
            -97.6337115,
            30.1351463
          ],
          [
            -97.6337064,
            30.1352002
          ],
          [
            -97.6336831,
            30.1353704
          ],
          [
            -97.6336817,
            30.1353794
          ],
          [
            -97.6336765,
            30.1354061
          ],
          [
            -97.6336675,
            30.1354413
          ],
          [
            -97.6336591,
            30.1354673
          ],
          [
            -97.6336368,
            30.1355274
          ],
          [
            -97.6336182,
            30.1355695
          ],
          [
            -97.6335965,
            30.1356105
          ],
          [
            -97.6335674,
            30.1356583
          ],
          [
            -97.6335351,
            30.1357046
          ],
          [
            -97.6335111,
            30.135734
          ],
          [
            -97.6334851,
            30.1357622
          ],
          [
            -97.6334311,
            30.135817
          ],
          [
            -97.6333943,
            30.1358488
          ],
          [
            -97.6333405,
            30.1358912
          ],
          [
            -97.6333008,
            30.1359202
          ],
          [
            -97.6332099,
            30.1359803
          ],
          [
            -97.6331497,
            30.1360156
          ],
          [
            -97.6330886,
            30.1360498
          ],
          [
            -97.6330798,
            30.1360546
          ],
          [
            -97.633044,
            30.1360728
          ],
          [
            -97.6329888,
            30.1360978
          ],
          [
            -97.6329419,
            30.1361171
          ],
          [
            -97.6328943,
            30.1361351
          ],
          [
            -97.6328652,
            30.1361447
          ],
          [
            -97.6328162,
            30.1361597
          ],
          [
            -97.6327571,
            30.1361767
          ],
          [
            -97.632717,
            30.1361858
          ],
          [
            -97.6326662,
            30.1361949
          ],
          [
            -97.6326252,
            30.1362008
          ],
          [
            -97.6325942,
            30.1362034
          ],
          [
            -97.6325008,
            30.1362042
          ],
          [
            -97.6324697,
            30.1362034
          ],
          [
            -97.6324491,
            30.1362017
          ],
          [
            -97.6324183,
            30.1361973
          ],
          [
            -97.632388,
            30.1361911
          ],
          [
            -97.632338,
            30.1361792
          ],
          [
            -97.6323083,
            30.1361711
          ],
          [
            -97.632279,
            30.136162
          ],
          [
            -97.6322117,
            30.1361381
          ],
          [
            -97.632116,
            30.1361032
          ],
          [
            -97.6320402,
            30.1360738
          ],
          [
            -97.6319933,
            30.1360545
          ],
          [
            -97.6319365,
            30.1360323
          ],
          [
            -97.631815,
            30.1359814
          ],
          [
            -97.6317387,
            30.135953
          ],
          [
            -97.6316832,
            30.1359284
          ],
          [
            -97.6316456,
            30.135913
          ],
          [
            -97.6315213,
            30.1358675
          ],
          [
            -97.6314222,
            30.1358281
          ],
          [
            -97.6313231,
            30.1357886
          ],
          [
            -97.6312466,
            30.1357607
          ],
          [
            -97.6312169,
            30.1357525
          ],
          [
            -97.6312069,
            30.1357503
          ],
          [
            -97.6311967,
            30.1357484
          ],
          [
            -97.6311865,
            30.1357471
          ],
          [
            -97.6311762,
            30.1357459
          ],
          [
            -97.6311658,
            30.1357452
          ],
          [
            -97.6311555,
            30.1357447
          ],
          [
            -97.6311347,
            30.1357448
          ],
          [
            -97.6311244,
            30.1357458
          ],
          [
            -97.631104,
            30.1357492
          ],
          [
            -97.6310939,
            30.1357512
          ],
          [
            -97.6310839,
            30.1357534
          ],
          [
            -97.631064,
            30.1357587
          ],
          [
            -97.6310545,
            30.1357622
          ],
          [
            -97.6310079,
            30.1357821
          ],
          [
            -97.6309178,
            30.1358268
          ],
          [
            -97.6308739,
            30.1358509
          ],
          [
            -97.6308051,
            30.1358913
          ],
          [
            -97.6307633,
            30.135918
          ],
          [
            -97.6306813,
            30.1359733
          ],
          [
            -97.6306574,
            30.1359907
          ],
          [
            -97.6306186,
            30.1360206
          ],
          [
            -97.630558,
            30.13607
          ],
          [
            -97.6305139,
            30.1361081
          ],
          [
            -97.6304713,
            30.1361476
          ],
          [
            -97.6304161,
            30.1362015
          ],
          [
            -97.6303627,
            30.1362568
          ],
          [
            -97.6303306,
            30.1362922
          ],
          [
            -97.6303001,
            30.1363287
          ],
          [
            -97.6302419,
            30.1364034
          ],
          [
            -97.6302044,
            30.1364466
          ],
          [
            -97.6301775,
            30.1364741
          ],
          [
            -97.6301561,
            30.1364937
          ],
          [
            -97.6301333,
            30.1365121
          ],
          [
            -97.6301094,
            30.1365295
          ],
          [
            -97.6300761,
            30.1365511
          ],
          [
            -97.6300498,
            30.1365654
          ],
          [
            -97.6299946,
            30.1365905
          ],
          [
            -97.6299567,
            30.1366053
          ],
          [
            -97.6299274,
            30.1366143
          ],
          [
            -97.6298974,
            30.1366216
          ],
          [
            -97.6298465,
            30.1366306
          ],
          [
            -97.6298056,
            30.1366367
          ],
          [
            -97.6297849,
            30.1366381
          ],
          [
            -97.6297642,
            30.1366383
          ],
          [
            -97.6297123,
            30.1366372
          ],
          [
            -97.6296916,
            30.136636
          ],
          [
            -97.6296505,
            30.1366311
          ],
          [
            -97.6295996,
            30.1366224
          ],
          [
            -97.6295697,
            30.1366148
          ],
          [
            -97.6295216,
            30.1365979
          ],
          [
            -97.6294747,
            30.1365786
          ],
          [
            -97.6294388,
            30.1365605
          ],
          [
            -97.6293961,
            30.1365349
          ],
          [
            -97.6293797,
            30.1365238
          ],
          [
            -97.6293562,
            30.1365061
          ],
          [
            -97.6293412,
            30.1364936
          ],
          [
            -97.6293197,
            30.136474
          ],
          [
            -97.6292861,
            30.1364397
          ],
          [
            -97.6292555,
            30.1364032
          ],
          [
            -97.6292393,
            30.1363802
          ],
          [
            -97.6292018,
            30.1363158
          ],
          [
            -97.6291771,
            30.1362761
          ],
          [
            -97.6291593,
            30.1362539
          ],
          [
            -97.629146,
            30.1362401
          ],
          [
            -97.6291386,
            30.1362338
          ],
          [
            -97.6291226,
            30.1362222
          ],
          [
            -97.6290974,
            30.1362064
          ],
          [
            -97.6290888,
            30.1362014
          ],
          [
            -97.6290705,
            30.1361929
          ],
          [
            -97.6290516,
            30.1361854
          ],
          [
            -97.6290321,
            30.1361793
          ],
          [
            -97.6290119,
            30.1361751
          ],
          [
            -97.6289812,
            30.1361708
          ],
          [
            -97.6289605,
            30.1361693
          ],
          [
            -97.6289294,
            30.1361704
          ],
          [
            -97.6289088,
            30.1361722
          ],
          [
            -97.6288883,
            30.136175
          ],
          [
            -97.6287511,
            30.1361999
          ],
          [
            -97.628614,
            30.1362248
          ],
          [
            -97.6284622,
            30.1362548
          ],
          [
            -97.6283252,
            30.1362805
          ],
          [
            -97.6281883,
            30.1363062
          ],
          [
            -97.6280212,
            30.1363387
          ],
          [
            -97.627854,
            30.1363712
          ],
          [
            -97.6277171,
            30.1363969
          ],
          [
            -97.6275801,
            30.1364225
          ],
          [
            -97.6273775,
            30.1364617
          ],
          [
            -97.6273165,
            30.1364725
          ],
          [
            -97.6272152,
            30.1364922
          ],
          [
            -97.6271644,
            30.1365014
          ],
          [
            -97.6271242,
            30.1365101
          ],
          [
            -97.6270943,
            30.1365177
          ],
          [
            -97.6270649,
            30.1365268
          ],
          [
            -97.6270459,
            30.1365339
          ],
          [
            -97.6270181,
            30.1365461
          ],
          [
            -97.6269917,
            30.1365604
          ],
          [
            -97.6269667,
            30.1365766
          ],
          [
            -97.6269437,
            30.1365948
          ],
          [
            -97.6269149,
            30.1366208
          ],
          [
            -97.6268481,
            30.1366898
          ],
          [
            -97.6268071,
            30.1367305
          ],
          [
            -97.6266822,
            30.1368632
          ],
          [
            -97.6266151,
            30.136932
          ],
          [
            -97.6265157,
            30.1370361
          ],
          [
            -97.62647,
            30.1370852
          ],
          [
            -97.6263834,
            30.1371751
          ],
          [
            -97.6263078,
            30.1372554
          ],
          [
            -97.6262322,
            30.1373357
          ],
          [
            -97.6261523,
            30.1374187
          ],
          [
            -97.6260597,
            30.137516
          ],
          [
            -97.6260008,
            30.1375791
          ],
          [
            -97.6259472,
            30.1376341
          ],
          [
            -97.6258887,
            30.1376975
          ],
          [
            -97.6258484,
            30.1377387
          ],
          [
            -97.6258156,
            30.1377737
          ],
          [
            -97.6257752,
            30.1378148
          ],
          [
            -97.6256768,
            30.1379197
          ],
          [
            -97.6255632,
            30.138037
          ],
          [
            -97.6254447,
            30.1381626
          ],
          [
            -97.6253838,
            30.1382241
          ],
          [
            -97.6253111,
            30.1383006
          ],
          [
            -97.6252383,
            30.1383771
          ],
          [
            -97.625198,
            30.1384183
          ],
          [
            -97.6251587,
            30.1384603
          ],
          [
            -97.6250518,
            30.1385707
          ],
          [
            -97.6249737,
            30.1386551
          ],
          [
            -97.6249422,
            30.1386909
          ],
          [
            -97.6248631,
            30.1387859
          ],
          [
            -97.6248255,
            30.138829
          ],
          [
            -97.6247346,
            30.1389389
          ],
          [
            -97.6247049,
            30.1389759
          ],
          [
            -97.6246984,
            30.1389828
          ],
          [
            -97.6246903,
            30.1389883
          ],
          [
            -97.6246377,
            30.1390441
          ],
          [
            -97.6245492,
            30.1391327
          ],
          [
            -97.6245298,
            30.1391538
          ],
          [
            -97.6245118,
            30.1391759
          ],
          [
            -97.6244962,
            30.1391994
          ],
          [
            -97.6244877,
            30.1392158
          ],
          [
            -97.6244777,
            30.1392414
          ],
          [
            -97.6244732,
            30.139259
          ],
          [
            -97.6244709,
            30.139277
          ],
          [
            -97.6244707,
            30.139295
          ],
          [
            -97.6244716,
            30.139304
          ],
          [
            -97.624473,
            30.1393129
          ],
          [
            -97.6244749,
            30.1393217
          ],
          [
            -97.6244803,
            30.1393392
          ],
          [
            -97.6244874,
            30.1393561
          ],
          [
            -97.6244916,
            30.1393643
          ],
          [
            -97.6244967,
            30.1393721
          ],
          [
            -97.6245033,
            30.139379
          ],
          [
            -97.6245128,
            30.139395
          ],
          [
            -97.6245189,
            30.1394023
          ],
          [
            -97.6245259,
            30.1394089
          ],
          [
            -97.6245338,
            30.1394148
          ],
          [
            -97.6245423,
            30.1394199
          ],
          [
            -97.6245514,
            30.1394242
          ],
          [
            -97.624561,
            30.1394277
          ],
          [
            -97.624581,
            30.1394327
          ],
          [
            -97.6246015,
            30.1394351
          ],
          [
            -97.6246222,
            30.1394346
          ],
          [
            -97.6246325,
            30.1394333
          ],
          [
            -97.6247345,
            30.1394169
          ],
          [
            -97.6247854,
            30.1394079
          ],
          [
            -97.6248162,
            30.1394039
          ],
          [
            -97.6248781,
            30.1393981
          ],
          [
            -97.6248985,
            30.1393949
          ],
          [
            -97.6249186,
            30.1393904
          ],
          [
            -97.6249285,
            30.1393876
          ],
          [
            -97.6249481,
            30.1393817
          ],
          [
            -97.6250555,
            30.139348
          ],
          [
            -97.6252333,
            30.1392982
          ],
          [
            -97.6253018,
            30.1392774
          ],
          [
            -97.6254109,
            30.139248
          ],
          [
            -97.625544,
            30.13921
          ],
          [
            -97.6256771,
            30.139172
          ],
          [
            -97.6258352,
            30.1391279
          ],
          [
            -97.6259442,
            30.1390985
          ],
          [
            -97.626033,
            30.1390732
          ],
          [
            -97.6261125,
            30.1390524
          ],
          [
            -97.6262908,
            30.139004
          ],
          [
            -97.6264348,
            30.1389661
          ],
          [
            -97.6265788,
            30.1389281
          ],
          [
            -97.6267281,
            30.1388898
          ],
          [
            -97.6268774,
            30.1388515
          ],
          [
            -97.6270205,
            30.1388159
          ],
          [
            -97.6271635,
            30.1387804
          ],
          [
            -97.6273065,
            30.1387448
          ],
          [
            -97.6275016,
            30.138698
          ],
          [
            -97.6276967,
            30.1386512
          ],
          [
            -97.6278472,
            30.1386169
          ],
          [
            -97.627978,
            30.1385881
          ],
          [
            -97.6280884,
            30.1385628
          ],
          [
            -97.6282897,
            30.1385189
          ],
          [
            -97.6284911,
            30.1384749
          ],
          [
            -97.6286272,
            30.1384461
          ],
          [
            -97.6287633,
            30.1384172
          ],
          [
            -97.6289249,
            30.1383842
          ],
          [
            -97.6290866,
            30.1383511
          ],
          [
            -97.629225,
            30.1383242
          ],
          [
            -97.6293634,
            30.1382972
          ],
          [
            -97.6295018,
            30.1382703
          ],
          [
            -97.6296894,
            30.1382348
          ],
          [
            -97.629877,
            30.1381993
          ],
          [
            -97.6300498,
            30.1381684
          ],
          [
            -97.6302226,
            30.1381374
          ],
          [
            -97.6303779,
            30.138111
          ],
          [
            -97.6305332,
            30.1380845
          ],
          [
            -97.6306885,
            30.138058
          ],
          [
            -97.6308438,
            30.1380315
          ],
          [
            -97.6309816,
            30.1380093
          ],
          [
            -97.6311193,
            30.1379871
          ],
          [
            -97.6313237,
            30.1379556
          ],
          [
            -97.6314771,
            30.1379327
          ],
          [
            -97.6316306,
            30.1379098
          ],
          [
            -97.631784,
            30.1378868
          ],
          [
            -97.631931,
            30.1378669
          ],
          [
            -97.6320779,
            30.1378469
          ],
          [
            -97.6322249,
            30.1378269
          ],
          [
            -97.6323273,
            30.1378125
          ],
          [
            -97.6324814,
            30.137793
          ],
          [
            -97.6326354,
            30.1377736
          ],
          [
            -97.6326969,
            30.137765
          ],
          [
            -97.6327484,
            30.1377592
          ],
          [
            -97.6328306,
            30.137749
          ],
          [
            -97.6328821,
            30.1377434
          ],
          [
            -97.6329539,
            30.1377343
          ],
          [
            -97.6330877,
            30.1377191
          ],
          [
            -97.6332215,
            30.1377039
          ],
          [
            -97.6333811,
            30.1376864
          ],
          [
            -97.6335407,
            30.137669
          ],
          [
            -97.6336542,
            30.1376583
          ],
          [
            -97.6337882,
            30.1376443
          ],
          [
            -97.6338708,
            30.1376371
          ],
          [
            -97.6339532,
            30.1376286
          ],
          [
            -97.6341115,
            30.1376139
          ],
          [
            -97.6342697,
            30.1375992
          ],
          [
            -97.6344279,
            30.1375845
          ],
          [
            -97.6344898,
            30.1375782
          ],
          [
            -97.6345724,
            30.1375712
          ],
          [
            -97.634727,
            30.1375556
          ],
          [
            -97.6348767,
            30.1375418
          ],
          [
            -97.6350263,
            30.1375279
          ],
          [
            -97.6350987,
            30.1375225
          ],
          [
            -97.6351811,
            30.1375138
          ],
          [
            -97.6353461,
            30.1374974
          ],
          [
            -97.6354854,
            30.1374848
          ],
          [
            -97.6356248,
            30.1374722
          ],
          [
            -97.6357279,
            30.1374621
          ],
          [
            -97.6358822,
            30.1374443
          ],
          [
            -97.6360366,
            30.1374265
          ],
          [
            -97.6362009,
            30.1374061
          ],
          [
            -97.636273,
            30.1373981
          ],
          [
            -97.6364066,
            30.1373816
          ],
          [
            -97.6364787,
            30.1373738
          ],
          [
            -97.636499,
            30.1373704
          ],
          [
            -97.636509,
            30.137368
          ],
          [
            -97.6365282,
            30.1373611
          ],
          [
            -97.6365373,
            30.1373568
          ],
          [
            -97.6365551,
            30.1373476
          ],
          [
            -97.6365717,
            30.1373367
          ],
          [
            -97.6365794,
            30.1373307
          ],
          [
            -97.6365932,
            30.1373172
          ],
          [
            -97.6365992,
            30.1373099
          ],
          [
            -97.6366044,
            30.1373021
          ],
          [
            -97.6366084,
            30.1372938
          ],
          [
            -97.636611,
            30.137285
          ],
          [
            -97.6366123,
            30.1372761
          ],
          [
            -97.6366126,
            30.1372671
          ],
          [
            -97.6366109,
            30.1372491
          ],
          [
            -97.6366078,
            30.1372313
          ],
          [
            -97.6366033,
            30.1372137
          ],
          [
            -97.6365999,
            30.1372052
          ],
          [
            -97.6365953,
            30.1371971
          ],
          [
            -97.6365832,
            30.1371825
          ],
          [
            -97.636556,
            30.1371552
          ],
          [
            -97.6365364,
            30.1371342
          ],
          [
            -97.6364934,
            30.1370833
          ],
          [
            -97.6364679,
            30.1370548
          ],
          [
            -97.636409,
            30.1369918
          ],
          [
            -97.6363676,
            30.1369514
          ],
          [
            -97.636296,
            30.1368741
          ],
          [
            -97.6362456,
            30.1368167
          ],
          [
            -97.6362004,
            30.1367673
          ],
          [
            -97.6361637,
            30.1367236
          ],
          [
            -97.6361136,
            30.1366661
          ],
          [
            -97.6360644,
            30.1366079
          ],
          [
            -97.6360043,
            30.1365344
          ],
          [
            -97.6359543,
            30.1364768
          ],
          [
            -97.6358383,
            30.1363272
          ],
          [
            -97.6357553,
            30.1362235
          ],
          [
            -97.6356988,
            30.1361479
          ],
          [
            -97.6356304,
            30.1360521
          ],
          [
            -97.635562,
            30.1359563
          ],
          [
            -97.6355357,
            30.1359174
          ],
          [
            -97.6355053,
            30.1358701
          ],
          [
            -97.6354738,
            30.1358234
          ],
          [
            -97.6354638,
            30.1358076
          ],
          [
            -97.6354549,
            30.1357913
          ],
          [
            -97.6354473,
            30.1357745
          ],
          [
            -97.6354412,
            30.1357573
          ],
          [
            -97.6354369,
            30.1357396
          ],
          [
            -97.635435,
            30.1357217
          ],
          [
            -97.6354352,
            30.1357037
          ],
          [
            -97.6354367,
            30.1356857
          ],
          [
            -97.6354431,
            30.1356592
          ],
          [
            -97.6354485,
            30.1356418
          ],
          [
            -97.6354519,
            30.1356333
          ],
          [
            -97.6354607,
            30.135617
          ],
          [
            -97.6354775,
            30.1355942
          ],
          [
            -97.6354973,
            30.1355733
          ],
          [
            -97.6355121,
            30.1355607
          ],
          [
            -97.6355282,
            30.1355492
          ],
          [
            -97.6355366,
            30.135544
          ],
          [
            -97.6355545,
            30.1355349
          ],
          [
            -97.635583,
            30.135524
          ],
          [
            -97.6356127,
            30.1355161
          ],
          [
            -97.6356434,
            30.1355116
          ],
          [
            -97.6356745,
            30.1355101
          ],
          [
            -97.6357368,
            30.1355096
          ],
          [
            -97.6357988,
            30.1355145
          ],
          [
            -97.6358091,
            30.135515
          ],
          [
            -97.6359128,
            30.1355195
          ],
          [
            -97.6359852,
            30.1355241
          ],
          [
            -97.6360371,
            30.1355252
          ],
          [
            -97.636099,
            30.1355314
          ],
          [
            -97.6361922,
            30.1355362
          ],
          [
            -97.6362334,
            30.1355403
          ],
          [
            -97.636264,
            30.1355454
          ],
          [
            -97.636294,
            30.1355527
          ],
          [
            -97.636323,
            30.1355625
          ],
          [
            -97.6363415,
            30.1355706
          ],
          [
            -97.6363593,
            30.1355799
          ],
          [
            -97.6363848,
            30.1355955
          ],
          [
            -97.6364092,
            30.1356122
          ],
          [
            -97.6364246,
            30.1356243
          ],
          [
            -97.6364457,
            30.1356442
          ],
          [
            -97.6364584,
            30.1356584
          ],
          [
            -97.63647,
            30.1356734
          ],
          [
            -97.636475,
            30.1356813
          ],
          [
            -97.6364845,
            30.1356974
          ],
          [
            -97.6364966,
            30.1357223
          ],
          [
            -97.636553,
            30.135858
          ],
          [
            -97.6365897,
            30.1359424
          ],
          [
            -97.6366206,
            30.1360094
          ],
          [
            -97.6366335,
            30.136034
          ],
          [
            -97.6366527,
            30.136066
          ],
          [
            -97.6366794,
            30.1361047
          ],
          [
            -97.6366964,
            30.1361273
          ],
          [
            -97.636721,
            30.1361564
          ],
          [
            -97.6367603,
            30.1361984
          ],
          [
            -97.6367875,
            30.1362256
          ],
          [
            -97.6368294,
            30.1362656
          ],
          [
            -97.6368907,
            30.136327
          ],
          [
            -97.6369269,
            30.1363593
          ],
          [
            -97.6369762,
            30.1364056
          ],
          [
            -97.6370554,
            30.1364771
          ],
          [
            -97.6370702,
            30.1364897
          ],
          [
            -97.6370934,
            30.1365078
          ],
          [
            -97.6371181,
            30.1365242
          ],
          [
            -97.6371267,
            30.1365292
          ],
          [
            -97.6371618,
            30.1365485
          ],
          [
            -97.6371893,
            30.1365612
          ],
          [
            -97.6372177,
            30.1365723
          ],
          [
            -97.6372564,
            30.1365853
          ],
          [
            -97.6372762,
            30.1365907
          ],
          [
            -97.6372965,
            30.1365946
          ],
          [
            -97.6373478,
            30.1366009
          ],
          [
            -97.6373893,
            30.1366034
          ],
          [
            -97.6374826,
            30.1366057
          ],
          [
            -97.6374925,
            30.136608
          ],
          [
            -97.6375026,
            30.1366091
          ],
          [
            -97.6375751,
            30.1366061
          ],
          [
            -97.6376165,
            30.1366028
          ],
          [
            -97.6376266,
            30.1366042
          ],
          [
            -97.6376361,
            30.1366023
          ],
          [
            -97.6376459,
            30.1365996
          ],
          [
            -97.6376662,
            30.1365961
          ],
          [
            -97.6376762,
            30.1365936
          ],
          [
            -97.6376959,
            30.1365879
          ],
          [
            -97.6377054,
            30.1365843
          ],
          [
            -97.6377147,
            30.1365804
          ],
          [
            -97.6377236,
            30.1365757
          ],
          [
            -97.6377321,
            30.1365706
          ],
          [
            -97.6377399,
            30.1365647
          ],
          [
            -97.637747,
            30.1365581
          ],
          [
            -97.6377532,
            30.1365509
          ],
          [
            -97.637764,
            30.1365355
          ],
          [
            -97.6377735,
            30.1365194
          ],
          [
            -97.6377776,
            30.1365112
          ],
          [
            -97.637781,
            30.1365026
          ],
          [
            -97.6377833,
            30.1364939
          ],
          [
            -97.6377842,
            30.1364849
          ],
          [
            -97.6377846,
            30.1364759
          ],
          [
            -97.6377845,
            30.1364669
          ],
          [
            -97.6377839,
            30.1364579
          ],
          [
            -97.6377818,
            30.1364399
          ],
          [
            -97.6377799,
            30.1364311
          ],
          [
            -97.6377775,
            30.1364223
          ],
          [
            -97.6377741,
            30.1364138
          ],
          [
            -97.6377702,
            30.1364054
          ],
          [
            -97.6377566,
            30.1363811
          ],
          [
            -97.6377257,
            30.1363341
          ],
          [
            -97.6377029,
            30.1362936
          ],
          [
            -97.6376837,
            30.1362616
          ],
          [
            -97.6376786,
            30.1362538
          ],
          [
            -97.6376417,
            30.1361993
          ],
          [
            -97.6375697,
            30.1360897
          ],
          [
            -97.6375589,
            30.1360743
          ],
          [
            -97.6375243,
            30.1360293
          ],
          [
            -97.6374817,
            30.1359673
          ],
          [
            -97.637451,
            30.1359203
          ],
          [
            -97.6373615,
            30.1357881
          ],
          [
            -97.6372992,
            30.1356944
          ],
          [
            -97.6372369,
            30.1356006
          ],
          [
            -97.6371943,
            30.1355387
          ],
          [
            -97.6371402,
            30.1354564
          ],
          [
            -97.6370862,
            30.1353742
          ],
          [
            -97.6370234,
            30.1352807
          ],
          [
            -97.6369726,
            30.1352021
          ],
          [
            -97.6369204,
            30.1351241
          ],
          [
            -97.636877,
            30.1350522
          ],
          [
            -97.6368545,
            30.1350115
          ],
          [
            -97.6368424,
            30.1349866
          ],
          [
            -97.6368375,
            30.1349787
          ],
          [
            -97.6368331,
            30.1349706
          ],
          [
            -97.6368266,
            30.1349534
          ],
          [
            -97.636824,
            30.1349447
          ],
          [
            -97.6368076,
            30.1348832
          ],
          [
            -97.6367988,
            30.1348387
          ],
          [
            -97.6367953,
            30.1348118
          ],
          [
            -97.6367924,
            30.1347578
          ],
          [
            -97.6367922,
            30.1347488
          ],
          [
            -97.6367924,
            30.1347307
          ],
          [
            -97.6367933,
            30.1347127
          ],
          [
            -97.6367974,
            30.1346768
          ],
          [
            -97.6368055,
            30.1346323
          ],
          [
            -97.6368165,
            30.1345882
          ],
          [
            -97.6368271,
            30.1345533
          ],
          [
            -97.63683,
            30.1345447
          ],
          [
            -97.6368395,
            30.1345189
          ],
          [
            -97.6368633,
            30.1344592
          ],
          [
            -97.6369347,
            30.1342995
          ],
          [
            -97.6369926,
            30.1341738
          ],
          [
            -97.6370009,
            30.1341573
          ],
          [
            -97.6370148,
            30.1341331
          ],
          [
            -97.6370303,
            30.1341096
          ],
          [
            -97.6370532,
            30.1340795
          ],
          [
            -97.6370785,
            30.134051
          ],
          [
            -97.6370994,
            30.1340309
          ],
          [
            -97.6371213,
            30.1340117
          ],
          [
            -97.6371365,
            30.1339994
          ],
          [
            -97.6371689,
            30.1339769
          ],
          [
            -97.6372032,
            30.1339565
          ],
          [
            -97.6372121,
            30.1339519
          ],
          [
            -97.6372484,
            30.1339344
          ],
          [
            -97.6373326,
            30.1338992
          ],
          [
            -97.6373893,
            30.1338768
          ],
          [
            -97.6375396,
            30.1338156
          ],
          [
            -97.6375952,
            30.1337911
          ],
          [
            -97.6376621,
            30.1337665
          ],
          [
            -97.637766,
            30.1337254
          ],
          [
            -97.6378318,
            30.1336987
          ],
          [
            -97.637899,
            30.1336747
          ],
          [
            -97.6379479,
            30.1336596
          ],
          [
            -97.6379678,
            30.1336545
          ],
          [
            -97.6379981,
            30.1336484
          ],
          [
            -97.6380288,
            30.1336439
          ],
          [
            -97.6380597,
            30.1336406
          ],
          [
            -97.6380804,
            30.1336392
          ],
          [
            -97.6381115,
            30.1336383
          ],
          [
            -97.638153,
            30.1336387
          ],
          [
            -97.6381945,
            30.1336401
          ],
          [
            -97.6382359,
            30.1336425
          ],
          [
            -97.6382876,
            30.1336467
          ],
          [
            -97.6383391,
            30.1336519
          ],
          [
            -97.6383802,
            30.1336571
          ],
          [
            -97.6384619,
            30.13367
          ],
          [
            -97.638553,
            30.1336879
          ],
          [
            -97.6386431,
            30.1337093
          ],
          [
            -97.6387124,
            30.1337283
          ],
          [
            -97.6388099,
            30.1337593
          ],
          [
            -97.6388484,
            30.1337728
          ],
          [
            -97.6388865,
            30.1337871
          ],
          [
            -97.6389614,
            30.1338181
          ],
          [
            -97.6389983,
            30.1338347
          ],
          [
            -97.6390346,
            30.1338522
          ],
          [
            -97.6390702,
            30.1338707
          ],
          [
            -97.6390964,
            30.1338853
          ],
          [
            -97.6391219,
            30.1339009
          ],
          [
            -97.639155,
            30.1339226
          ],
          [
            -97.6391951,
            30.1339512
          ],
          [
            -97.6392328,
            30.1339822
          ],
          [
            -97.639261,
            30.1340087
          ],
          [
            -97.6393002,
            30.1340508
          ],
          [
            -97.6393545,
            30.1341168
          ],
          [
            -97.6394159,
            30.1341951
          ],
          [
            -97.6394772,
            30.1342733
          ],
          [
            -97.6395547,
            30.1343693
          ],
          [
            -97.6396136,
            30.1344436
          ],
          [
            -97.6396561,
            30.1344948
          ],
          [
            -97.6397398,
            30.1345981
          ],
          [
            -97.6397949,
            30.1346636
          ],
          [
            -97.6398389,
            30.1347139
          ],
          [
            -97.6398996,
            30.134787
          ],
          [
            -97.6399693,
            30.1348656
          ],
          [
            -97.640039,
            30.1349442
          ],
          [
            -97.6401256,
            30.1350399
          ],
          [
            -97.6402122,
            30.1351357
          ],
          [
            -97.6402784,
            30.1352051
          ],
          [
            -97.6403304,
            30.1352614
          ],
          [
            -97.6404092,
            30.1353452
          ],
          [
            -97.6404897,
            30.1354278
          ],
          [
            -97.6404968,
            30.1354344
          ],
          [
            -97.6405187,
            30.1354536
          ],
          [
            -97.6405423,
            30.1354713
          ],
          [
            -97.6405506,
            30.1354767
          ],
          [
            -97.6405676,
            30.1354869
          ],
          [
            -97.6405853,
            30.1354964
          ],
          [
            -97.6406038,
            30.1355046
          ],
          [
            -97.6406228,
            30.1355119
          ],
          [
            -97.6406423,
            30.135518
          ],
          [
            -97.6406522,
            30.1355205
          ],
          [
            -97.6406624,
            30.1355223
          ],
          [
            -97.6406931,
            30.1355267
          ],
          [
            -97.6407035,
            30.1355275
          ],
          [
            -97.6407242,
            30.1355284
          ],
          [
            -97.6407346,
            30.1355284
          ],
          [
            -97.6407657,
            30.1355274
          ],
          [
            -97.640776,
            30.1355264
          ],
          [
            -97.6407965,
            30.1355236
          ],
          [
            -97.6408268,
            30.1355176
          ],
          [
            -97.6409372,
            30.1354922
          ],
          [
            -97.6410169,
            30.135472
          ],
          [
            -97.641066,
            30.1354574
          ],
          [
            -97.6411533,
            30.1354286
          ],
          [
            -97.641201,
            30.1354108
          ],
          [
            -97.6412104,
            30.135407
          ],
          [
            -97.6413039,
            30.1353678
          ],
          [
            -97.6413677,
            30.1353377
          ],
          [
            -97.6414928,
            30.1352829
          ],
          [
            -97.6416179,
            30.1352281
          ],
          [
            -97.6416651,
            30.1352092
          ],
          [
            -97.6417699,
            30.13517
          ],
          [
            -97.6419218,
            30.1351116
          ],
          [
            -97.6419783,
            30.1350888
          ],
          [
            -97.6420453,
            30.1350644
          ],
          [
            -97.642159,
            30.1350203
          ],
          [
            -97.642245,
            30.1349886
          ],
          [
            -97.6423207,
            30.1349589
          ],
          [
            -97.6423874,
            30.1349341
          ],
          [
            -97.6424442,
            30.1349118
          ],
          [
            -97.6425301,
            30.13488
          ],
          [
            -97.6425866,
            30.1348572
          ],
          [
            -97.6426824,
            30.1348224
          ],
          [
            -97.6427389,
            30.1347998
          ],
          [
            -97.6427962,
            30.1347786
          ],
          [
            -97.642853,
            30.1347564
          ],
          [
            -97.6428732,
            30.1347538
          ],
          [
            -97.642983,
            30.1347265
          ],
          [
            -97.6429932,
            30.1347258
          ],
          [
            -97.6430031,
            30.1347237
          ],
          [
            -97.6430412,
            30.1347094
          ],
          [
            -97.6432302,
            30.1346347
          ],
          [
            -97.6432968,
            30.1346095
          ],
          [
            -97.6433156,
            30.1346019
          ],
          [
            -97.6433338,
            30.1345933
          ],
          [
            -97.6433425,
            30.1345884
          ],
          [
            -97.6433584,
            30.1345768
          ],
          [
            -97.643373,
            30.134564
          ],
          [
            -97.6433867,
            30.1345505
          ],
          [
            -97.6433931,
            30.1345433
          ],
          [
            -97.6434043,
            30.1345281
          ],
          [
            -97.6434236,
            30.1344962
          ],
          [
            -97.6434277,
            30.1344879
          ],
          [
            -97.6434336,
            30.1344706
          ],
          [
            -97.6434413,
            30.1344352
          ],
          [
            -97.643442,
            30.1344172
          ],
          [
            -97.6434394,
            30.1343993
          ],
          [
            -97.6434323,
            30.1343729
          ],
          [
            -97.6434258,
            30.1343558
          ],
          [
            -97.6434217,
            30.1343475
          ],
          [
            -97.6434017,
            30.1343159
          ],
          [
            -97.6433902,
            30.1343009
          ],
          [
            -97.6433836,
            30.134294
          ],
          [
            -97.6433684,
            30.1342816
          ],
          [
            -97.6432535,
            30.134202
          ]
        ]
      }
    },
    {
      "type": "Feature",
      "properties": {
        "role": "start_finish",
        "name": "Start / Finish",
        "marker": 0.0
      },
      "geometry": {
        "type": "Point",
        "coordinates": [
          -97.6432548,
          30.1342029
        ]
      }
    },
    {
      "type": "Feature",
      "properties": {
        "role": "pit_entry",
        "name": "Pit Entry",
        "marker": 0.99006
      },
      "geometry": {
        "type": "Point",
        "coordinates": [
          -97.6433248,
          30.1345977
        ]
      }
    },
    {
      "type": "Feature",
      "properties": {
        "role": "pit_exit",
        "name": "Pit Exit",
        "marker": 0.07009
      },
      "geometry": {
        "type": "Point",
        "coordinates": [
          -97.6400932,
          30.1320713
        ]
      }
    },
    {
      "type": "Feature",
      "properties": {
        "role": "corner",
        "id": "t1",
        "number": 1,
        "code": "1",
        "display": "Big Red",
        "labels": {
          "numbered": "Turn 1",
          "driver": "Big Red"
        },
        "direction": "left",
        "scale": 1,
        "marker": 0.14119
      },
      "geometry": {
        "type": "Point",
        "coordinates": [
          -97.6368269,
          30.1300789
        ]
      }
    },
    {
      "type": "Feature",
      "properties": {
        "role": "corner",
        "id": "t2",
        "number": 2,
        "code": "2",
        "display": "Turn 2",
        "labels": {
          "numbered": "Turn 2"
        },
        "direction": "right",
        "scale": 4,
        "marker": 0.17482
      },
      "geometry": {
        "type": "Point",
        "coordinates": [
          -97.6373256,
          30.1316535
        ]
      }
    },
    {
      "type": "Feature",
      "properties": {
        "role": "corner",
        "id": "t3",
        "number": 3,
        "code": "3",
        "display": "Turn 3",
        "labels": {
          "numbered": "Turn 3"
        },
        "direction": "left",
        "scale": 5,
        "marker": 0.23334
      },
      "geometry": {
        "type": "Point",
        "coordinates": [
          -97.6351446,
          30.1336012
        ]
      }
    },
    {
      "type": "Feature",
      "properties": {
        "role": "corner",
        "id": "t4",
        "number": 4,
        "code": "4",
        "display": "Turn 4",
        "labels": {
          "numbered": "Turn 4"
        },
        "direction": "right",
        "scale": 5,
        "marker": 0.25243
      },
      "geometry": {
        "type": "Point",
        "coordinates": [
          -97.6346129,
          30.1344168
        ]
      }
    },
    {
      "type": "Feature",
      "properties": {
        "role": "corner",
        "id": "t5",
        "number": 5,
        "code": "5",
        "display": "Turn 5",
        "labels": {
          "numbered": "Turn 5"
        },
        "direction": "left",
        "scale": 5,
        "marker": 0.26733
      },
      "geometry": {
        "type": "Point",
        "coordinates": [
          -97.6338763,
          30.1347727
        ]
      }
    },
    {
      "type": "Feature",
      "properties": {
        "role": "corner",
        "id": "t6",
        "number": 6,
        "code": "6",
        "display": "Turn 6",
        "labels": {
          "numbered": "Turn 6"
        },
        "direction": "right",
        "scale": 4,
        "marker": 0.28423
      },
      "geometry": {
        "type": "Point",
        "coordinates": [
          -97.6336182,
          30.1355695
        ]
      }
    },
    {
      "type": "Feature",
      "properties": {
        "role": "corner",
        "id": "t7",
        "number": 7,
        "code": "7",
        "display": "Turn 7",
        "labels": {
          "numbered": "Turn 7"
        },
        "direction": "left",
        "scale": 4,
        "marker": 0.30695
      },
      "geometry": {
        "type": "Point",
        "coordinates": [
          -97.6326046,
          30.1362027
        ]
      }
    },
    {
      "type": "Feature",
      "properties": {
        "role": "corner",
        "id": "t8",
        "number": 8,
        "code": "8",
        "display": "Turn 8",
        "labels": {
          "numbered": "Turn 8"
        },
        "direction": "right",
        "scale": 2,
        "marker": 0.3402
      },
      "geometry": {
        "type": "Point",
        "coordinates": [
          -97.6308481,
          30.1358661
        ]
      }
    },
    {
      "type": "Feature",
      "properties": {
        "role": "corner",
        "id": "t9",
        "number": 9,
        "code": "9",
        "display": "Turn 9",
        "labels": {
          "numbered": "Turn 9"
        },
        "direction": "left",
        "scale": 3,
        "marker": 0.3344
      },
      "geometry": {
        "type": "Point",
        "coordinates": [
          -97.6311451,
          30.1357446
        ]
      }
    },
    {
      "type": "Feature",
      "properties": {
        "role": "corner",
        "id": "t10",
        "number": 10,
        "code": "10",
        "display": "Turn 10",
        "labels": {
          "numbered": "Turn 10"
        },
        "direction": "left",
        "scale": 5,
        "marker": 0.38002
      },
      "geometry": {
        "type": "Point",
        "coordinates": [
          -97.6291386,
          30.1362338
        ]
      }
    },
    {
      "type": "Feature",
      "properties": {
        "role": "corner",
        "id": "t11",
        "number": 11,
        "code": "11",
        "display": "Hairpin",
        "labels": {
          "numbered": "Turn 11",
          "driver": "Hairpin"
        },
        "direction": "left",
        "scale": 1,
        "marker": 0.4927
      },
      "geometry": {
        "type": "Point",
        "coordinates": [
          -97.6245423,
          30.1394199
        ]
      }
    },
    {
      "type": "Feature",
      "properties": {
        "role": "corner",
        "id": "t12",
        "number": 12,
        "code": "12",
        "display": "Turn 12",
        "labels": {
          "numbered": "Turn 12"
        },
        "direction": "left",
        "scale": 1,
        "marker": 0.70953
      },
      "geometry": {
        "type": "Point",
        "coordinates": [
          -97.636611,
          30.137285
        ]
      }
    },
    {
      "type": "Feature",
      "properties": {
        "role": "corner",
        "id": "t13",
        "number": 13,
        "code": "13",
        "display": "Turn 13",
        "labels": {
          "numbered": "Turn 13"
        },
        "direction": "right",
        "scale": 2,
        "marker": 0.7201
      },
      "geometry": {
        "type": "Point",
        "coordinates": [
          -97.6362834,
          30.1368598
        ]
      }
    },
    {
      "type": "Feature",
      "properties": {
        "role": "corner",
        "id": "t14",
        "number": 14,
        "code": "14",
        "display": "Turn 14",
        "labels": {
          "numbered": "Turn 14"
        },
        "direction": "right",
        "scale": 4,
        "marker": 0.75007
      },
      "geometry": {
        "type": "Point",
        "coordinates": [
          -97.6354718,
          30.1356017
        ]
      }
    },
    {
      "type": "Feature",
      "properties": {
        "role": "corner",
        "id": "t15",
        "number": 15,
        "code": "15",
        "display": "Turn 15",
        "labels": {
          "numbered": "Turn 15"
        },
        "direction": "left",
        "scale": 5,
        "marker": 0.77951
      },
      "geometry": {
        "type": "Point",
        "coordinates": [
          -97.6367086,
          30.1361419
        ]
      }
    },
    {
      "type": "Feature",
      "properties": {
        "role": "corner",
        "id": "t16",
        "number": 16,
        "code": "16",
        "display": "Turn 16",
        "labels": {
          "numbered": "Turn 16"
        },
        "direction": "left",
        "scale": 2,
        "marker": 0.8015
      },
      "geometry": {
        "type": "Point",
        "coordinates": [
          -97.6377399,
          30.1365647
        ]
      }
    },
    {
      "type": "Feature",
      "properties": {
        "role": "corner",
        "id": "t17",
        "number": 17,
        "code": "17",
        "display": "Turn 17",
        "labels": {
          "numbered": "Turn 17"
        },
        "direction": "right",
        "scale": 5,
        "marker": 0.80986
      },
      "geometry": {
        "type": "Point",
        "coordinates": [
          -97.6376366,
          30.1361915
        ]
      }
    },
    {
      "type": "Feature",
      "properties": {
        "role": "corner",
        "id": "t18",
        "number": 18,
        "code": "18",
        "display": "Turn 18",
        "labels": {
          "numbered": "Turn 18"
        },
        "direction": "right",
        "scale": 5,
        "marker": 0.85966
      },
      "geometry": {
        "type": "Point",
        "coordinates": [
          -97.6371526,
          30.133988
        ]
      }
    },
    {
      "type": "Feature",
      "properties": {
        "role": "corner",
        "id": "t19",
        "number": 19,
        "code": "19",
        "display": "Turn 19",
        "labels": {
          "numbered": "Turn 19"
        },
        "direction": "left",
        "scale": 4,
        "marker": 0.90987
      },
      "geometry": {
        "type": "Point",
        "coordinates": [
          -97.6395842,
          30.1344065
        ]
      }
    },
    {
      "type": "Feature",
      "properties": {
        "role": "corner",
        "id": "t20",
        "number": 20,
        "code": "20",
        "display": "Turn 20",
        "labels": {
          "numbered": "Turn 20"
        },
        "direction": "left",
        "scale": 2,
        "marker": 0.93927
      },
      "geometry": {
        "type": "Point",
        "coordinates": [
          -97.6406522,
          30.1355205
        ]
      }
    }
  ]
}